<?xml version="1.0" encoding="UTF-8" standalone="no" ?>

<gpx xmlns="http://www.topografix.com/GPX/1/1" xmlns:xsi="http://www.w3.org/2001/XMLSchema-instance" xsi:schemaLocation="http://www.topografix.com/GPX/1/1 http://www.topografix.com/GPX/1/1/gpx.xsd" version="1.1" creator="waymarkedtrails.org"><metadata><name>Harbour to Hawkesbury Track</name><copyright author="OpenStreetMap and Contributors"><license>https://www.openstreetmap.org/copyright</license></copyright><link href="https://hiking.waymarkedtrails.org/#route?id=12508374&amp;type=relation"><text>WaymarkedTrails</text></link><time>2025-10-24T03:19:31.273Z</time></metadata><trk><trkseg><trkpt lat="-33.6005095" lon="151.1256878"/><trkpt lat="-33.6005839" lon="151.1256177"/><trkpt lat="-33.6005938" lon="151.1256104"/><trkpt lat="-33.6005863" lon="151.1255958"/><trkpt lat="-33.60062" lon="151.1255487"/><trkpt lat="-33.6006353" lon="151.125242"/><trkpt lat="-33.6006753" lon="151.1251325"/><trkpt lat="-33.6007585" lon="151.1249462"/><trkpt lat="-33.600948" lon="151.1247821"/><trkpt lat="-33.6010207" lon="151.1246382"/><trkpt lat="-33.6013335" lon="151.1245514"/><trkpt lat="-33.6018111" lon="151.1246149"/><trkpt lat="-33.6020693" lon="151.1244802"/><trkpt lat="-33.6022004" lon="151.124486"/><trkpt lat="-33.6024982" lon="151.1243032"/><trkpt lat="-33.6027017" lon="151.1242604"/><trkpt lat="-33.6027188" lon="151.1241692"/><trkpt lat="-33.6027458" lon="151.1239219"/><trkpt lat="-33.6027983" lon="151.1237346"/><trkpt lat="-33.6028983" lon="151.1236864"/><trkpt lat="-33.6030986" lon="151.123725"/><trkpt lat="-33.6032809" lon="151.1237129"/><trkpt lat="-33.6033617" lon="151.1237201"/><trkpt lat="-33.6035521" lon="151.1236568"/><trkpt lat="-33.6035579" lon="151.1236764"/><trkpt lat="-33.6034496" lon="151.1238477"/><trkpt lat="-33.6034602" lon="151.1238695"/><trkpt lat="-33.603442" lon="151.123893"/><trkpt lat="-33.6034747" lon="151.1239289"/><trkpt lat="-33.6035125" lon="151.1238874"/><trkpt lat="-33.6035283" lon="151.1238916"/><trkpt lat="-33.6035328" lon="151.1239198"/><trkpt lat="-33.6035428" lon="151.1239258"/><trkpt lat="-33.6036272" lon="151.1239003"/><trkpt lat="-33.6036495" lon="151.1238521"/><trkpt lat="-33.6036665" lon="151.1238454"/><trkpt lat="-33.6037014" lon="151.1238065"/><trkpt lat="-33.6037687" lon="151.1238373"/><trkpt lat="-33.603777" lon="151.1238567"/><trkpt lat="-33.6037869" lon="151.1238511"/><trkpt lat="-33.6037998" lon="151.1238067"/><trkpt lat="-33.6038701" lon="151.1238057"/><trkpt lat="-33.6039014" lon="151.1238715"/><trkpt lat="-33.6039195" lon="151.1239592"/><trkpt lat="-33.6039917" lon="151.1240077"/><trkpt lat="-33.6040952" lon="151.1239909"/><trkpt lat="-33.6042745" lon="151.123893"/><trkpt lat="-33.6043861" lon="151.1237562"/><trkpt lat="-33.6045413" lon="151.1236886"/><trkpt lat="-33.6046355" lon="151.1236073"/><trkpt lat="-33.6046981" lon="151.1234379"/><trkpt lat="-33.6048806" lon="151.1233967"/><trkpt lat="-33.6050451" lon="151.1233234"/><trkpt lat="-33.6051473" lon="151.1233642"/><trkpt lat="-33.6052442" lon="151.1233234"/><trkpt lat="-33.6053268" lon="151.1233451"/><trkpt lat="-33.605454" lon="151.1234906"/><trkpt lat="-33.6056596" lon="151.123634"/><trkpt lat="-33.6062205" lon="151.1240278"/><trkpt lat="-33.6062247" lon="151.1242148"/><trkpt lat="-33.6063365" lon="151.1247351"/><trkpt lat="-33.6063819" lon="151.1250959"/><trkpt lat="-33.6067518" lon="151.1256423"/><trkpt lat="-33.606839" lon="151.1259609"/><trkpt lat="-33.6069882" lon="151.1262232"/><trkpt lat="-33.6073631" lon="151.1266631"/><trkpt lat="-33.6077189" lon="151.1268886"/><trkpt lat="-33.6077946" lon="151.1270211"/><trkpt lat="-33.6079046" lon="151.1270419"/><trkpt lat="-33.607985" lon="151.1271143"/><trkpt lat="-33.607985" lon="151.1271706"/><trkpt lat="-33.6080075" lon="151.1272186"/><trkpt lat="-33.6081422" lon="151.1271574"/><trkpt lat="-33.6082448" lon="151.1272365"/><trkpt lat="-33.6083071" lon="151.1272496"/><trkpt lat="-33.6084116" lon="151.1272082"/><trkpt lat="-33.6085568" lon="151.1272216"/><trkpt lat="-33.6086797" lon="151.127294"/><trkpt lat="-33.6087467" lon="151.1273718"/><trkpt lat="-33.6089381" lon="151.1274715"/><trkpt lat="-33.6095031" lon="151.1274351"/><trkpt lat="-33.6096193" lon="151.1273907"/><trkpt lat="-33.6097024" lon="151.1272766"/><trkpt lat="-33.6098279" lon="151.1272672"/><trkpt lat="-33.6099351" lon="151.1273798"/><trkpt lat="-33.61006" lon="151.1274685"/><trkpt lat="-33.6101409" lon="151.1275533"/><trkpt lat="-33.6103628" lon="151.1274818"/><trkpt lat="-33.6104923" lon="151.1275371"/><trkpt lat="-33.6105874" lon="151.1276373"/><trkpt lat="-33.6105785" lon="151.127876"/><trkpt lat="-33.6106469" lon="151.12792"/><trkpt lat="-33.6107724" lon="151.1278383"/><trkpt lat="-33.6109802" lon="151.1280252"/><trkpt lat="-33.6111394" lon="151.1282815"/><trkpt lat="-33.6111879" lon="151.1283299"/><trkpt lat="-33.6114948" lon="151.1283119"/><trkpt lat="-33.6118389" lon="151.1280391"/><trkpt lat="-33.6119774" lon="151.1279629"/><trkpt lat="-33.6121809" lon="151.1279909"/><trkpt lat="-33.6122136" lon="151.1279706"/><trkpt lat="-33.6122236" lon="151.127929"/><trkpt lat="-33.6122515" lon="151.1279348"/><trkpt lat="-33.6123607" lon="151.1279918"/><trkpt lat="-33.6124804" lon="151.1278849"/><trkpt lat="-33.6125685" lon="151.1278662"/><trkpt lat="-33.6126884" lon="151.1281779"/><trkpt lat="-33.6127974" lon="151.1283716"/><trkpt lat="-33.6128997" lon="151.128455"/><trkpt lat="-33.6129427" lon="151.1284692"/><trkpt lat="-33.613032" lon="151.1284273"/><trkpt lat="-33.6130756" lon="151.1283906"/><trkpt lat="-33.6131243" lon="151.1283684"/><trkpt lat="-33.6132348" lon="151.1283506"/><trkpt lat="-33.6133032" lon="151.1283545"/><trkpt lat="-33.6133308" lon="151.1283768"/><trkpt lat="-33.6134535" lon="151.1284955"/><trkpt lat="-33.6136036" lon="151.1286497"/><trkpt lat="-33.6137136" lon="151.1288612"/><trkpt lat="-33.6138623" lon="151.1293495"/><trkpt lat="-33.6140101" lon="151.129498"/><trkpt lat="-33.6140893" lon="151.1295726"/><trkpt lat="-33.6141729" lon="151.1295513"/><trkpt lat="-33.6142761" lon="151.1295326"/><trkpt lat="-33.6144027" lon="151.129673"/><trkpt lat="-33.614476" lon="151.1296342"/><trkpt lat="-33.614555" lon="151.1295871"/><trkpt lat="-33.6146645" lon="151.1295404"/><trkpt lat="-33.6147198" lon="151.1295377"/><trkpt lat="-33.6147891" lon="151.1295095"/><trkpt lat="-33.6149247" lon="151.1294585"/><trkpt lat="-33.6149852" lon="151.1294309"/><trkpt lat="-33.6150197" lon="151.1288779"/><trkpt lat="-33.6150784" lon="151.1285681"/><trkpt lat="-33.6150986" lon="151.1285106"/><trkpt lat="-33.6151597" lon="151.1283692"/><trkpt lat="-33.6151762" lon="151.1283115"/><trkpt lat="-33.6151633" lon="151.1279299"/><trkpt lat="-33.6151929" lon="151.127535"/><trkpt lat="-33.6152336" lon="151.1273392"/><trkpt lat="-33.6153138" lon="151.1271656"/><trkpt lat="-33.6154289" lon="151.127001"/><trkpt lat="-33.615587" lon="151.1269102"/><trkpt lat="-33.6157925" lon="151.1268343"/><trkpt lat="-33.615999" lon="151.1268263"/><trkpt lat="-33.6161293" lon="151.1268435"/><trkpt lat="-33.6162696" lon="151.1269102"/><trkpt lat="-33.6164308" lon="151.1269936"/><trkpt lat="-33.6167455" lon="151.127072"/><trkpt lat="-33.6171622" lon="151.12722"/><trkpt lat="-33.6172662" lon="151.127264"/><trkpt lat="-33.617457" lon="151.1274409"/><trkpt lat="-33.617568" lon="151.1276066"/><trkpt lat="-33.6176303" lon="151.127809"/><trkpt lat="-33.6176831" lon="151.1279158"/><trkpt lat="-33.6178108" lon="151.1280919"/><trkpt lat="-33.6178562" lon="151.1282098"/><trkpt lat="-33.6179095" lon="151.1284527"/><trkpt lat="-33.6180193" lon="151.1288424"/><trkpt lat="-33.6181834" lon="151.1291172"/><trkpt lat="-33.6184493" lon="151.1292406"/><trkpt lat="-33.6185778" lon="151.1293841"/><trkpt lat="-33.6187136" lon="151.1295802"/><trkpt lat="-33.61877" lon="151.129749"/><trkpt lat="-33.6188165" lon="151.1299367"/><trkpt lat="-33.6189162" lon="151.1300569"/><trkpt lat="-33.6191233" lon="151.1302327"/><trkpt lat="-33.6193597" lon="151.1304161"/><trkpt lat="-33.6194529" lon="151.1305529"/><trkpt lat="-33.6195373" lon="151.1307332"/><trkpt lat="-33.6195966" lon="151.1309108"/><trkpt lat="-33.6196027" lon="151.1310776"/><trkpt lat="-33.619583" lon="151.1313997"/><trkpt lat="-33.6196028" lon="151.1317146"/><trkpt lat="-33.6196271" lon="151.1318323"/><trkpt lat="-33.6197375" lon="151.1321185"/><trkpt lat="-33.619801" lon="151.1323454"/><trkpt lat="-33.6198125" lon="151.1325149"/><trkpt lat="-33.6197979" lon="151.1327912"/><trkpt lat="-33.6198327" lon="151.1329046"/><trkpt lat="-33.6199398" lon="151.1330567"/><trkpt lat="-33.6199806" lon="151.1331692"/><trkpt lat="-33.6199833" lon="151.1332686"/><trkpt lat="-33.6197916" lon="151.1340563"/><trkpt lat="-33.6197175" lon="151.1342195"/><trkpt lat="-33.6195707" lon="151.1344612"/><trkpt lat="-33.6195068" lon="151.1345931"/><trkpt lat="-33.6193858" lon="151.1349948"/><trkpt lat="-33.6192659" lon="151.1352969"/><trkpt lat="-33.6191312" lon="151.1358798"/><trkpt lat="-33.6191327" lon="151.136161"/><trkpt lat="-33.6191961" lon="151.136459"/><trkpt lat="-33.6192538" lon="151.1367277"/><trkpt lat="-33.6193608" lon="151.136876"/><trkpt lat="-33.619593" lon="151.136982"/><trkpt lat="-33.6196438" lon="151.1370653"/><trkpt lat="-33.6196663" lon="151.1371732"/><trkpt lat="-33.6196489" lon="151.137395"/><trkpt lat="-33.6195449" lon="151.137821"/><trkpt lat="-33.6195233" lon="151.1379738"/><trkpt lat="-33.6195107" lon="151.1382823"/><trkpt lat="-33.6194558" lon="151.1385374"/><trkpt lat="-33.6194384" lon="151.1389559"/><trkpt lat="-33.6194942" lon="151.1391346"/><trkpt lat="-33.6195818" lon="151.1392897"/><trkpt lat="-33.6197323" lon="151.1395757"/><trkpt lat="-33.6197622" lon="151.1397462"/><trkpt lat="-33.6197711" lon="151.1400245"/><trkpt lat="-33.6196189" lon="151.140359"/><trkpt lat="-33.6195936" lon="151.1404623"/><trkpt lat="-33.6195925" lon="151.1405267"/><trkpt lat="-33.6196036" lon="151.1406259"/><trkpt lat="-33.6196408" lon="151.1407282"/><trkpt lat="-33.619719" lon="151.1408176"/><trkpt lat="-33.6197841" lon="151.1408431"/><trkpt lat="-33.619841" lon="151.1408435"/><trkpt lat="-33.6199576" lon="151.1409734"/><trkpt lat="-33.6202967" lon="151.1411655"/><trkpt lat="-33.6205827" lon="151.1414608"/><trkpt lat="-33.6206221" lon="151.1414628"/><trkpt lat="-33.6206588" lon="151.141467"/><trkpt lat="-33.6207673" lon="151.1415513"/><trkpt lat="-33.6208164" lon="151.1416103"/><trkpt lat="-33.6208802" lon="151.1416425"/><trkpt lat="-33.6208918" lon="151.1417273"/><trkpt lat="-33.6210269" lon="151.142017"/><trkpt lat="-33.6211853" lon="151.1424264"/><trkpt lat="-33.6211992" lon="151.1424865"/><trkpt lat="-33.6212509" lon="151.1426395"/><trkpt lat="-33.6213505" lon="151.1427973"/><trkpt lat="-33.6213458" lon="151.1429715"/><trkpt lat="-33.6213346" lon="151.1430508"/><trkpt lat="-33.6212071" lon="151.1432947"/><trkpt lat="-33.6211883" lon="151.1433088"/><trkpt lat="-33.6211394" lon="151.1433234"/><trkpt lat="-33.6210916" lon="151.1431799"/><trkpt lat="-33.6209881" lon="151.1431082"/><trkpt lat="-33.6209244" lon="151.143156"/><trkpt lat="-33.6208885" lon="151.1432326"/><trkpt lat="-33.6209302" lon="151.1433266"/><trkpt lat="-33.6209396" lon="151.1435941"/><trkpt lat="-33.6209915" lon="151.1437192"/><trkpt lat="-33.6211812" lon="151.1441033"/><trkpt lat="-33.6212737" lon="151.1442209"/><trkpt lat="-33.6213417" lon="151.1444162"/><trkpt lat="-33.6213475" lon="151.144667"/><trkpt lat="-33.6213896" lon="151.1446783"/><trkpt lat="-33.6217651" lon="151.1447794"/><trkpt lat="-33.6217947" lon="151.1447874"/><trkpt lat="-33.6218505" lon="151.1448225"/><trkpt lat="-33.6219253" lon="151.1448358"/><trkpt lat="-33.6219926" lon="151.1448725"/><trkpt lat="-33.6221227" lon="151.1449064"/><trkpt lat="-33.6222744" lon="151.144884"/><trkpt lat="-33.6224047" lon="151.1449011"/><trkpt lat="-33.6224585" lon="151.1448693"/><trkpt lat="-33.6224798" lon="151.1448021"/><trkpt lat="-33.6224915" lon="151.1448075"/><trkpt lat="-33.622515" lon="151.1448182"/><trkpt lat="-33.622528" lon="151.1448159"/><trkpt lat="-33.6225375" lon="151.1448143"/><trkpt lat="-33.622563" lon="151.1448135"/><trkpt lat="-33.6225744" lon="151.1448269"/><trkpt lat="-33.6225811" lon="151.1448348"/><trkpt lat="-33.6225891" lon="151.1448969"/><trkpt lat="-33.6225254" lon="151.1449639"/><trkpt lat="-33.6224577" lon="151.1450356"/><trkpt lat="-33.6224264" lon="151.1451265"/><trkpt lat="-33.6223661" lon="151.145203"/><trkpt lat="-33.6223541" lon="151.1452843"/><trkpt lat="-33.622374" lon="151.1453896"/><trkpt lat="-33.6223979" lon="151.1454613"/><trkpt lat="-33.6224417" lon="151.1454948"/><trkpt lat="-33.6224736" lon="151.1455283"/><trkpt lat="-33.6225174" lon="151.145643"/><trkpt lat="-33.6225572" lon="151.1456861"/><trkpt lat="-33.6225732" lon="151.1457578"/><trkpt lat="-33.6226887" lon="151.145777"/><trkpt lat="-33.6227285" lon="151.1458248"/><trkpt lat="-33.6227763" lon="151.1459348"/><trkpt lat="-33.6228581" lon="151.1460033"/><trkpt lat="-33.6229001" lon="151.1460108"/><trkpt lat="-33.6229524" lon="151.1459422"/><trkpt lat="-33.6230118" lon="151.1459628"/><trkpt lat="-33.623058" lon="151.146139"/><trkpt lat="-33.6230921" lon="151.1464363"/><trkpt lat="-33.6231428" lon="151.1465266"/><trkpt lat="-33.6232136" lon="151.1466353"/><trkpt lat="-33.6231333" lon="151.1468462"/><trkpt lat="-33.6231177" lon="151.14705"/><trkpt lat="-33.6231205" lon="151.1472125"/><trkpt lat="-33.6230513" lon="151.1472192"/><trkpt lat="-33.6229698" lon="151.1472233"/><trkpt lat="-33.6229669" lon="151.1473504"/><trkpt lat="-33.6229613" lon="151.1474003"/><trkpt lat="-33.6229597" lon="151.1474244"/><trkpt lat="-33.6229441" lon="151.1475035"/><trkpt lat="-33.6229541" lon="151.1475076"/><trkpt lat="-33.6230312" lon="151.1475572"/><trkpt lat="-33.6230971" lon="151.1476226"/><trkpt lat="-33.6231149" lon="151.1476403"/><trkpt lat="-33.6232087" lon="151.1478455"/><trkpt lat="-33.6232534" lon="151.1480078"/><trkpt lat="-33.6232869" lon="151.1481634"/><trkpt lat="-33.6232956" lon="151.1482475"/><trkpt lat="-33.6233483" lon="151.1486256"/><trkpt lat="-33.623465" lon="151.1494704"/><trkpt lat="-33.6234953" lon="151.1496956"/><trkpt lat="-33.6235328" lon="151.1499596"/><trkpt lat="-33.6235334" lon="151.1500116"/><trkpt lat="-33.6235259" lon="151.1500579"/><trkpt lat="-33.6235112" lon="151.1500966"/><trkpt lat="-33.623484" lon="151.1501134"/><trkpt lat="-33.6234942" lon="151.1502052"/><trkpt lat="-33.6234983" lon="151.1502831"/><trkpt lat="-33.6235642" lon="151.1503301"/><trkpt lat="-33.6236781" lon="151.1511801"/><trkpt lat="-33.623723" lon="151.1515409"/><trkpt lat="-33.6237116" lon="151.1515581"/><trkpt lat="-33.6237624" lon="151.1516095"/><trkpt lat="-33.6238617" lon="151.15171"/><trkpt lat="-33.6239122" lon="151.151761"/><trkpt lat="-33.623171" lon="151.1528476"/><trkpt lat="-33.6229964" lon="151.1531242"/><trkpt lat="-33.6228939" lon="151.1532796"/><trkpt lat="-33.6228784" lon="151.1533221"/><trkpt lat="-33.6228711" lon="151.1533769"/><trkpt lat="-33.6228748" lon="151.1534309"/><trkpt lat="-33.6228836" lon="151.1534787"/><trkpt lat="-33.6228901" lon="151.1535468"/><trkpt lat="-33.6228805" lon="151.1536077"/><trkpt lat="-33.6228519" lon="151.1536625"/><trkpt lat="-33.6228096" lon="151.1537051"/><trkpt lat="-33.6229519" lon="151.153833"/><trkpt lat="-33.6230852" lon="151.1539584"/><trkpt lat="-33.6231298" lon="151.1540052"/><trkpt lat="-33.6231777" lon="151.1540554"/><trkpt lat="-33.623636" lon="151.1545351"/><trkpt lat="-33.6237423" lon="151.1546337"/><trkpt lat="-33.6240976" lon="151.1547098"/><trkpt lat="-33.6242832" lon="151.1547986"/><trkpt lat="-33.624511" lon="151.1549266"/><trkpt lat="-33.6243878" lon="151.1551748"/><trkpt lat="-33.6242527" lon="151.1553993"/><trkpt lat="-33.6241617" lon="151.1555227"/><trkpt lat="-33.6241297" lon="151.1556235"/><trkpt lat="-33.623882" lon="151.1556307"/><trkpt lat="-33.6237042" lon="151.1556739"/><trkpt lat="-33.6235763" lon="151.1558346"/><trkpt lat="-33.6236123" lon="151.1558898"/><trkpt lat="-33.623848" lon="151.155801"/><trkpt lat="-33.6241998" lon="151.155724"/><trkpt lat="-33.6244845" lon="151.155712"/><trkpt lat="-33.6246917" lon="151.1555636"/><trkpt lat="-33.6248949" lon="151.1554244"/><trkpt lat="-33.6249088" lon="151.1556307"/><trkpt lat="-33.6247191" lon="151.156053"/><trkpt lat="-33.6244773" lon="151.1561321"/><trkpt lat="-33.6242276" lon="151.1564728"/><trkpt lat="-33.6245243" lon="151.1563039"/><trkpt lat="-33.6248629" lon="151.1562257"/><trkpt lat="-33.6251324" lon="151.156067"/><trkpt lat="-33.6254482" lon="151.1558034"/><trkpt lat="-33.6254679" lon="151.1559232"/><trkpt lat="-33.6252944" lon="151.1563625"/><trkpt lat="-33.6251905" lon="151.1566288"/><trkpt lat="-33.6254" lon="151.1564667"/><trkpt lat="-33.6255401" lon="151.1563337"/><trkpt lat="-33.6255981" lon="151.1563721"/><trkpt lat="-33.6253084" lon="151.1568639"/><trkpt lat="-33.6250829" lon="151.1570617"/><trkpt lat="-33.6250545" lon="151.157215"/><trkpt lat="-33.6253321" lon="151.157043"/><trkpt lat="-33.6251752" lon="151.1573664"/><trkpt lat="-33.6256513" lon="151.1570337"/><trkpt lat="-33.625699" lon="151.1571023"/><trkpt lat="-33.6256311" lon="151.1572714"/><trkpt lat="-33.6250714" lon="151.1577238"/><trkpt lat="-33.6250075" lon="151.1577844"/><trkpt lat="-33.6249743" lon="151.1578496"/><trkpt lat="-33.6249718" lon="151.1579007"/><trkpt lat="-33.6249814" lon="151.1580003"/><trkpt lat="-33.6248514" lon="151.158146"/><trkpt lat="-33.6246838" lon="151.1585034"/><trkpt lat="-33.6246227" lon="151.1588748"/><trkpt lat="-33.6246176" lon="151.1591359"/><trkpt lat="-33.6246046" lon="151.1594238"/><trkpt lat="-33.6246041" lon="151.1596238"/><trkpt lat="-33.6245106" lon="151.1603205"/><trkpt lat="-33.6246547" lon="151.1608675"/><trkpt lat="-33.6246986" lon="151.1611336"/><trkpt lat="-33.6247556" lon="151.1615471"/><trkpt lat="-33.6248221" lon="151.1617605"/><trkpt lat="-33.6251257" lon="151.1624384"/><trkpt lat="-33.6255695" lon="151.1631818"/><trkpt lat="-33.6258798" lon="151.1637843"/><trkpt lat="-33.626059" lon="151.1639873"/><trkpt lat="-33.6262944" lon="151.1642087"/><trkpt lat="-33.6264656" lon="151.1642853"/><trkpt lat="-33.6267039" lon="151.1643645"/><trkpt lat="-33.6268244" lon="151.1645549"/><trkpt lat="-33.6269599" lon="151.1647084"/><trkpt lat="-33.6273159" lon="151.1651227"/><trkpt lat="-33.6276113" lon="151.1654589"/><trkpt lat="-33.6277533" lon="151.1659881"/><trkpt lat="-33.6278114" lon="151.1662725"/><trkpt lat="-33.6278398" lon="151.1664416"/><trkpt lat="-33.6278664" lon="151.1667585"/><trkpt lat="-33.6278848" lon="151.1668322"/><trkpt lat="-33.6279365" lon="151.167039"/><trkpt lat="-33.627914" lon="151.1676139"/><trkpt lat="-33.6277834" lon="151.1681455"/><trkpt lat="-33.6276445" lon="151.1687876"/><trkpt lat="-33.6276367" lon="151.1689699"/><trkpt lat="-33.6276015" lon="151.1691897"/><trkpt lat="-33.6276445" lon="151.169358"/><trkpt lat="-33.6277224" lon="151.1696526"/><trkpt lat="-33.6277974" lon="151.1698962"/><trkpt lat="-33.6280131" lon="151.1700483"/><trkpt lat="-33.6280733" lon="151.1700576"/><trkpt lat="-33.6282617" lon="151.1700866"/><trkpt lat="-33.6284117" lon="151.1701256"/><trkpt lat="-33.6286043" lon="151.1701825"/><trkpt lat="-33.6288116" lon="151.1701712"/><trkpt lat="-33.6290231" lon="151.1702037"/><trkpt lat="-33.6293837" lon="151.1701293"/><trkpt lat="-33.6295988" lon="151.1701294"/><trkpt lat="-33.6298129" lon="151.1701154"/><trkpt lat="-33.6300348" lon="151.1700733"/><trkpt lat="-33.6306066" lon="151.1693562"/><trkpt lat="-33.630681" lon="151.1690073"/><trkpt lat="-33.6308756" lon="151.1684603"/><trkpt lat="-33.6311481" lon="151.168278"/><trkpt lat="-33.631279" lon="151.1682395"/><trkpt lat="-33.6313428" lon="151.1679367"/><trkpt lat="-33.6317204" lon="151.1674691"/><trkpt lat="-33.6318488" lon="151.1673616"/><trkpt lat="-33.6319263" lon="151.1673739"/><trkpt lat="-33.6321019" lon="151.1674551"/><trkpt lat="-33.6322654" lon="151.1673663"/><trkpt lat="-33.6323938" lon="151.1673476"/><trkpt lat="-33.6324522" lon="151.1672962"/><trkpt lat="-33.6325885" lon="151.1673429"/><trkpt lat="-33.6327092" lon="151.1672214"/><trkpt lat="-33.6327481" lon="151.1672214"/><trkpt lat="-33.6328104" lon="151.1671372"/><trkpt lat="-33.633149" lon="151.1670437"/><trkpt lat="-33.6334137" lon="151.1669829"/><trkpt lat="-33.633838" lon="151.1668613"/><trkpt lat="-33.6339091" lon="151.1667702"/><trkpt lat="-33.634056" lon="151.1667772"/><trkpt lat="-33.6341847" lon="151.1667132"/><trkpt lat="-33.6343207" lon="151.1666416"/><trkpt lat="-33.6344448" lon="151.1665132"/><trkpt lat="-33.6345325" lon="151.1664225"/><trkpt lat="-33.6345738" lon="151.1663798"/><trkpt lat="-33.6347356" lon="151.166179"/><trkpt lat="-33.6348112" lon="151.1660852"/><trkpt lat="-33.634957" lon="151.1657561"/><trkpt lat="-33.635013" lon="151.1654221"/><trkpt lat="-33.635017" lon="151.1651622"/><trkpt lat="-33.6349124" lon="151.1647808"/><trkpt lat="-33.634822" lon="151.1645703"/><trkpt lat="-33.6348626" lon="151.164479"/><trkpt lat="-33.635146" lon="151.1641543"/><trkpt lat="-33.6353445" lon="151.1639065"/><trkpt lat="-33.6354866" lon="151.1631285"/><trkpt lat="-33.6355161" lon="151.1630329"/><trkpt lat="-33.635739" lon="151.1626416"/><trkpt lat="-33.6358231" lon="151.1623097"/><trkpt lat="-33.6358794" lon="151.1619918"/><trkpt lat="-33.6361664" lon="151.1620595"/><trkpt lat="-33.6364461" lon="151.1620691"/><trkpt lat="-33.6364852" lon="151.1621784"/><trkpt lat="-33.63647" lon="151.1623508"/><trkpt lat="-33.6363957" lon="151.1624916"/><trkpt lat="-33.6364165" lon="151.1627281"/><trkpt lat="-33.6364388" lon="151.1628004"/><trkpt lat="-33.6364463" lon="151.1629375"/><trkpt lat="-33.6363933" lon="151.1630023"/><trkpt lat="-33.6364226" lon="151.1631342"/><trkpt lat="-33.6364033" lon="151.1631771"/><trkpt lat="-33.636485" lon="151.1634717"/><trkpt lat="-33.6365239" lon="151.1635095"/><trkpt lat="-33.6366485" lon="151.1636307"/><trkpt lat="-33.6366969" lon="151.1636573"/><trkpt lat="-33.6368052" lon="151.1637168"/><trkpt lat="-33.6369797" lon="151.1635885"/><trkpt lat="-33.6370728" lon="151.1635262"/><trkpt lat="-33.6377756" lon="151.1629823"/><trkpt lat="-33.6380345" lon="151.1628121"/><trkpt lat="-33.6381744" lon="151.1626769"/><trkpt lat="-33.6383496" lon="151.1624992"/><trkpt lat="-33.6383721" lon="151.1623695"/><trkpt lat="-33.6383885" lon="151.1622748"/><trkpt lat="-33.6385053" lon="151.1621532"/><trkpt lat="-33.638731" lon="151.1621299"/><trkpt lat="-33.6388291" lon="151.1619346"/><trkpt lat="-33.6390212" lon="151.1618724"/><trkpt lat="-33.6391025" lon="151.1618461"/><trkpt lat="-33.6392643" lon="151.1617137"/><trkpt lat="-33.6394317" lon="151.1617311"/><trkpt lat="-33.6396157" lon="151.1616454"/><trkpt lat="-33.6397322" lon="151.1616328"/><trkpt lat="-33.6398561" lon="151.1616023"/><trkpt lat="-33.6400733" lon="151.1614334"/><trkpt lat="-33.6401965" lon="151.1612455"/><trkpt lat="-33.6403379" lon="151.1607223"/><trkpt lat="-33.6405" lon="151.1601086"/><trkpt lat="-33.6405902" lon="151.1598209"/><trkpt lat="-33.6407078" lon="151.1594777"/><trkpt lat="-33.6406858" lon="151.1593578"/><trkpt lat="-33.6407498" lon="151.1590755"/><trkpt lat="-33.6408754" lon="151.1586644"/><trkpt lat="-33.6408694" lon="151.1585385"/><trkpt lat="-33.6410009" lon="151.1584068"/><trkpt lat="-33.641266" lon="151.1589172"/><trkpt lat="-33.641374" lon="151.1590675"/><trkpt lat="-33.6414908" lon="151.1593948"/><trkpt lat="-33.6417538" lon="151.1598284"/><trkpt lat="-33.6419695" lon="151.1601709"/><trkpt lat="-33.642059" lon="151.1603672"/><trkpt lat="-33.6420459" lon="151.1605636"/><trkpt lat="-33.6420537" lon="151.1608076"/><trkpt lat="-33.6420543" lon="151.1608277"/><trkpt lat="-33.6420255" lon="151.1609473"/><trkpt lat="-33.6419462" lon="151.1612649"/><trkpt lat="-33.6419033" lon="151.1616109"/><trkpt lat="-33.6419404" lon="151.1619044"/><trkpt lat="-33.6419466" lon="151.1619434"/><trkpt lat="-33.6419695" lon="151.1620878"/><trkpt lat="-33.6420999" lon="151.162168"/><trkpt lat="-33.6421291" lon="151.162186"/><trkpt lat="-33.6423393" lon="151.162214"/><trkpt lat="-33.6425217" lon="151.162163"/><trkpt lat="-33.6428063" lon="151.1621509"/><trkpt lat="-33.6429309" lon="151.1622467"/><trkpt lat="-33.6431135" lon="151.1621379"/><trkpt lat="-33.6434078" lon="151.1621451"/><trkpt lat="-33.6437168" lon="151.1620644"/><trkpt lat="-33.6439001" lon="151.1619989"/><trkpt lat="-33.6440349" lon="151.1618058"/><trkpt lat="-33.6441944" lon="151.1614827"/><trkpt lat="-33.6442915" lon="151.1612693"/><trkpt lat="-33.6445579" lon="151.160947"/><trkpt lat="-33.6445695" lon="151.1608441"/><trkpt lat="-33.6446785" lon="151.1606805"/><trkpt lat="-33.644663" lon="151.1605402"/><trkpt lat="-33.6446902" lon="151.1603953"/><trkpt lat="-33.6447758" lon="151.1603252"/><trkpt lat="-33.6447681" lon="151.1601428"/><trkpt lat="-33.6448225" lon="151.1598342"/><trkpt lat="-33.6449666" lon="151.1594789"/><trkpt lat="-33.6450636" lon="151.1592358"/><trkpt lat="-33.6451173" lon="151.1591776"/><trkpt lat="-33.6453052" lon="151.1591236"/><trkpt lat="-33.6453836" lon="151.1593832"/><trkpt lat="-33.6453989" lon="151.1600154"/><trkpt lat="-33.6453285" lon="151.1605215"/><trkpt lat="-33.6453519" lon="151.1608067"/><trkpt lat="-33.645333" lon="151.1610627"/><trkpt lat="-33.6453251" lon="151.1613633"/><trkpt lat="-33.6453468" lon="151.1617763"/><trkpt lat="-33.6453871" lon="151.1619638"/><trkpt lat="-33.6454174" lon="151.1621797"/><trkpt lat="-33.6454484" lon="151.1621911"/><trkpt lat="-33.6455022" lon="151.1623124"/><trkpt lat="-33.6455294" lon="151.1623444"/><trkpt lat="-33.6456179" lon="151.1624487"/><trkpt lat="-33.6456438" lon="151.1625071"/><trkpt lat="-33.6456586" lon="151.1625404"/><trkpt lat="-33.6458838" lon="151.1626866"/><trkpt lat="-33.6460054" lon="151.1627782"/><trkpt lat="-33.6461253" lon="151.1628283"/><trkpt lat="-33.646276" lon="151.1628327"/><trkpt lat="-33.6464248" lon="151.1628892"/><trkpt lat="-33.6466726" lon="151.1627904"/><trkpt lat="-33.6468332" lon="151.1626183"/><trkpt lat="-33.6468643" lon="151.1625841"/><trkpt lat="-33.6469258" lon="151.1623599"/><trkpt lat="-33.6470129" lon="151.1621712"/><trkpt lat="-33.6470658" lon="151.1622024"/><trkpt lat="-33.6471185" lon="151.1621587"/><trkpt lat="-33.6470821" lon="151.1620497"/><trkpt lat="-33.6471747" lon="151.161945"/><trkpt lat="-33.6471911" lon="151.1616833"/><trkpt lat="-33.6472056" lon="151.161548"/><trkpt lat="-33.6472533" lon="151.1614002"/><trkpt lat="-33.6473296" lon="151.1612377"/><trkpt lat="-33.6474363" lon="151.1611059"/><trkpt lat="-33.6476185" lon="151.1610298"/><trkpt lat="-33.6479119" lon="151.1609074"/><trkpt lat="-33.6480335" lon="151.1608152"/><trkpt lat="-33.6482741" lon="151.1606543"/><trkpt lat="-33.6486584" lon="151.1603058"/><trkpt lat="-33.6489993" lon="151.1599076"/><trkpt lat="-33.6491411" lon="151.1597608"/><trkpt lat="-33.649331" lon="151.1594383"/><trkpt lat="-33.6495979" lon="151.1590882"/><trkpt lat="-33.6496556" lon="151.158933"/><trkpt lat="-33.6497741" lon="151.1588584"/><trkpt lat="-33.6499304" lon="151.1588394"/><trkpt lat="-33.6502631" lon="151.1586332"/><trkpt lat="-33.6504264" lon="151.1584104"/><trkpt lat="-33.6505221" lon="151.1582118"/><trkpt lat="-33.6504551" lon="151.1575734"/><trkpt lat="-33.6504551" lon="151.1570182"/><trkpt lat="-33.6506672" lon="151.156758"/><trkpt lat="-33.6508079" lon="151.156581"/><trkpt lat="-33.6508793" lon="151.1564013"/><trkpt lat="-33.650915" lon="151.1561599"/><trkpt lat="-33.651102" lon="151.1558333"/><trkpt lat="-33.6510961" lon="151.1557851"/><trkpt lat="-33.6511546" lon="151.1556852"/><trkpt lat="-33.6511776" lon="151.1555987"/><trkpt lat="-33.6511843" lon="151.1555678"/><trkpt lat="-33.65122" lon="151.1554968"/><trkpt lat="-33.6512323" lon="151.1554713"/><trkpt lat="-33.6513303" lon="151.1554115"/><trkpt lat="-33.6514683" lon="151.1552416"/><trkpt lat="-33.651518" lon="151.1552297"/><trkpt lat="-33.6518042" lon="151.155349"/><trkpt lat="-33.6519224" lon="151.1552592"/><trkpt lat="-33.6520029" lon="151.1552941"/><trkpt lat="-33.6520784" lon="151.1551938"/><trkpt lat="-33.6521686" lon="151.1551341"/><trkpt lat="-33.6522604" lon="151.1551066"/><trkpt lat="-33.6523012" lon="151.1551782"/><trkpt lat="-33.6523526" lon="151.1552225"/><trkpt lat="-33.6523995" lon="151.155248"/><trkpt lat="-33.6524854" lon="151.1552473"/><trkpt lat="-33.652496" lon="151.1553305"/><trkpt lat="-33.6525105" lon="151.1553841"/><trkpt lat="-33.6525574" lon="151.1555068"/><trkpt lat="-33.6525971" lon="151.1556081"/><trkpt lat="-33.6526239" lon="151.1556533"/><trkpt lat="-33.6526632" lon="151.1557102"/><trkpt lat="-33.652607" lon="151.1559244"/><trkpt lat="-33.6525335" lon="151.1561631"/><trkpt lat="-33.6525037" lon="151.1564042"/><trkpt lat="-33.6525045" lon="151.1565629"/><trkpt lat="-33.6525259" lon="151.1567026"/><trkpt lat="-33.652602" lon="151.1569114"/><trkpt lat="-33.6526666" lon="151.1570846"/><trkpt lat="-33.6526666" lon="151.1572248"/><trkpt lat="-33.6527193" lon="151.1572368"/><trkpt lat="-33.6527455" lon="151.1572543"/><trkpt lat="-33.6527545" lon="151.1573026"/><trkpt lat="-33.6527813" lon="151.1573542"/><trkpt lat="-33.6529284" lon="151.1573078"/><trkpt lat="-33.652925" lon="151.1574735"/><trkpt lat="-33.6533376" lon="151.1569953"/><trkpt lat="-33.6534935" lon="151.1569096"/><trkpt lat="-33.6534972" lon="151.156978"/><trkpt lat="-33.653641" lon="151.1569206"/><trkpt lat="-33.6537941" lon="151.1568988"/><trkpt lat="-33.653812" lon="151.1570879"/><trkpt lat="-33.6536933" lon="151.1573911"/><trkpt lat="-33.6537151" lon="151.1575158"/><trkpt lat="-33.653748" lon="151.1575138"/><trkpt lat="-33.6539094" lon="151.1574775"/><trkpt lat="-33.653998" lon="151.1573612"/><trkpt lat="-33.6541086" lon="151.1574695"/><trkpt lat="-33.6541616" lon="151.1575527"/><trkpt lat="-33.6541577" lon="151.1576553"/><trkpt lat="-33.6541798" lon="151.1578081"/><trkpt lat="-33.6542115" lon="151.1578149"/><trkpt lat="-33.654589" lon="151.1579411"/><trkpt lat="-33.6546682" lon="151.158252"/><trkpt lat="-33.6548915" lon="151.1584129"/><trkpt lat="-33.6554166" lon="151.158645"/><trkpt lat="-33.6559498" lon="151.1590133"/><trkpt lat="-33.6566705" lon="151.1595258"/><trkpt lat="-33.6568184" lon="151.1597434"/><trkpt lat="-33.6570281" lon="151.1597104"/><trkpt lat="-33.6571014" lon="151.15962"/><trkpt lat="-33.6572471" lon="151.1596859"/><trkpt lat="-33.6575353" lon="151.1600383"/><trkpt lat="-33.6576215" lon="151.1600449"/><trkpt lat="-33.6577617" lon="151.1597762"/><trkpt lat="-33.6578337" lon="151.1591566"/><trkpt lat="-33.657861" lon="151.1591"/><trkpt lat="-33.6579504" lon="151.1589474"/><trkpt lat="-33.6581451" lon="151.158768"/><trkpt lat="-33.6582238" lon="151.1587114"/><trkpt lat="-33.6582707" lon="151.1586443"/><trkpt lat="-33.6583394" lon="151.1586209"/><trkpt lat="-33.6583958" lon="151.1587174"/><trkpt lat="-33.6584604" lon="151.1586532"/><trkpt lat="-33.658486" lon="151.1585792"/><trkpt lat="-33.6584711" lon="151.1584251"/><trkpt lat="-33.6585224" lon="151.1583734"/><trkpt lat="-33.6585208" lon="151.158244"/><trkpt lat="-33.6585908" lon="151.1583265"/><trkpt lat="-33.6586212" lon="151.1583547"/><trkpt lat="-33.6587264" lon="151.1582194"/><trkpt lat="-33.6588367" lon="151.1581971"/><trkpt lat="-33.6589711" lon="151.1582224"/><trkpt lat="-33.6590715" lon="151.1582595"/><trkpt lat="-33.6591657" lon="151.1583886"/><trkpt lat="-33.6592627" lon="151.1586454"/><trkpt lat="-33.659325" lon="151.1587443"/><trkpt lat="-33.6593961" lon="151.1588404"/><trkpt lat="-33.6593961" lon="151.1589104"/><trkpt lat="-33.6594805" lon="151.1589751"/><trkpt lat="-33.6595195" lon="151.1590049"/><trkpt lat="-33.6596461" lon="151.1591056"/><trkpt lat="-33.6599497" lon="151.1593196"/><trkpt lat="-33.6601046" lon="151.1594276"/><trkpt lat="-33.6601929" lon="151.1594986"/><trkpt lat="-33.6602308" lon="151.1595262"/><trkpt lat="-33.660679" lon="151.1598493"/><trkpt lat="-33.6607704" lon="151.1598855"/><trkpt lat="-33.660699" lon="151.1599941"/><trkpt lat="-33.6606498" lon="151.1600531"/><trkpt lat="-33.6606289" lon="151.1601934"/><trkpt lat="-33.6606498" lon="151.1603299"/><trkpt lat="-33.6606992" lon="151.1604643"/><trkpt lat="-33.6607717" lon="151.1605533"/><trkpt lat="-33.6608162" lon="151.1606841"/><trkpt lat="-33.6608387" lon="151.1606827"/><trkpt lat="-33.6608624" lon="151.1606881"/><trkpt lat="-33.6608955" lon="151.1607116"/><trkpt lat="-33.6611668" lon="151.1609773"/><trkpt lat="-33.6612026" lon="151.1610512"/><trkpt lat="-33.6617779" lon="151.161768"/><trkpt lat="-33.6618395" lon="151.161768"/><trkpt lat="-33.6619128" lon="151.1616807"/><trkpt lat="-33.6620002" lon="151.1617271"/><trkpt lat="-33.6621243" lon="151.1618989"/><trkpt lat="-33.6622674" lon="151.1620821"/><trkpt lat="-33.6624856" lon="151.1623611"/><trkpt lat="-33.6629425" lon="151.1629446"/><trkpt lat="-33.6630762" lon="151.163017"/><trkpt lat="-33.6632167" lon="151.1631059"/><trkpt lat="-33.6633143" lon="151.1632166"/><trkpt lat="-33.6633697" lon="151.1632795"/><trkpt lat="-33.663387" lon="151.16337"/><trkpt lat="-33.663421" lon="151.163554"/><trkpt lat="-33.663479" lon="151.163738"/><trkpt lat="-33.663563" lon="151.163921"/><trkpt lat="-33.663867" lon="151.164437"/><trkpt lat="-33.664022" lon="151.164789"/><trkpt lat="-33.66419" lon="151.165119"/><trkpt lat="-33.664259" lon="151.165227"/><trkpt lat="-33.66466" lon="151.165623"/><trkpt lat="-33.664715" lon="151.165738"/><trkpt lat="-33.664754" lon="151.165962"/><trkpt lat="-33.664818" lon="151.166073"/><trkpt lat="-33.664876" lon="151.166136"/><trkpt lat="-33.664976" lon="151.166195"/><trkpt lat="-33.665113" lon="151.16623"/><trkpt lat="-33.665985" lon="151.166232"/><trkpt lat="-33.66639" lon="151.166292"/><trkpt lat="-33.666463" lon="151.166325"/><trkpt lat="-33.666671" lon="151.166496"/><trkpt lat="-33.666844" lon="151.166682"/><trkpt lat="-33.667096" lon="151.16701"/><trkpt lat="-33.66721" lon="151.167186"/><trkpt lat="-33.667416" lon="151.167579"/><trkpt lat="-33.667618" lon="151.167888"/><trkpt lat="-33.66775" lon="151.168044"/><trkpt lat="-33.667851" lon="151.168107"/><trkpt lat="-33.66792" lon="151.168123"/><trkpt lat="-33.668017" lon="151.168115"/><trkpt lat="-33.668108" lon="151.168082"/><trkpt lat="-33.668271" lon="151.167961"/><trkpt lat="-33.668542" lon="151.167654"/><trkpt lat="-33.668645" lon="151.167506"/><trkpt lat="-33.668904" lon="151.167013"/><trkpt lat="-33.668977" lon="151.166918"/><trkpt lat="-33.66937" lon="151.166537"/><trkpt lat="-33.669439" lon="151.166493"/><trkpt lat="-33.669557" lon="151.166451"/><trkpt lat="-33.669783" lon="151.166411"/><trkpt lat="-33.670041" lon="151.166255"/><trkpt lat="-33.670108" lon="151.166234"/><trkpt lat="-33.670176" lon="151.166238"/><trkpt lat="-33.670242" lon="151.166268"/><trkpt lat="-33.670894" lon="151.166868"/><trkpt lat="-33.671072" lon="151.167119"/><trkpt lat="-33.671342" lon="151.167612"/><trkpt lat="-33.67146" lon="151.167737"/><trkpt lat="-33.671566" lon="151.167769"/><trkpt lat="-33.671633" lon="151.167733"/><trkpt lat="-33.671689" lon="151.16765"/><trkpt lat="-33.671942" lon="151.167019"/><trkpt lat="-33.67204" lon="151.166731"/><trkpt lat="-33.672097" lon="151.166615"/><trkpt lat="-33.672209" lon="151.166495"/><trkpt lat="-33.672498" lon="151.166271"/><trkpt lat="-33.672639" lon="151.166216"/><trkpt lat="-33.672915" lon="151.166155"/><trkpt lat="-33.673077" lon="151.16608"/><trkpt lat="-33.673214" lon="151.166051"/><trkpt lat="-33.6733621" lon="151.1660684"/><trkpt lat="-33.6733933" lon="151.1660935"/><trkpt lat="-33.673449" lon="151.166174"/><trkpt lat="-33.673501" lon="151.166308"/><trkpt lat="-33.673538" lon="151.166513"/><trkpt lat="-33.673582" lon="151.16666"/><trkpt lat="-33.673672" lon="151.166885"/><trkpt lat="-33.673858" lon="151.167241"/><trkpt lat="-33.674082" lon="151.167583"/><trkpt lat="-33.67438" lon="151.167927"/><trkpt lat="-33.674518" lon="151.168042"/><trkpt lat="-33.674637" lon="151.168105"/><trkpt lat="-33.674933" lon="151.168166"/><trkpt lat="-33.675262" lon="151.168089"/><trkpt lat="-33.675696" lon="151.167927"/><trkpt lat="-33.675809" lon="151.167916"/><trkpt lat="-33.675876" lon="151.167937"/><trkpt lat="-33.676142" lon="151.168098"/><trkpt lat="-33.676741" lon="151.168537"/><trkpt lat="-33.676853" lon="151.168555"/><trkpt lat="-33.677103" lon="151.168554"/><trkpt lat="-33.67716" lon="151.168589"/><trkpt lat="-33.677193" lon="151.168671"/><trkpt lat="-33.677194" lon="151.168746"/><trkpt lat="-33.677161" lon="151.168879"/><trkpt lat="-33.676887" lon="151.169444"/><trkpt lat="-33.676874" lon="151.169527"/><trkpt lat="-33.676882" lon="151.169795"/><trkpt lat="-33.677011" lon="151.170506"/><trkpt lat="-33.677097" lon="151.17077"/><trkpt lat="-33.677161" lon="151.170883"/><trkpt lat="-33.677321" lon="151.171082"/><trkpt lat="-33.677418" lon="151.171153"/><trkpt lat="-33.677485" lon="151.171173"/><trkpt lat="-33.677565" lon="151.171175"/><trkpt lat="-33.677702" lon="151.171136"/><trkpt lat="-33.677824" lon="151.171076"/><trkpt lat="-33.678002" lon="151.170935"/><trkpt lat="-33.678101" lon="151.170827"/><trkpt lat="-33.678201" lon="151.170663"/><trkpt lat="-33.678416" lon="151.17013"/><trkpt lat="-33.678601" lon="151.169758"/><trkpt lat="-33.678704" lon="151.169615"/><trkpt lat="-33.678807" lon="151.169512"/><trkpt lat="-33.679051" lon="151.169328"/><trkpt lat="-33.679834" lon="151.169025"/><trkpt lat="-33.679895" lon="151.169028"/><trkpt lat="-33.679992" lon="151.16907"/><trkpt lat="-33.680111" lon="151.169154"/><trkpt lat="-33.680235" lon="151.169198"/><trkpt lat="-33.680379" lon="151.1692"/><trkpt lat="-33.68066" lon="151.169273"/><trkpt lat="-33.680907" lon="151.169399"/><trkpt lat="-33.681124" lon="151.169439"/><trkpt lat="-33.681234" lon="151.169422"/><trkpt lat="-33.681367" lon="151.169349"/><trkpt lat="-33.681559" lon="151.169162"/><trkpt lat="-33.68179" lon="151.168898"/><trkpt lat="-33.682023" lon="151.16869"/><trkpt lat="-33.682411" lon="151.168398"/><trkpt lat="-33.682629" lon="151.168184"/><trkpt lat="-33.683093" lon="151.167929"/><trkpt lat="-33.683212" lon="151.167845"/><trkpt lat="-33.683362" lon="151.167702"/><trkpt lat="-33.683509" lon="151.167505"/><trkpt lat="-33.683691" lon="151.167219"/><trkpt lat="-33.683812" lon="151.167064"/><trkpt lat="-33.683973" lon="151.166901"/><trkpt lat="-33.684295" lon="151.166515"/><trkpt lat="-33.684887" lon="151.165973"/><trkpt lat="-33.685015" lon="151.165883"/><trkpt lat="-33.685249" lon="151.165612"/><trkpt lat="-33.685439" lon="151.165511"/><trkpt lat="-33.685699" lon="151.165456"/><trkpt lat="-33.68585" lon="151.165465"/><trkpt lat="-33.6861074" lon="151.1656401"/><trkpt lat="-33.6862677" lon="151.1657571"/><trkpt lat="-33.6863594" lon="151.1658079"/><trkpt lat="-33.686478" lon="151.165778"/><trkpt lat="-33.6865688" lon="151.165698"/><trkpt lat="-33.6866594" lon="151.1656314"/><trkpt lat="-33.6867434" lon="151.1656387"/><trkpt lat="-33.6867783" lon="151.165657"/><trkpt lat="-33.686805" lon="151.1656872"/><trkpt lat="-33.6868321" lon="151.1657288"/><trkpt lat="-33.6868017" lon="151.1658638"/><trkpt lat="-33.6866114" lon="151.1661162"/><trkpt lat="-33.6865455" lon="151.1662285"/><trkpt lat="-33.6865317" lon="151.1663197"/><trkpt lat="-33.6865392" lon="151.1663836"/><trkpt lat="-33.6865647" lon="151.1664435"/><trkpt lat="-33.686635" lon="151.166548"/><trkpt lat="-33.68674" lon="151.166659"/><trkpt lat="-33.686902" lon="151.166784"/><trkpt lat="-33.687285" lon="151.166986"/><trkpt lat="-33.687949" lon="151.167219"/><trkpt lat="-33.688067" lon="151.167192"/><trkpt lat="-33.688191" lon="151.167092"/><trkpt lat="-33.688254" lon="151.167064"/><trkpt lat="-33.688318" lon="151.167076"/><trkpt lat="-33.6883721" lon="151.1671401"/><trkpt lat="-33.688432" lon="151.167211"/><trkpt lat="-33.688502" lon="151.167212"/><trkpt lat="-33.688822" lon="151.167101"/><trkpt lat="-33.688881" lon="151.167116"/><trkpt lat="-33.688917" lon="151.167186"/><trkpt lat="-33.688922" lon="151.167251"/><trkpt lat="-33.688819" lon="151.1675749"/><trkpt lat="-33.6888948" lon="151.1677021"/><trkpt lat="-33.6888653" lon="151.167818"/><trkpt lat="-33.6889764" lon="151.1679659"/><trkpt lat="-33.6891217" lon="151.1678339"/><trkpt lat="-33.6892386" lon="151.1678089"/><trkpt lat="-33.689407" lon="151.167916"/><trkpt lat="-33.689465" lon="151.167952"/><trkpt lat="-33.689551" lon="151.167947"/><trkpt lat="-33.689812" lon="151.167976"/><trkpt lat="-33.6900249" lon="151.1680029"/><trkpt lat="-33.690178" lon="151.168066"/><trkpt lat="-33.69027" lon="151.168107"/><trkpt lat="-33.690342" lon="151.16818"/><trkpt lat="-33.6904543" lon="151.1683582"/><trkpt lat="-33.6905743" lon="151.1684421"/><trkpt lat="-33.6906038" lon="151.1684317"/><trkpt lat="-33.6906752" lon="151.1683812"/><trkpt lat="-33.6907759" lon="151.1682138"/><trkpt lat="-33.6908108" lon="151.1681742"/><trkpt lat="-33.6908649" lon="151.1681567"/><trkpt lat="-33.6909551" lon="151.1681643"/><trkpt lat="-33.6910429" lon="151.1682165"/><trkpt lat="-33.6911352" lon="151.1682446"/><trkpt lat="-33.6913762" lon="151.1682101"/><trkpt lat="-33.6914876" lon="151.1682124"/><trkpt lat="-33.6916316" lon="151.1682656"/><trkpt lat="-33.6922717" lon="151.1686572"/><trkpt lat="-33.6924035" lon="151.1686642"/><trkpt lat="-33.6925861" lon="151.168639"/><trkpt lat="-33.6927516" lon="151.1685502"/><trkpt lat="-33.692899" lon="151.1685117"/><trkpt lat="-33.693196" lon="151.168531"/><trkpt lat="-33.693352" lon="151.168518"/><trkpt lat="-33.693722" lon="151.168371"/><trkpt lat="-33.693972" lon="151.1683164"/><trkpt lat="-33.6942018" lon="151.1683352"/><trkpt lat="-33.6943634" lon="151.1683066"/><trkpt lat="-33.6944834" lon="151.1682543"/><trkpt lat="-33.694711" lon="151.168139"/><trkpt lat="-33.6949055" lon="151.1680792"/><trkpt lat="-33.6950128" lon="151.1680462"/><trkpt lat="-33.6951265" lon="151.1680458"/><trkpt lat="-33.6952412" lon="151.1680676"/><trkpt lat="-33.6955101" lon="151.1680676"/><trkpt lat="-33.6956178" lon="151.1680839"/><trkpt lat="-33.6958115" lon="151.1680792"/><trkpt lat="-33.6959313" lon="151.1680622"/><trkpt lat="-33.6960202" lon="151.168031"/><trkpt lat="-33.6961834" lon="151.167922"/><trkpt lat="-33.696612" lon="151.167676"/><trkpt lat="-33.6967063" lon="151.1676376"/><trkpt lat="-33.6967664" lon="151.1676327"/><trkpt lat="-33.696903" lon="151.167689"/><trkpt lat="-33.697019" lon="151.167689"/><trkpt lat="-33.697104" lon="151.167667"/><trkpt lat="-33.697165" lon="151.167625"/><trkpt lat="-33.697349" lon="151.167403"/><trkpt lat="-33.697443" lon="151.167225"/><trkpt lat="-33.6976447" lon="151.1668733"/><trkpt lat="-33.6977368" lon="151.1667788"/><trkpt lat="-33.6979579" lon="151.1667081"/><trkpt lat="-33.6981733" lon="151.1666585"/><trkpt lat="-33.698381" lon="151.166607"/><trkpt lat="-33.6986703" lon="151.1664803"/><trkpt lat="-33.6989197" lon="151.1664368"/><trkpt lat="-33.699834" lon="151.165971"/><trkpt lat="-33.700079" lon="151.165858"/><trkpt lat="-33.7002839" lon="151.1657998"/><trkpt lat="-33.7004595" lon="151.1657499"/><trkpt lat="-33.700662" lon="151.165733"/><trkpt lat="-33.700635" lon="151.1655472"/><trkpt lat="-33.7015426" lon="151.1654642"/><trkpt lat="-33.702051" lon="151.1654094"/><trkpt lat="-33.7026061" lon="151.1653495"/><trkpt lat="-33.7026162" lon="151.1654203"/><trkpt lat="-33.7029571" lon="151.1678121"/><trkpt lat="-33.7029904" lon="151.1679871"/><trkpt lat="-33.7030038" lon="151.1680756"/><trkpt lat="-33.7030373" lon="151.1680997"/><trkpt lat="-33.7030819" lon="151.1681158"/><trkpt lat="-33.7031623" lon="151.1680675"/><trkpt lat="-33.7032404" lon="151.1679093"/><trkpt lat="-33.7032965" lon="151.1678616"/><trkpt lat="-33.7035274" lon="151.1677735"/><trkpt lat="-33.7037037" lon="151.1677153"/><trkpt lat="-33.7038837" lon="151.167681"/><trkpt lat="-33.7040141" lon="151.1676631"/><trkpt lat="-33.7040985" lon="151.1676989"/><trkpt lat="-33.7041878" lon="151.1677855"/><trkpt lat="-33.7043157" lon="151.1679078"/><trkpt lat="-33.7046288" lon="151.168341"/><trkpt lat="-33.7046894" lon="151.1683973"/><trkpt lat="-33.7047663" lon="151.1684316"/><trkpt lat="-33.7048717" lon="151.1684382"/><trkpt lat="-33.7049649" lon="151.1684211"/><trkpt lat="-33.705027" lon="151.1683719"/><trkpt lat="-33.7050618" lon="151.1683018"/><trkpt lat="-33.7050804" lon="151.1680108"/><trkpt lat="-33.7051288" lon="151.1678884"/><trkpt lat="-33.7051971" lon="151.1678093"/><trkpt lat="-33.7052846" lon="151.1677702"/><trkpt lat="-33.7057048" lon="151.1676109"/><trkpt lat="-33.7060064" lon="151.1675482"/><trkpt lat="-33.706277" lon="151.1674214"/><trkpt lat="-33.7066978" lon="151.1673244"/><trkpt lat="-33.7070336" lon="151.1672722"/><trkpt lat="-33.7072401" lon="151.1672601"/><trkpt lat="-33.7074223" lon="151.167175"/><trkpt lat="-33.7075801" lon="151.1670414"/><trkpt lat="-33.7076475" lon="151.1669871"/><trkpt lat="-33.7077207" lon="151.1669946"/><trkpt lat="-33.7077877" lon="151.1670647"/><trkpt lat="-33.7078684" lon="151.1671617"/><trkpt lat="-33.7078846" lon="151.1672751"/><trkpt lat="-33.7078436" lon="151.1674437"/><trkpt lat="-33.707738" lon="151.1675758"/><trkpt lat="-33.7073905" lon="151.1676825"/><trkpt lat="-33.7073235" lon="151.1677586"/><trkpt lat="-33.7072502" lon="151.1678093"/><trkpt lat="-33.7068636" lon="151.1680131"/><trkpt lat="-33.7067872" lon="151.1681227"/><trkpt lat="-33.7067549" lon="151.1682033"/><trkpt lat="-33.7067674" lon="151.1682465"/><trkpt lat="-33.7068307" lon="151.168254"/><trkpt lat="-33.7069548" lon="151.1682331"/><trkpt lat="-33.707064" lon="151.1683032"/><trkpt lat="-33.7072279" lon="151.1684017"/><trkpt lat="-33.707357" lon="151.1684167"/><trkpt lat="-33.7074749" lon="151.1684032"/><trkpt lat="-33.7075705" lon="151.1683555"/><trkpt lat="-33.7076475" lon="151.1683092"/><trkpt lat="-33.7077033" lon="151.1683301"/><trkpt lat="-33.7078783" lon="151.1684838"/><trkpt lat="-33.7081631" lon="151.1685475"/><trkpt lat="-33.7083332" lon="151.1684503"/><trkpt lat="-33.7087826" lon="151.1684746"/><trkpt lat="-33.708921" lon="151.1685674"/><trkpt lat="-33.7090625" lon="151.1687151"/><trkpt lat="-33.7090817" lon="151.1687734"/><trkpt lat="-33.7090812" lon="151.1687972"/><trkpt lat="-33.7090588" lon="151.1688598"/><trkpt lat="-33.7090179" lon="151.1688897"/><trkpt lat="-33.7088081" lon="151.1689553"/><trkpt lat="-33.7085921" lon="151.1691314"/><trkpt lat="-33.708612" lon="151.1691881"/><trkpt lat="-33.7086529" lon="151.1692224"/><trkpt lat="-33.7087125" lon="151.1692299"/><trkpt lat="-33.7087733" lon="151.169209"/><trkpt lat="-33.7088788" lon="151.1691523"/><trkpt lat="-33.7090551" lon="151.1690628"/><trkpt lat="-33.7091506" lon="151.1690443"/><trkpt lat="-33.7093246" lon="151.1690923"/><trkpt lat="-33.7095566" lon="151.1692702"/><trkpt lat="-33.7096745" lon="151.1693284"/><trkpt lat="-33.7098214" lon="151.1693664"/><trkpt lat="-33.7099439" lon="151.1693582"/><trkpt lat="-33.7100916" lon="151.1693194"/><trkpt lat="-33.7101667" lon="151.1692739"/><trkpt lat="-33.7102613" lon="151.1692165"/><trkpt lat="-33.7105734" lon="151.1691091"/><trkpt lat="-33.7107898" lon="151.1690662"/><trkpt lat="-33.7110378" lon="151.1688353"/><trkpt lat="-33.7110858" lon="151.1687837"/><trkpt lat="-33.7112906" lon="151.1684152"/><trkpt lat="-33.71138" lon="151.1683316"/><trkpt lat="-33.7114321" lon="151.1682958"/><trkpt lat="-33.7115861" lon="151.1682357"/><trkpt lat="-33.7124425" lon="151.168063"/><trkpt lat="-33.7125393" lon="151.168069"/><trkpt lat="-33.7126126" lon="151.1681242"/><trkpt lat="-33.7126511" lon="151.1682152"/><trkpt lat="-33.7126535" lon="151.1683152"/><trkpt lat="-33.7126126" lon="151.168436"/><trkpt lat="-33.7125478" lon="151.1685541"/><trkpt lat="-33.7125381" lon="151.1685718"/><trkpt lat="-33.7124512" lon="151.1686882"/><trkpt lat="-33.7124165" lon="151.1687181"/><trkpt lat="-33.7124856" lon="151.169217"/><trkpt lat="-33.7125258" lon="151.1695068"/><trkpt lat="-33.7125653" lon="151.1697914"/><trkpt lat="-33.7126213" lon="151.1701953"/><trkpt lat="-33.7126416" lon="151.170301"/><trkpt lat="-33.7126475" lon="151.1703322"/><trkpt lat="-33.7126622" lon="151.1704087"/><trkpt lat="-33.7127399" lon="151.1709641"/><trkpt lat="-33.7128468" lon="151.171729"/><trkpt lat="-33.7128631" lon="151.1718458"/><trkpt lat="-33.7132085" lon="151.1743158"/><trkpt lat="-33.7132132" lon="151.1743497"/><trkpt lat="-33.7132257" lon="151.1744391"/><trkpt lat="-33.7132364" lon="151.1745637"/><trkpt lat="-33.7132504" lon="151.1746659"/><trkpt lat="-33.713253" lon="151.1747017"/><trkpt lat="-33.7132876" lon="151.1750247"/><trkpt lat="-33.7133263" lon="151.1752208"/><trkpt lat="-33.7133495" lon="151.1753899"/><trkpt lat="-33.713389" lon="151.1756782"/><trkpt lat="-33.7134166" lon="151.1758806"/><trkpt lat="-33.7134316" lon="151.1759896"/><trkpt lat="-33.7134451" lon="151.1760888"/><trkpt lat="-33.7135395" lon="151.1767783"/><trkpt lat="-33.7135998" lon="151.1771913"/><trkpt lat="-33.7136209" lon="151.1772589"/><trkpt lat="-33.7136645" lon="151.1773067"/><trkpt lat="-33.7137012" lon="151.1773293"/><trkpt lat="-33.7140861" lon="151.1773764"/><trkpt lat="-33.7144976" lon="151.17741"/><trkpt lat="-33.7145607" lon="151.1774151"/><trkpt lat="-33.7151036" lon="151.1774594"/><trkpt lat="-33.7153535" lon="151.1772663"/><trkpt lat="-33.7153923" lon="151.1772985"/><trkpt lat="-33.7156526" lon="151.1775142"/><trkpt lat="-33.7158467" lon="151.177675"/><trkpt lat="-33.7159752" lon="151.1777437"/><trkpt lat="-33.7160751" lon="151.1778037"/><trkpt lat="-33.7163218" lon="151.1777061"/><trkpt lat="-33.7165538" lon="151.1775828"/><trkpt lat="-33.7167501" lon="151.1773628"/><trkpt lat="-33.7169732" lon="151.1771268"/><trkpt lat="-33.7171562" lon="151.1770249"/><trkpt lat="-33.717647" lon="151.1769444"/><trkpt lat="-33.718663" lon="151.1766876"/><trkpt lat="-33.7189783" lon="151.1788903"/><trkpt lat="-33.7189846" lon="151.1789344"/><trkpt lat="-33.7188472" lon="151.178967"/><trkpt lat="-33.7185013" lon="151.1790451"/><trkpt lat="-33.7183746" lon="151.1790817"/><trkpt lat="-33.7182605" lon="151.1791487"/><trkpt lat="-33.7181769" lon="151.1792371"/><trkpt lat="-33.718111" lon="151.1793437"/><trkpt lat="-33.7180527" lon="151.1795753"/><trkpt lat="-33.7180329" lon="151.1803551"/><trkpt lat="-33.7180577" lon="151.1811446"/><trkpt lat="-33.7181845" lon="151.181428"/><trkpt lat="-33.7188801" lon="151.182304"/><trkpt lat="-33.7196267" lon="151.1832442"/><trkpt lat="-33.7198117" lon="151.1833874"/><trkpt lat="-33.7199916" lon="151.1835001"/><trkpt lat="-33.7201593" lon="151.1835612"/><trkpt lat="-33.7202425" lon="151.1835915"/><trkpt lat="-33.7204848" lon="151.1836285"/><trkpt lat="-33.7216494" lon="151.1835963"/><trkpt lat="-33.7218436" lon="151.183563"/><trkpt lat="-33.7223949" lon="151.1832819"/><trkpt lat="-33.7235455" lon="151.1826523"/><trkpt lat="-33.7237688" lon="151.1824381"/><trkpt lat="-33.7240763" lon="151.1829085"/><trkpt lat="-33.7244539" lon="151.1834634"/><trkpt lat="-33.7245797" lon="151.1838334"/><trkpt lat="-33.7245238" lon="151.1844555"/><trkpt lat="-33.7246637" lon="151.1849936"/><trkpt lat="-33.7248594" lon="151.1853467"/><trkpt lat="-33.7251929" lon="151.1855843"/><trkpt lat="-33.725237" lon="151.1856157"/><trkpt lat="-33.7255867" lon="151.1857502"/><trkpt lat="-33.7258943" lon="151.1857166"/><trkpt lat="-33.7261041" lon="151.1855821"/><trkpt lat="-33.7263139" lon="151.1856325"/><trkpt lat="-33.7263139" lon="151.1858198"/><trkpt lat="-33.726276" lon="151.1859701"/><trkpt lat="-33.7262743" lon="151.1862876"/><trkpt lat="-33.7263318" lon="151.1863133"/><trkpt lat="-33.7265154" lon="151.1862415"/><trkpt lat="-33.7265772" lon="151.1865708"/><trkpt lat="-33.7265448" lon="151.1867613"/><trkpt lat="-33.7265288" lon="151.1868972"/><trkpt lat="-33.7264633" lon="151.1870741"/><trkpt lat="-33.7264206" lon="151.1873969"/><trkpt lat="-33.7264377" lon="151.1876766"/><trkpt lat="-33.7264768" lon="151.1878583"/><trkpt lat="-33.7265158" lon="151.1879434"/><trkpt lat="-33.7265613" lon="151.1879595"/><trkpt lat="-33.7267071" lon="151.1880125"/><trkpt lat="-33.7268324" lon="151.1880848"/><trkpt lat="-33.726885" lon="151.188148"/><trkpt lat="-33.7268708" lon="151.1882596"/><trkpt lat="-33.7267301" lon="151.1885879"/><trkpt lat="-33.72643" lon="151.1891037"/><trkpt lat="-33.7263713" lon="151.1896193"/><trkpt lat="-33.7263456" lon="151.1898445"/><trkpt lat="-33.7264488" lon="151.1903697"/><trkpt lat="-33.7267301" lon="151.1907917"/><trkpt lat="-33.7270233" lon="151.1911494"/><trkpt lat="-33.7271594" lon="151.1912057"/><trkpt lat="-33.7272834" lon="151.1912044"/><trkpt lat="-33.7276396" lon="151.1912092"/><trkpt lat="-33.727745" lon="151.1912337"/><trkpt lat="-33.7277992" lon="151.1913075"/><trkpt lat="-33.728036" lon="151.1912124"/><trkpt lat="-33.7281772" lon="151.1912218"/><trkpt lat="-33.7282898" lon="151.1911862"/><trkpt lat="-33.728367" lon="151.1910383"/><trkpt lat="-33.7283706" lon="151.1910044"/><trkpt lat="-33.7283729" lon="151.1909733"/><trkpt lat="-33.7283032" lon="151.1906568"/><trkpt lat="-33.728299" lon="151.1905841"/><trkpt lat="-33.7283244" lon="151.1905291"/><trkpt lat="-33.7284764" lon="151.1902327"/><trkpt lat="-33.7285588" lon="151.1898727"/><trkpt lat="-33.72861" lon="151.1895225"/><trkpt lat="-33.7285808" lon="151.1892816"/><trkpt lat="-33.7285566" lon="151.1889692"/><trkpt lat="-33.7285703" lon="151.1888801"/><trkpt lat="-33.7285963" lon="151.1888223"/><trkpt lat="-33.7283269" lon="151.1886728"/><trkpt lat="-33.7282643" lon="151.188524"/><trkpt lat="-33.7281268" lon="151.1881975"/><trkpt lat="-33.7281595" lon="151.1879699"/><trkpt lat="-33.7282805" lon="151.1876941"/><trkpt lat="-33.7284489" lon="151.1873526"/><trkpt lat="-33.7282927" lon="151.1869946"/><trkpt lat="-33.728771" lon="151.1864019"/><trkpt lat="-33.7292079" lon="151.1860138"/><trkpt lat="-33.7296397" lon="151.1857271"/><trkpt lat="-33.7304125" lon="151.1849275"/><trkpt lat="-33.7304937" lon="151.1846768"/><trkpt lat="-33.7307648" lon="151.1844667"/><trkpt lat="-33.7308932" lon="151.1843049"/><trkpt lat="-33.7310339" lon="151.1842601"/><trkpt lat="-33.7314047" lon="151.1839159"/><trkpt lat="-33.7315487" lon="151.18363"/><trkpt lat="-33.7319879" lon="151.1829376"/><trkpt lat="-33.7326028" lon="151.1823978"/><trkpt lat="-33.7329809" lon="151.1822952"/><trkpt lat="-33.7333286" lon="151.1823751"/><trkpt lat="-33.7336496" lon="151.1826105"/><trkpt lat="-33.733717" lon="151.1825889"/><trkpt lat="-33.7337844" lon="151.1826102"/><trkpt lat="-33.7338836" lon="151.1827494"/><trkpt lat="-33.7340506" lon="151.1828346"/><trkpt lat="-33.7341648" lon="151.1828176"/><trkpt lat="-33.7342655" lon="151.1827631"/><trkpt lat="-33.7344317" lon="151.1822378"/><trkpt lat="-33.734517" lon="151.1819376"/><trkpt lat="-33.7346648" lon="151.1818305"/><trkpt lat="-33.7357207" lon="151.1821209"/><trkpt lat="-33.7363901" lon="151.1822952"/><trkpt lat="-33.7372734" lon="151.1821458"/><trkpt lat="-33.7373769" lon="151.1819383"/><trkpt lat="-33.7381981" lon="151.1814238"/><trkpt lat="-33.7388192" lon="151.1808429"/><trkpt lat="-33.739254" lon="151.1805691"/><trkpt lat="-33.7398268" lon="151.1804031"/><trkpt lat="-33.7406372" lon="151.1804891"/><trkpt lat="-33.7409064" lon="151.1807796"/><trkpt lat="-33.7410927" lon="151.1811322"/><trkpt lat="-33.7410478" lon="151.1814351"/><trkpt lat="-33.741179" lon="151.1817256"/><trkpt lat="-33.7414371" lon="151.1822373"/><trkpt lat="-33.7418323" lon="151.1821581"/><trkpt lat="-33.7422617" lon="151.1817503"/><trkpt lat="-33.7426325" lon="151.1818618"/><trkpt lat="-33.7426744" lon="151.1824162"/><trkpt lat="-33.7427867" lon="151.1826832"/><trkpt lat="-33.7429843" lon="151.1831849"/><trkpt lat="-33.7430404" lon="151.1834531"/><trkpt lat="-33.7430128" lon="151.183619"/><trkpt lat="-33.7430956" lon="151.1837601"/><trkpt lat="-33.7429864" lon="151.183898"/><trkpt lat="-33.7429576" lon="151.1839344"/><trkpt lat="-33.7433232" lon="151.1841476"/><trkpt lat="-33.743613" lon="151.1848446"/><trkpt lat="-33.743889" lon="151.1852098"/><trkpt lat="-33.7440232" lon="151.1861854"/><trkpt lat="-33.7441078" lon="151.1865273"/><trkpt lat="-33.7441371" lon="151.186985"/><trkpt lat="-33.7441032" lon="151.1871805"/><trkpt lat="-33.7439802" lon="151.1874136"/><trkpt lat="-33.7436063" lon="151.1877112"/><trkpt lat="-33.7435177" lon="151.187851"/><trkpt lat="-33.7433395" lon="151.1878581"/><trkpt lat="-33.7433364" lon="151.1878945"/><trkpt lat="-33.7433336" lon="151.1879267"/><trkpt lat="-33.7433966" lon="151.1880317"/><trkpt lat="-33.7434669" lon="151.1885107"/><trkpt lat="-33.7443288" lon="151.1890216"/><trkpt lat="-33.7443609" lon="151.1892181"/><trkpt lat="-33.7443162" lon="151.1893853"/><trkpt lat="-33.7443668" lon="151.1893989"/><trkpt lat="-33.7444682" lon="151.1894348"/><trkpt lat="-33.7446716" lon="151.1892792"/><trkpt lat="-33.7457815" lon="151.1898642"/><trkpt lat="-33.7458628" lon="151.189966"/><trkpt lat="-33.7463276" lon="151.190143"/><trkpt lat="-33.7465818" lon="151.1903279"/><trkpt lat="-33.7467085" lon="151.1903578"/><trkpt lat="-33.7467177" lon="151.1904049"/><trkpt lat="-33.746898" lon="151.1905178"/><trkpt lat="-33.7469402" lon="151.1905437"/><trkpt lat="-33.7470432" lon="151.190604"/><trkpt lat="-33.7472385" lon="151.190871"/><trkpt lat="-33.7473582" lon="151.1911283"/><trkpt lat="-33.7475375" lon="151.1915862"/><trkpt lat="-33.7475782" lon="151.1920839"/><trkpt lat="-33.747788" lon="151.1920852"/><trkpt lat="-33.747833" lon="151.1922911"/><trkpt lat="-33.7480532" lon="151.1923495"/><trkpt lat="-33.7489689" lon="151.192146"/><trkpt lat="-33.7490243" lon="151.1920997"/><trkpt lat="-33.7491815" lon="151.192066"/><trkpt lat="-33.749284" lon="151.1921915"/><trkpt lat="-33.7492945" lon="151.1922735"/><trkpt lat="-33.7493632" lon="151.1928073"/><trkpt lat="-33.7495614" lon="151.193349"/><trkpt lat="-33.7499128" lon="151.1938579"/><trkpt lat="-33.7503634" lon="151.1942108"/><trkpt lat="-33.7509379" lon="151.1943305"/><trkpt lat="-33.7515597" lon="151.1941701"/><trkpt lat="-33.7525598" lon="151.1939714"/><trkpt lat="-33.7527007" lon="151.1941481"/><trkpt lat="-33.7527214" lon="151.1942527"/><trkpt lat="-33.7526388" lon="151.194486"/><trkpt lat="-33.7526656" lon="151.1946"/><trkpt lat="-33.7526449" lon="151.1947015"/><trkpt lat="-33.7526566" lon="151.1947864"/><trkpt lat="-33.7526377" lon="151.194887"/><trkpt lat="-33.7526629" lon="151.1949921"/><trkpt lat="-33.7527514" lon="151.1953659"/><trkpt lat="-33.7528652" lon="151.1955857"/><trkpt lat="-33.752941" lon="151.1956072"/><trkpt lat="-33.7530692" lon="151.1957064"/><trkpt lat="-33.7533321" lon="151.1958221"/><trkpt lat="-33.7534082" lon="151.1959465"/><trkpt lat="-33.7535445" lon="151.1960964"/><trkpt lat="-33.7536178" lon="151.1963569"/><trkpt lat="-33.7535598" lon="151.1965714"/><trkpt lat="-33.7534517" lon="151.1968262"/><trkpt lat="-33.753368" lon="151.1969993"/><trkpt lat="-33.753387" lon="151.1971079"/><trkpt lat="-33.7534327" lon="151.1971924"/><trkpt lat="-33.7534278" lon="151.1972884"/><trkpt lat="-33.7534609" lon="151.1976007"/><trkpt lat="-33.7534762" lon="151.1978039"/><trkpt lat="-33.7535453" lon="151.198048"/><trkpt lat="-33.753528" lon="151.198234"/><trkpt lat="-33.7535453" lon="151.1984543"/><trkpt lat="-33.7535833" lon="151.1986448"/><trkpt lat="-33.7535707" lon="151.1988285"/><trkpt lat="-33.7535208" lon="151.1989117"/><trkpt lat="-33.7534907" lon="151.1990659"/><trkpt lat="-33.753513" lon="151.1991544"/><trkpt lat="-33.7535042" lon="151.1992291"/><trkpt lat="-33.7533212" lon="151.1993797"/><trkpt lat="-33.7532276" lon="151.1994374"/><trkpt lat="-33.7531874" lon="151.1995044"/><trkpt lat="-33.7530915" lon="151.1996195"/><trkpt lat="-33.7530257" lon="151.1997968"/><trkpt lat="-33.7530272" lon="151.1999788"/><trkpt lat="-33.7530492" lon="151.2000888"/><trkpt lat="-33.7530268" lon="151.2001964"/><trkpt lat="-33.7529655" lon="151.2003078"/><trkpt lat="-33.7530123" lon="151.200403"/><trkpt lat="-33.7530722" lon="151.2004368"/><trkpt lat="-33.7531469" lon="151.2004377"/><trkpt lat="-33.7531753" lon="151.200438"/><trkpt lat="-33.7531932" lon="151.2004355"/><trkpt lat="-33.7532607" lon="151.2002735"/><trkpt lat="-33.7533246" lon="151.2000617"/><trkpt lat="-33.7533473" lon="151.1999049"/><trkpt lat="-33.7534064" lon="151.1998324"/><trkpt lat="-33.7536178" lon="151.1996452"/><trkpt lat="-33.7537204" lon="151.1996533"/><trkpt lat="-33.7537963" lon="151.1995644"/><trkpt lat="-33.7539033" lon="151.1995648"/><trkpt lat="-33.7542766" lon="151.1994518"/><trkpt lat="-33.7545032" lon="151.1989814"/><trkpt lat="-33.7544875" lon="151.1988822"/><trkpt lat="-33.7545218" lon="151.1988211"/><trkpt lat="-33.7544084" lon="151.1985683"/><trkpt lat="-33.754353" lon="151.1983553"/><trkpt lat="-33.7541553" lon="151.1980574"/><trkpt lat="-33.7540561" lon="151.1978018"/><trkpt lat="-33.7540566" lon="151.1976698"/><trkpt lat="-33.7540088" lon="151.1975258"/><trkpt lat="-33.7540559" lon="151.1974602"/><trkpt lat="-33.7540157" lon="151.1971725"/><trkpt lat="-33.7540141" lon="151.1968491"/><trkpt lat="-33.7542066" lon="151.1963113"/><trkpt lat="-33.75424" lon="151.1960793"/><trkpt lat="-33.7543338" lon="151.1959264"/><trkpt lat="-33.7544748" lon="151.1955696"/><trkpt lat="-33.7545237" lon="151.1953861"/><trkpt lat="-33.7545128" lon="151.1951188"/><trkpt lat="-33.7547612" lon="151.1946828"/><trkpt lat="-33.7549036" lon="151.1944359"/><trkpt lat="-33.754746" lon="151.1942212"/><trkpt lat="-33.7547915" lon="151.1941453"/><trkpt lat="-33.754718" lon="151.1941138"/><trkpt lat="-33.7550211" lon="151.1935923"/><trkpt lat="-33.7554534" lon="151.1929671"/><trkpt lat="-33.7557018" lon="151.1924261"/><trkpt lat="-33.7559102" lon="151.1921482"/><trkpt lat="-33.7560666" lon="151.1919888"/><trkpt lat="-33.7562101" lon="151.1919094"/><trkpt lat="-33.7563373" lon="151.1918072"/><trkpt lat="-33.7566236" lon="151.1916493"/><trkpt lat="-33.7567615" lon="151.1916191"/><trkpt lat="-33.7569636" lon="151.1916121"/><trkpt lat="-33.7571336" lon="151.1916466"/><trkpt lat="-33.7572651" lon="151.191712"/><trkpt lat="-33.7574928" lon="151.1920238"/><trkpt lat="-33.7576228" lon="151.1924154"/><trkpt lat="-33.7578266" lon="151.1927026"/><trkpt lat="-33.7584431" lon="151.1932951"/><trkpt lat="-33.7587215" lon="151.1933588"/><trkpt lat="-33.7590715" lon="151.1934388"/><trkpt lat="-33.7591534" lon="151.193479"/><trkpt lat="-33.7592087" lon="151.1935062"/><trkpt lat="-33.7593909" lon="151.193732"/><trkpt lat="-33.7597777" lon="151.1942647"/><trkpt lat="-33.7602431" lon="151.1956073"/><trkpt lat="-33.7604527" lon="151.196029"/><trkpt lat="-33.7605392" lon="151.1962898"/><trkpt lat="-33.7605797" lon="151.1965897"/><trkpt lat="-33.7605968" lon="151.1969968"/><trkpt lat="-33.7607233" lon="151.197353"/><trkpt lat="-33.7609807" lon="151.1979215"/><trkpt lat="-33.76125" lon="151.1988492"/><trkpt lat="-33.7619323" lon="151.199322"/><trkpt lat="-33.7632023" lon="151.1991754"/><trkpt lat="-33.7633888" lon="151.1993073"/><trkpt lat="-33.7634949" lon="151.1994544"/><trkpt lat="-33.76354" lon="151.1995937"/><trkpt lat="-33.7636535" lon="151.1998145"/><trkpt lat="-33.7642672" lon="151.2000585"/><trkpt lat="-33.7646016" lon="151.2003065"/><trkpt lat="-33.7648713" lon="151.2002277"/><trkpt lat="-33.7650896" lon="151.2001025"/><trkpt lat="-33.7657322" lon="151.1995747"/><trkpt lat="-33.766048" lon="151.1994293"/><trkpt lat="-33.7663927" lon="151.1994152"/><trkpt lat="-33.7666324" lon="151.1994599"/><trkpt lat="-33.766906" lon="151.1996147"/><trkpt lat="-33.7669761" lon="151.1996595"/><trkpt lat="-33.7670982" lon="151.1998134"/><trkpt lat="-33.7671556" lon="151.2000472"/><trkpt lat="-33.7671667" lon="151.2000925"/><trkpt lat="-33.7671831" lon="151.2003159"/><trkpt lat="-33.7672565" lon="151.2008761"/><trkpt lat="-33.7673261" lon="151.2012063"/><trkpt lat="-33.7674686" lon="151.2015984"/><trkpt lat="-33.7676003" lon="151.2021194"/><trkpt lat="-33.7676027" lon="151.2024125"/><trkpt lat="-33.7675859" lon="151.2026386"/><trkpt lat="-33.7676214" lon="151.2028451"/><trkpt lat="-33.7677224" lon="151.203079"/><trkpt lat="-33.7678456" lon="151.2032299"/><trkpt lat="-33.7680459" lon="151.2032446"/><trkpt lat="-33.7683435" lon="151.2032292"/><trkpt lat="-33.7685097" lon="151.203278"/><trkpt lat="-33.7686192" lon="151.2034056"/><trkpt lat="-33.7687591" lon="151.2036234"/><trkpt lat="-33.7688936" lon="151.2039156"/><trkpt lat="-33.7689984" lon="151.2043651"/><trkpt lat="-33.7691299" lon="151.2047252"/><trkpt lat="-33.7693072" lon="151.2049891"/><trkpt lat="-33.7695047" lon="151.2051624"/><trkpt lat="-33.7696349" lon="151.2051743"/><trkpt lat="-33.7697619" lon="151.205163"/><trkpt lat="-33.769958" lon="151.2051453"/><trkpt lat="-33.7702697" lon="151.2050618"/><trkpt lat="-33.7708018" lon="151.2047435"/><trkpt lat="-33.7713093" lon="151.2044534"/><trkpt lat="-33.7717207" lon="151.2043028"/><trkpt lat="-33.771974" lon="151.2042758"/><trkpt lat="-33.7725832" lon="151.2046237"/><trkpt lat="-33.7730078" lon="151.2050505"/><trkpt lat="-33.7730407" lon="151.2051577"/><trkpt lat="-33.773054" lon="151.20526"/><trkpt lat="-33.7732358" lon="151.2054563"/><trkpt lat="-33.7732704" lon="151.2055582"/><trkpt lat="-33.7732402" lon="151.2056843"/><trkpt lat="-33.7732197" lon="151.2058526"/><trkpt lat="-33.7731684" lon="151.2058662"/><trkpt lat="-33.7731211" lon="151.2058972"/><trkpt lat="-33.7731094" lon="151.2059664"/><trkpt lat="-33.7730624" lon="151.205914"/><trkpt lat="-33.7730443" lon="151.2059427"/><trkpt lat="-33.773059" lon="151.2062377"/><trkpt lat="-33.7731568" lon="151.2064873"/><trkpt lat="-33.773278" lon="151.2067073"/><trkpt lat="-33.7734256" lon="151.2068397"/><trkpt lat="-33.7737718" lon="151.2073803"/><trkpt lat="-33.7741171" lon="151.2078735"/><trkpt lat="-33.7742767" lon="151.2080826"/><trkpt lat="-33.7745268" lon="151.2086505"/><trkpt lat="-33.7746072" lon="151.2090418"/><trkpt lat="-33.7746399" lon="151.2094341"/><trkpt lat="-33.7745643" lon="151.2097304"/><trkpt lat="-33.7745746" lon="151.2101316"/><trkpt lat="-33.7746387" lon="151.2102702"/><trkpt lat="-33.775079" lon="151.2106235"/><trkpt lat="-33.7755458" lon="151.2109104"/><trkpt lat="-33.775776" lon="151.2111544"/><trkpt lat="-33.7759454" lon="151.2114425"/><trkpt lat="-33.7759192" lon="151.2116016"/><trkpt lat="-33.7759363" lon="151.2116705"/><trkpt lat="-33.7759282" lon="151.2117207"/><trkpt lat="-33.7758423" lon="151.2118467"/><trkpt lat="-33.7758343" lon="151.2119451"/><trkpt lat="-33.7759627" lon="151.2121327"/><trkpt lat="-33.77598" lon="151.21231"/><trkpt lat="-33.7760633" lon="151.212341"/><trkpt lat="-33.7762039" lon="151.2124039"/><trkpt lat="-33.7763296" lon="151.2125429"/><trkpt lat="-33.7766016" lon="151.2126804"/><trkpt lat="-33.7767529" lon="151.2128001"/><trkpt lat="-33.7768316" lon="151.2128187"/><trkpt lat="-33.7770303" lon="151.2128801"/><trkpt lat="-33.7772438" lon="151.2130153"/><trkpt lat="-33.7775583" lon="151.2131719"/><trkpt lat="-33.7777671" lon="151.2132975"/><trkpt lat="-33.7780642" lon="151.2133909"/><trkpt lat="-33.7782443" lon="151.2135451"/><trkpt lat="-33.7783428" lon="151.2138075"/><trkpt lat="-33.778549" lon="151.2139335"/><trkpt lat="-33.7787199" lon="151.2140788"/><trkpt lat="-33.778936" lon="151.2142811"/><trkpt lat="-33.7792451" lon="151.2145102"/><trkpt lat="-33.779325" lon="151.2145814"/><trkpt lat="-33.7794691" lon="151.2148497"/><trkpt lat="-33.7796775" lon="151.215094"/><trkpt lat="-33.7797569" lon="151.2152054"/><trkpt lat="-33.7797641" lon="151.2153271"/><trkpt lat="-33.7798046" lon="151.2154487"/><trkpt lat="-33.7798768" lon="151.2154922"/><trkpt lat="-33.7800002" lon="151.2156394"/><trkpt lat="-33.780079" lon="151.2157442"/><trkpt lat="-33.7803086" lon="151.2159167"/><trkpt lat="-33.7805023" lon="151.2159701"/><trkpt lat="-33.7806606" lon="151.2160845"/><trkpt lat="-33.7808143" lon="151.2161283"/><trkpt lat="-33.7809149" lon="151.2161944"/><trkpt lat="-33.7809804" lon="151.2162134"/><trkpt lat="-33.7810396" lon="151.2162604"/><trkpt lat="-33.7810729" lon="151.216309"/><trkpt lat="-33.7810873" lon="151.2163594"/><trkpt lat="-33.7810851" lon="151.2164029"/><trkpt lat="-33.7811075" lon="151.2164481"/><trkpt lat="-33.7812092" lon="151.216545"/><trkpt lat="-33.7812775" lon="151.216626"/><trkpt lat="-33.7812776" lon="151.2167852"/><trkpt lat="-33.781197" lon="151.2171396"/><trkpt lat="-33.7813779" lon="151.2174565"/><trkpt lat="-33.7813906" lon="151.217549"/><trkpt lat="-33.7813488" lon="151.2176099"/><trkpt lat="-33.7813386" lon="151.2176898"/><trkpt lat="-33.7814614" lon="151.2178167"/><trkpt lat="-33.7816075" lon="151.2180829"/><trkpt lat="-33.7819858" lon="151.2187952"/><trkpt lat="-33.7819453" lon="151.2188838"/><trkpt lat="-33.782006" lon="151.2189915"/><trkpt lat="-33.7820081" lon="151.2191472"/><trkpt lat="-33.7819901" lon="151.219265"/><trkpt lat="-33.7820378" lon="151.2194278"/><trkpt lat="-33.7820378" lon="151.2195373"/><trkpt lat="-33.7819781" lon="151.2196251"/><trkpt lat="-33.7819453" lon="151.2197284"/><trkpt lat="-33.7819549" lon="151.2199281"/><trkpt lat="-33.781915" lon="151.2200256"/><trkpt lat="-33.7820075" lon="151.2201959"/><trkpt lat="-33.7820979" lon="151.2204293"/><trkpt lat="-33.7822126" lon="151.2206287"/><trkpt lat="-33.7822082" lon="151.2207938"/><trkpt lat="-33.7822646" lon="151.2209745"/><trkpt lat="-33.7824393" lon="151.2211767"/><trkpt lat="-33.7825376" lon="151.2213517"/><trkpt lat="-33.7825419" lon="151.2214629"/><trkpt lat="-33.782555" lon="151.2217459"/><trkpt lat="-33.7825593" lon="151.2219148"/><trkpt lat="-33.7825141" lon="151.2219773"/><trkpt lat="-33.782396" lon="151.2221025"/><trkpt lat="-33.7823164" lon="151.2221553"/><trkpt lat="-33.7822169" lon="151.2221563"/><trkpt lat="-33.7821432" lon="151.2222276"/><trkpt lat="-33.7821201" lon="151.2223597"/><trkpt lat="-33.782084" lon="151.2224327"/><trkpt lat="-33.7820103" lon="151.2225821"/><trkpt lat="-33.7819305" lon="151.22279"/><trkpt lat="-33.7820606" lon="151.2230985"/><trkpt lat="-33.7821664" lon="151.2237333"/><trkpt lat="-33.7820507" lon="151.224122"/><trkpt lat="-33.7821284" lon="151.2241762"/><trkpt lat="-33.7821871" lon="151.2242092"/><trkpt lat="-33.7822437" lon="151.224241"/><trkpt lat="-33.7823131" lon="151.2242042"/><trkpt lat="-33.7824115" lon="151.2241863"/><trkpt lat="-33.7825142" lon="151.2242246"/><trkpt lat="-33.782583" lon="151.2242333"/><trkpt lat="-33.7826938" lon="151.2242694"/><trkpt lat="-33.7829226" lon="151.2244082"/><trkpt lat="-33.782964" lon="151.2244134"/><trkpt lat="-33.7830231" lon="151.2243886"/><trkpt lat="-33.7830754" lon="151.22453"/><trkpt lat="-33.782973" lon="151.224613"/><trkpt lat="-33.782897" lon="151.2246798"/><trkpt lat="-33.7828052" lon="151.2247717"/><trkpt lat="-33.7827725" lon="151.2249217"/><trkpt lat="-33.7827529" lon="151.2250154"/><trkpt lat="-33.7825749" lon="151.2250647"/><trkpt lat="-33.7824569" lon="151.2251685"/><trkpt lat="-33.7824162" lon="151.2253252"/><trkpt lat="-33.7824068" lon="151.2255007"/><trkpt lat="-33.7824834" lon="151.2257581"/><trkpt lat="-33.7824814" lon="151.2258525"/><trkpt lat="-33.7824616" lon="151.226012"/><trkpt lat="-33.782516" lon="151.2261489"/><trkpt lat="-33.7825789" lon="151.2263088"/><trkpt lat="-33.7826444" lon="151.22648"/><trkpt lat="-33.7828617" lon="151.2267005"/><trkpt lat="-33.7830049" lon="151.2268187"/><trkpt lat="-33.7831307" lon="151.2269806"/><trkpt lat="-33.7831659" lon="151.2270608"/><trkpt lat="-33.7831901" lon="151.227206"/><trkpt lat="-33.7831806" lon="151.2273704"/><trkpt lat="-33.7830994" lon="151.2275614"/><trkpt lat="-33.7830122" lon="151.2276444"/><trkpt lat="-33.7829574" lon="151.2277041"/><trkpt lat="-33.7829499" lon="151.2278094"/><trkpt lat="-33.7829528" lon="151.2280515"/><trkpt lat="-33.7829245" lon="151.2282809"/><trkpt lat="-33.782858" lon="151.2284956"/><trkpt lat="-33.7828113" lon="151.2286721"/><trkpt lat="-33.7828172" lon="151.2287516"/><trkpt lat="-33.7828215" lon="151.2288419"/><trkpt lat="-33.7826844" lon="151.2289842"/><trkpt lat="-33.7825482" lon="151.2291375"/><trkpt lat="-33.7823492" lon="151.2293189"/><trkpt lat="-33.7821428" lon="151.229334"/><trkpt lat="-33.7820679" lon="151.2293367"/><trkpt lat="-33.7818903" lon="151.229417"/><trkpt lat="-33.7816819" lon="151.2294711"/><trkpt lat="-33.7815615" lon="151.2295295"/><trkpt lat="-33.781275" lon="151.2296484"/><trkpt lat="-33.7807068" lon="151.2295666"/><trkpt lat="-33.7804787" lon="151.2295714"/><trkpt lat="-33.7801798" lon="151.2295977"/><trkpt lat="-33.7798818" lon="151.2296521"/><trkpt lat="-33.7794515" lon="151.2296348"/><trkpt lat="-33.7792723" lon="151.2295765"/><trkpt lat="-33.778979" lon="151.2295459"/><trkpt lat="-33.7786696" lon="151.2295303"/><trkpt lat="-33.7786418" lon="151.2294457"/><trkpt lat="-33.7785832" lon="151.2293275"/><trkpt lat="-33.7784952" lon="151.2293073"/><trkpt lat="-33.778237" lon="151.2293943"/><trkpt lat="-33.7779837" lon="151.2294855"/><trkpt lat="-33.7778194" lon="151.2295516"/><trkpt lat="-33.7777102" lon="151.2295332"/><trkpt lat="-33.7775924" lon="151.2295149"/><trkpt lat="-33.7774686" lon="151.2296726"/><trkpt lat="-33.7772119" lon="151.2298354"/><trkpt lat="-33.7769361" lon="151.2298422"/><trkpt lat="-33.7766952" lon="151.2297709"/><trkpt lat="-33.7763209" lon="151.2296777"/><trkpt lat="-33.7761412" lon="151.2296192"/><trkpt lat="-33.7759284" lon="151.2295579"/><trkpt lat="-33.7758313" lon="151.2294903"/><trkpt lat="-33.7756889" lon="151.2294616"/><trkpt lat="-33.7753771" lon="151.22932"/><trkpt lat="-33.7752531" lon="151.2292878"/><trkpt lat="-33.7751851" lon="151.2292492"/><trkpt lat="-33.7751255" lon="151.2291438"/><trkpt lat="-33.7750124" lon="151.22899"/><trkpt lat="-33.774889" lon="151.2288508"/><trkpt lat="-33.774825" lon="151.2285901"/><trkpt lat="-33.7744885" lon="151.2280677"/><trkpt lat="-33.7743683" lon="151.2279366"/><trkpt lat="-33.7741639" lon="151.227529"/><trkpt lat="-33.7740806" lon="151.2273637"/><trkpt lat="-33.7739522" lon="151.2272657"/><trkpt lat="-33.7738912" lon="151.2271222"/><trkpt lat="-33.7738962" lon="151.2270179"/><trkpt lat="-33.7738383" lon="151.2269162"/><trkpt lat="-33.7737363" lon="151.2266905"/><trkpt lat="-33.7737123" lon="151.2266248"/><trkpt lat="-33.7734429" lon="151.2266591"/><trkpt lat="-33.7731116" lon="151.2265755"/><trkpt lat="-33.772988" lon="151.2264108"/><trkpt lat="-33.7728762" lon="151.2261596"/><trkpt lat="-33.7728108" lon="151.2258344"/><trkpt lat="-33.7727725" lon="151.2257178"/><trkpt lat="-33.7726815" lon="151.2256645"/><trkpt lat="-33.7724815" lon="151.2255802"/><trkpt lat="-33.7723011" lon="151.2252792"/><trkpt lat="-33.7722576" lon="151.2252065"/><trkpt lat="-33.771921" lon="151.224898"/><trkpt lat="-33.7718345" lon="151.2247691"/><trkpt lat="-33.7718201" lon="151.22452"/><trkpt lat="-33.7715857" lon="151.2242628"/><trkpt lat="-33.7714404" lon="151.224044"/><trkpt lat="-33.7713268" lon="151.2236765"/><trkpt lat="-33.7711147" lon="151.2234905"/><trkpt lat="-33.770723" lon="151.2233959"/><trkpt lat="-33.7704034" lon="151.2230579"/><trkpt lat="-33.7703137" lon="151.2228788"/><trkpt lat="-33.770289" lon="151.222613"/><trkpt lat="-33.770239" lon="151.222444"/><trkpt lat="-33.770159" lon="151.222282"/><trkpt lat="-33.770094" lon="151.222232"/><trkpt lat="-33.769948" lon="151.222184"/><trkpt lat="-33.769783" lon="151.222159"/><trkpt lat="-33.769723" lon="151.222128"/><trkpt lat="-33.7695745" lon="151.2220765"/><trkpt lat="-33.7694561" lon="151.2219511"/><trkpt lat="-33.7693923" lon="151.2218644"/><trkpt lat="-33.7693181" lon="151.2217418"/><trkpt lat="-33.7692759" lon="151.2215967"/><trkpt lat="-33.7692418" lon="151.2213973"/><trkpt lat="-33.769204" lon="151.221146"/><trkpt lat="-33.769195" lon="151.221094"/><trkpt lat="-33.7691756" lon="151.2208601"/><trkpt lat="-33.7692094" lon="151.2206152"/><trkpt lat="-33.769182" lon="151.2203107"/><trkpt lat="-33.7691586" lon="151.2197557"/><trkpt lat="-33.7690573" lon="151.2193148"/><trkpt lat="-33.7690458" lon="151.2190746"/><trkpt lat="-33.7690408" lon="151.2189232"/><trkpt lat="-33.7689776" lon="151.2189033"/><trkpt lat="-33.7689282" lon="151.2189196"/><trkpt lat="-33.7689081" lon="151.2189735"/><trkpt lat="-33.7688696" lon="151.2190745"/><trkpt lat="-33.7688306" lon="151.2191828"/><trkpt lat="-33.768759" lon="151.219334"/><trkpt lat="-33.7687155" lon="151.2195487"/><trkpt lat="-33.7686912" lon="151.2198153"/><trkpt lat="-33.768506" lon="151.2202453"/><trkpt lat="-33.7684396" lon="151.2202632"/><trkpt lat="-33.7684188" lon="151.2201511"/><trkpt lat="-33.7683973" lon="151.2201431"/><trkpt lat="-33.7683148" lon="151.2204473"/><trkpt lat="-33.7682449" lon="151.2205578"/><trkpt lat="-33.768134" lon="151.2208099"/><trkpt lat="-33.7677379" lon="151.2212439"/><trkpt lat="-33.7676264" lon="151.2213656"/><trkpt lat="-33.7675487" lon="151.2213872"/><trkpt lat="-33.767337" lon="151.221432"/><trkpt lat="-33.767203" lon="151.221427"/><trkpt lat="-33.766726" lon="151.221347"/><trkpt lat="-33.7661259" lon="151.221214"/><trkpt lat="-33.7662048" lon="151.2216618"/><trkpt lat="-33.7661651" lon="151.2217961"/><trkpt lat="-33.7660858" lon="151.2220064"/><trkpt lat="-33.7660435" lon="151.2222274"/><trkpt lat="-33.7660179" lon="151.222347"/><trkpt lat="-33.766021" lon="151.2224694"/><trkpt lat="-33.7660788" lon="151.2226003"/><trkpt lat="-33.7662028" lon="151.2227413"/><trkpt lat="-33.7662555" lon="151.2228315"/><trkpt lat="-33.7662697" lon="151.222908"/><trkpt lat="-33.7662522" lon="151.2229988"/><trkpt lat="-33.7662206" lon="151.2231155"/><trkpt lat="-33.7662257" lon="151.2233083"/><trkpt lat="-33.766159" lon="151.2235216"/><trkpt lat="-33.7661312" lon="151.2236744"/><trkpt lat="-33.7661307" lon="151.2237772"/><trkpt lat="-33.7661217" lon="151.223805"/><trkpt lat="-33.7661055" lon="151.2238551"/><trkpt lat="-33.7660474" lon="151.223938"/><trkpt lat="-33.7660144" lon="151.2241022"/><trkpt lat="-33.7659464" lon="151.2244231"/><trkpt lat="-33.7659012" lon="151.2245894"/><trkpt lat="-33.7659697" lon="151.2247825"/><trkpt lat="-33.7659614" lon="151.2251436"/><trkpt lat="-33.7658282" lon="151.2252183"/><trkpt lat="-33.7656096" lon="151.2252897"/><trkpt lat="-33.7655751" lon="151.2253479"/><trkpt lat="-33.7655879" lon="151.2254923"/><trkpt lat="-33.7655123" lon="151.2257583"/><trkpt lat="-33.7655628" lon="151.2260243"/><trkpt lat="-33.7653856" lon="151.2261888"/><trkpt lat="-33.7652261" lon="151.226233"/><trkpt lat="-33.7648993" lon="151.22639"/><trkpt lat="-33.7648756" lon="151.2264393"/><trkpt lat="-33.7649399" lon="151.2265396"/><trkpt lat="-33.7649799" lon="151.226605"/><trkpt lat="-33.7650646" lon="151.226631"/><trkpt lat="-33.7651069" lon="151.2267134"/><trkpt lat="-33.7650898" lon="151.2267733"/><trkpt lat="-33.7650481" lon="151.2267904"/><trkpt lat="-33.7649409" lon="151.2267895"/><trkpt lat="-33.7649051" lon="151.2267568"/><trkpt lat="-33.7648649" lon="151.2267805"/><trkpt lat="-33.7648154" lon="151.2269159"/><trkpt lat="-33.7647505" lon="151.2269793"/><trkpt lat="-33.7647154" lon="151.227131"/><trkpt lat="-33.7646994" lon="151.2272512"/><trkpt lat="-33.7647452" lon="151.2273545"/><trkpt lat="-33.7648614" lon="151.2274336"/><trkpt lat="-33.7650147" lon="151.2274999"/><trkpt lat="-33.7650357" lon="151.2275769"/><trkpt lat="-33.7651442" lon="151.2277195"/><trkpt lat="-33.7652716" lon="151.2278533"/><trkpt lat="-33.7653588" lon="151.2279023"/><trkpt lat="-33.7654714" lon="151.2278963"/><trkpt lat="-33.7656712" lon="151.2280126"/><trkpt lat="-33.7657773" lon="151.2280535"/><trkpt lat="-33.7658886" lon="151.2280313"/><trkpt lat="-33.7663256" lon="151.2279605"/><trkpt lat="-33.7665791" lon="151.2280367"/><trkpt lat="-33.7667344" lon="151.2280513"/><trkpt lat="-33.766724" lon="151.22816"/><trkpt lat="-33.7666734" lon="151.2283093"/><trkpt lat="-33.7666957" lon="151.2283583"/><trkpt lat="-33.7667575" lon="151.2283793"/><trkpt lat="-33.7667492" lon="151.2284817"/><trkpt lat="-33.766801" lon="151.2284763"/><trkpt lat="-33.7668044" lon="151.2284931"/><trkpt lat="-33.7667949" lon="151.2285145"/><trkpt lat="-33.7668139" lon="151.2285226"/><trkpt lat="-33.7668337" lon="151.2285603"/><trkpt lat="-33.7667921" lon="151.2285782"/><trkpt lat="-33.7666563" lon="151.2286349"/><trkpt lat="-33.7665797" lon="151.2286782"/><trkpt lat="-33.7664998" lon="151.2286958"/><trkpt lat="-33.7665011" lon="151.2287613"/><trkpt lat="-33.7665704" lon="151.2288348"/><trkpt lat="-33.7666018" lon="151.2289207"/><trkpt lat="-33.7665873" lon="151.2289858"/><trkpt lat="-33.7666904" lon="151.2290754"/><trkpt lat="-33.7668699" lon="151.2290586"/><trkpt lat="-33.7670077" lon="151.2289658"/><trkpt lat="-33.7670929" lon="151.2288071"/><trkpt lat="-33.7671575" lon="151.2287503"/><trkpt lat="-33.7672515" lon="151.2287372"/><trkpt lat="-33.7672797" lon="151.2288071"/><trkpt lat="-33.7672397" lon="151.2288572"/><trkpt lat="-33.767276" lon="151.2288887"/><trkpt lat="-33.7673345" lon="151.228886"/><trkpt lat="-33.767422" lon="151.2289323"/><trkpt lat="-33.7674742" lon="151.2289799"/><trkpt lat="-33.7677331" lon="151.2290485"/><trkpt lat="-33.7677737" lon="151.2290963"/><trkpt lat="-33.767791" lon="151.229177"/><trkpt lat="-33.7677803" lon="151.2292353"/><trkpt lat="-33.7677852" lon="151.2293445"/><trkpt lat="-33.767742" lon="151.2294976"/><trkpt lat="-33.7677248" lon="151.22965"/><trkpt lat="-33.7677158" lon="151.229954"/><trkpt lat="-33.7678046" lon="151.2303059"/><trkpt lat="-33.7678712" lon="151.2304298"/><trkpt lat="-33.7679744" lon="151.2304913"/><trkpt lat="-33.7680071" lon="151.2304679"/><trkpt lat="-33.768064" lon="151.230362"/><trkpt lat="-33.768197" lon="151.230219"/><trkpt lat="-33.768357" lon="151.230114"/><trkpt lat="-33.7685943" lon="151.2298945"/><trkpt lat="-33.7688373" lon="151.2296837"/><trkpt lat="-33.7689366" lon="151.2297296"/><trkpt lat="-33.769081" lon="151.229692"/><trkpt lat="-33.7691868" lon="151.2296639"/><trkpt lat="-33.7693545" lon="151.2296894"/><trkpt lat="-33.769434" lon="151.229654"/><trkpt lat="-33.769496" lon="151.229615"/><trkpt lat="-33.7696187" lon="151.2295183"/><trkpt lat="-33.7696785" lon="151.2294097"/><trkpt lat="-33.7697013" lon="151.2293185"/><trkpt lat="-33.7698077" lon="151.2293347"/><trkpt lat="-33.7699239" lon="151.2294052"/><trkpt lat="-33.7701094" lon="151.2294667"/><trkpt lat="-33.7701801" lon="151.2295707"/><trkpt lat="-33.7702785" lon="151.2295776"/><trkpt lat="-33.7703457" lon="151.2295894"/><trkpt lat="-33.7704026" lon="151.2295854"/><trkpt lat="-33.770474" lon="151.229618"/><trkpt lat="-33.7705558" lon="151.2296572"/><trkpt lat="-33.770591" lon="151.2296484"/><trkpt lat="-33.770635" lon="151.2296612"/><trkpt lat="-33.7707975" lon="151.2297567"/><trkpt lat="-33.770858" lon="151.2297671"/><trkpt lat="-33.7708998" lon="151.2297289"/><trkpt lat="-33.770912" lon="151.2296619"/><trkpt lat="-33.7709625" lon="151.229658"/><trkpt lat="-33.7710107" lon="151.2296612"/><trkpt lat="-33.771072" lon="151.2296887"/><trkpt lat="-33.771129" lon="151.229768"/><trkpt lat="-33.77134" lon="151.230075"/><trkpt lat="-33.771529" lon="151.230238"/><trkpt lat="-33.7716012" lon="151.2302953"/><trkpt lat="-33.7716288" lon="151.2304102"/><trkpt lat="-33.7716725" lon="151.230459"/><trkpt lat="-33.7716707" lon="151.2305369"/><trkpt lat="-33.7717777" lon="151.2307142"/><trkpt lat="-33.771936" lon="151.2308447"/><trkpt lat="-33.7720774" lon="151.2309307"/><trkpt lat="-33.7721093" lon="151.2310781"/><trkpt lat="-33.7721964" lon="151.231344"/><trkpt lat="-33.7722788" lon="151.231353"/><trkpt lat="-33.7723429" lon="151.2314327"/><trkpt lat="-33.772359" lon="151.2316098"/><trkpt lat="-33.7723964" lon="151.2316829"/><trkpt lat="-33.7724232" lon="151.2316929"/><trkpt lat="-33.7724802" lon="151.2317142"/><trkpt lat="-33.7725703" lon="151.2317285"/><trkpt lat="-33.7726347" lon="151.2317006"/><trkpt lat="-33.7727932" lon="151.2316476"/><trkpt lat="-33.7729631" lon="151.2316385"/><trkpt lat="-33.7730685" lon="151.2315601"/><trkpt lat="-33.7731033" lon="151.2314159"/><trkpt lat="-33.7732128" lon="151.2312694"/><trkpt lat="-33.7734269" lon="151.2312694"/><trkpt lat="-33.7735661" lon="151.2312927"/><trkpt lat="-33.7737265" lon="151.2312093"/><trkpt lat="-33.7740547" lon="151.2311235"/><trkpt lat="-33.7743686" lon="151.2311407"/><trkpt lat="-33.7747468" lon="151.2313123"/><trkpt lat="-33.7750422" lon="151.231389"/><trkpt lat="-33.7751846" lon="151.2314844"/><trkpt lat="-33.7752696" lon="151.2315031"/><trkpt lat="-33.7753751" lon="151.2316534"/><trkpt lat="-33.7754838" lon="151.2317231"/><trkpt lat="-33.7756479" lon="151.2316887"/><trkpt lat="-33.7761023" lon="151.2318273"/><trkpt lat="-33.776395" lon="151.2321748"/><trkpt lat="-33.7765245" lon="151.2324089"/><trkpt lat="-33.7766231" lon="151.2326684"/><trkpt lat="-33.7766399" lon="151.2329465"/><trkpt lat="-33.7766231" lon="151.2331577"/><trkpt lat="-33.7767953" lon="151.2333605"/><trkpt lat="-33.7768372" lon="151.2335868"/><trkpt lat="-33.7769739" lon="151.2335007"/><trkpt lat="-33.777154" lon="151.2330798"/><trkpt lat="-33.7774351" lon="151.2327605"/><trkpt lat="-33.777577" lon="151.2326187"/><trkpt lat="-33.7776285" lon="151.2326257"/><trkpt lat="-33.777711" lon="151.2326227"/><trkpt lat="-33.7778747" lon="151.2328237"/><trkpt lat="-33.7779913" lon="151.2328896"/><trkpt lat="-33.777918" lon="151.2329787"/><trkpt lat="-33.7779212" lon="151.2330705"/><trkpt lat="-33.7778599" lon="151.2330619"/><trkpt lat="-33.7779221" lon="151.2332211"/><trkpt lat="-33.7779786" lon="151.2333036"/><trkpt lat="-33.7780364" lon="151.2334744"/><trkpt lat="-33.7780063" lon="151.2335867"/><trkpt lat="-33.7780858" lon="151.2336434"/><trkpt lat="-33.7780817" lon="151.2337857"/><trkpt lat="-33.7781885" lon="151.2339197"/><trkpt lat="-33.7783281" lon="151.2342527"/><trkpt lat="-33.7785056" lon="151.2345219"/><trkpt lat="-33.7785958" lon="151.2348207"/><trkpt lat="-33.7786697" lon="151.2350075"/><trkpt lat="-33.7787795" lon="151.2351047"/><trkpt lat="-33.7788156" lon="151.2351877"/><trkpt lat="-33.7790525" lon="151.2357635"/><trkpt lat="-33.7791523" lon="151.235894"/><trkpt lat="-33.7792659" lon="151.2360159"/><trkpt lat="-33.7792782" lon="151.2360302"/><trkpt lat="-33.7793842" lon="151.2361521"/><trkpt lat="-33.7794615" lon="151.236187"/><trkpt lat="-33.7795509" lon="151.2362152"/><trkpt lat="-33.7795837" lon="151.2361964"/><trkpt lat="-33.7796144" lon="151.2361454"/><trkpt lat="-33.7796542" lon="151.2361279"/><trkpt lat="-33.7797104" lon="151.2361346"/><trkpt lat="-33.7798322" lon="151.236188"/><trkpt lat="-33.779871" lon="151.2362971"/><trkpt lat="-33.7798736" lon="151.2364485"/><trkpt lat="-33.7799489" lon="151.2365229"/><trkpt lat="-33.7799824" lon="151.2366326"/><trkpt lat="-33.7800452" lon="151.2367502"/><trkpt lat="-33.7801489" lon="151.2366845"/><trkpt lat="-33.7802509" lon="151.2365099"/><trkpt lat="-33.7803437" lon="151.2363497"/><trkpt lat="-33.7804756" lon="151.2362476"/><trkpt lat="-33.7806037" lon="151.2361448"/><trkpt lat="-33.7806123" lon="151.2359938"/><trkpt lat="-33.7806227" lon="151.235915"/><trkpt lat="-33.7806534" lon="151.2357707"/><trkpt lat="-33.7807593" lon="151.2359078"/><trkpt lat="-33.7810055" lon="151.2362165"/><trkpt lat="-33.7810522" lon="151.236236"/><trkpt lat="-33.7810943" lon="151.2363859"/><trkpt lat="-33.7812172" lon="151.2363622"/><trkpt lat="-33.781235" lon="151.2364965"/><trkpt lat="-33.7812995" lon="151.2368179"/><trkpt lat="-33.7814577" lon="151.2371965"/><trkpt lat="-33.7815495" lon="151.2371673"/><trkpt lat="-33.7817139" lon="151.2372036"/><trkpt lat="-33.7818611" lon="151.2371957"/><trkpt lat="-33.7819087" lon="151.2372076"/><trkpt lat="-33.7819552" lon="151.2371799"/><trkpt lat="-33.7821577" lon="151.2371879"/><trkpt lat="-33.7823266" lon="151.2371999"/><trkpt lat="-33.7823454" lon="151.2371539"/><trkpt lat="-33.7824581" lon="151.2370879"/><trkpt lat="-33.7825677" lon="151.2370404"/><trkpt lat="-33.7825747" lon="151.2371043"/><trkpt lat="-33.7825862" lon="151.2371876"/><trkpt lat="-33.7826553" lon="151.2376106"/><trkpt lat="-33.7826689" lon="151.2377227"/><trkpt lat="-33.7827163" lon="151.2377547"/><trkpt lat="-33.7827372" lon="151.2377779"/><trkpt lat="-33.7827489" lon="151.2378017"/><trkpt lat="-33.7827561" lon="151.2378249"/><trkpt lat="-33.7827558" lon="151.2378473"/><trkpt lat="-33.7827519" lon="151.2378755"/><trkpt lat="-33.7827183" lon="151.2379766"/><trkpt lat="-33.7827108" lon="151.238006"/><trkpt lat="-33.7826818" lon="151.2381198"/><trkpt lat="-33.7827859" lon="151.2381693"/><trkpt lat="-33.7828139" lon="151.2381826"/><trkpt lat="-33.7830665" lon="151.2383149"/><trkpt lat="-33.783246" lon="151.238413"/><trkpt lat="-33.7837359" lon="151.2386466"/><trkpt lat="-33.7844693" lon="151.2389805"/><trkpt lat="-33.7856687" lon="151.2395066"/><trkpt lat="-33.7858692" lon="151.2396045"/><trkpt lat="-33.7865822" lon="151.2399254"/><trkpt lat="-33.786964" lon="151.2400901"/><trkpt lat="-33.786965" lon="151.2399906"/><trkpt lat="-33.7870124" lon="151.2398637"/><trkpt lat="-33.7871203" lon="151.2394541"/><trkpt lat="-33.7871424" lon="151.2394429"/><trkpt lat="-33.7872472" lon="151.2391103"/><trkpt lat="-33.7873425" lon="151.2390071"/><trkpt lat="-33.787421" lon="151.2391016"/><trkpt lat="-33.787679" lon="151.2392176"/><trkpt lat="-33.7877076" lon="151.2392309"/><trkpt lat="-33.7878056" lon="151.2392668"/><trkpt lat="-33.7879099" lon="151.2393079"/><trkpt lat="-33.7889217" lon="151.2397429"/><trkpt lat="-33.7894108" lon="151.2399483"/><trkpt lat="-33.7895034" lon="151.2400049"/><trkpt lat="-33.7897322" lon="151.2401401"/><trkpt lat="-33.7901022" lon="151.2401199"/><trkpt lat="-33.7906855" lon="151.2400655"/><trkpt lat="-33.7915964" lon="151.2399067"/><trkpt lat="-33.7916927" lon="151.2402843"/><trkpt lat="-33.7917185" lon="151.2404304"/><trkpt lat="-33.7917921" lon="151.2409166"/><trkpt lat="-33.7918103" lon="151.2410424"/><trkpt lat="-33.7918912" lon="151.2409885"/><trkpt lat="-33.7919511" lon="151.240976"/><trkpt lat="-33.7920078" lon="151.2409695"/><trkpt lat="-33.7920629" lon="151.2409669"/><trkpt lat="-33.7921113" lon="151.2409703"/><trkpt lat="-33.7921532" lon="151.2409785"/><trkpt lat="-33.7922033" lon="151.2409985"/><trkpt lat="-33.7922576" lon="151.2410327"/><trkpt lat="-33.7922842" lon="151.241001"/><trkpt lat="-33.7923031" lon="151.2409785"/><trkpt lat="-33.7923247" lon="151.2409526"/><trkpt lat="-33.7924093" lon="151.2409016"/><trkpt lat="-33.792735" lon="151.2408237"/><trkpt lat="-33.792808" lon="151.2408078"/><trkpt lat="-33.7935605" lon="151.2406486"/><trkpt lat="-33.793771" lon="151.2406222"/><trkpt lat="-33.7939209" lon="151.2406034"/><trkpt lat="-33.7949522" lon="151.2403874"/><trkpt lat="-33.7958077" lon="151.2402014"/><trkpt lat="-33.7957057" lon="151.2395792"/><trkpt lat="-33.7956651" lon="151.2395531"/><trkpt lat="-33.7956249" lon="151.2392676"/><trkpt lat="-33.7956813" lon="151.2391195"/><trkpt lat="-33.7957312" lon="151.2390671" />
            <trkpt lat="-33.7959128" lon="151.2390221" />
            <trkpt lat="-33.7960884" lon="151.2389872" />
            <trkpt lat="-33.7962209" lon="151.2389746" />
            <trkpt lat="-33.7963297" lon="151.238962" />
            <trkpt lat="-33.7967211" lon="151.2389017" />
            <trkpt lat="-33.7968226" lon="151.238969" />
            <trkpt lat="-33.7969046" lon="151.2388487" />
            <trkpt lat="-33.7969414" lon="151.2388173" />
            <trkpt lat="-33.7969939" lon="151.2388013" />
            <trkpt lat="-33.7973128" lon="151.238931" />
            <trkpt lat="-33.7973809" lon="151.2389626" />
            <trkpt lat="-33.7974037" lon="151.2388789" />
            <trkpt lat="-33.7976419" lon="151.2389066" />
            <trkpt lat="-33.7977615" lon="151.2389474" />
            <trkpt lat="-33.7979571" lon="151.238896" />
            <trkpt lat="-33.7980552" lon="151.238778" />
            <trkpt lat="-33.7981542" lon="151.2389525" />
            <trkpt lat="-33.7982819" lon="151.2391012" />
            <trkpt lat="-33.7984034" lon="151.2393998" />
            <trkpt lat="-33.7983932" lon="151.2394993" />
            <trkpt lat="-33.7984187" lon="151.2395903" />
            <trkpt lat="-33.7985015" lon="151.2397353" />
            <trkpt lat="-33.7984994" lon="151.239782" />
            <trkpt lat="-33.7985515" lon="151.2397685" />
            <trkpt lat="-33.7985658" lon="151.2397933" />
            <trkpt lat="-33.7985903" lon="151.2398361" />
            <trkpt lat="-33.7985637" lon="151.2399024" />
            <trkpt lat="-33.7986117" lon="151.2399221" />
            <trkpt lat="-33.7987261" lon="151.2398865" />
            <trkpt lat="-33.7987588" lon="151.2399098" />
            <trkpt lat="-33.7987792" lon="151.2399713" />
            <trkpt lat="-33.7988211" lon="151.240029" />
            <trkpt lat="-33.7987864" lon="151.2401986" />
            <trkpt lat="-33.7987782" lon="151.2403989" />
            <trkpt lat="-33.7987312" lon="151.2405292" />
            <trkpt lat="-33.7986291" lon="151.2407664" />
            <trkpt lat="-33.7985872" lon="151.2409015" />
            <trkpt lat="-33.7985842" lon="151.2409851" />
            <trkpt lat="-33.7986171" lon="151.2410573" />
            <trkpt lat="-33.7987915" lon="151.2409388" />
            <trkpt lat="-33.7989296" lon="151.2407424" />
            <trkpt lat="-33.7991081" lon="151.2404239" />
            <trkpt lat="-33.799336" lon="151.2399794" />
            <trkpt lat="-33.7995356" lon="151.239545" />
            <trkpt lat="-33.7996357" lon="151.2393025" />
            <trkpt lat="-33.7997512" lon="151.2390425" />
            <trkpt lat="-33.7998636" lon="151.2388607" />
            <trkpt lat="-33.7999752" lon="151.238703" />
            <trkpt lat="-33.800078" lon="151.2386517" />
            <trkpt lat="-33.8001802" lon="151.2386644" />
            <trkpt lat="-33.8002617" lon="151.2387245" />
            <trkpt lat="-33.8003332" lon="151.2388074" />
            <trkpt lat="-33.8008435" lon="151.2378524" />
            <trkpt lat="-33.8011649" lon="151.2372453" />
            <trkpt lat="-33.8012758" lon="151.2371739" />
            <trkpt lat="-33.8013725" lon="151.2371365" />
            <trkpt lat="-33.8015274" lon="151.2370464" />
            <trkpt lat="-33.8016406" lon="151.2369349" />
            <trkpt lat="-33.8019025" lon="151.2366026" />
            <trkpt lat="-33.8021128" lon="151.2363586" />
            <trkpt lat="-33.8023011" lon="151.2361596" />
            <trkpt lat="-33.8024173" lon="151.2360538" />
            <trkpt lat="-33.8025181" lon="151.2360007" />
            <trkpt lat="-33.8027156" lon="151.2359866" />
            <trkpt lat="-33.8029178" lon="151.2360009" />
            <trkpt lat="-33.8030573" lon="151.2360528" />
            <trkpt lat="-33.8032451" lon="151.2361523" />
            <trkpt lat="-33.8035516" lon="151.23631" />
            <trkpt lat="-33.8036138" lon="151.2363566" />
            <trkpt lat="-33.8036625" lon="151.2364439" />
            <trkpt lat="-33.8037486" lon="151.2366723" />
            <trkpt lat="-33.8038188" lon="151.2369795" />
            <trkpt lat="-33.8038235" lon="151.2372207" />
            <trkpt lat="-33.8037211" lon="151.2377082" />
            <trkpt lat="-33.8031583" lon="151.2385759" />
            <trkpt lat="-33.8031173" lon="151.2389673" />
            <trkpt lat="-33.8032108" lon="151.2398469" />
            <trkpt lat="-33.8031709" lon="151.2403942" />
            <trkpt lat="-33.8027387" lon="151.2414978" />
            <trkpt lat="-33.80271" lon="151.241571" />
            <trkpt lat="-33.8026608" lon="151.2416966" />
            <trkpt lat="-33.802589" lon="151.2418801" />
            <trkpt lat="-33.8025438" lon="151.2419954" />
            <trkpt lat="-33.8025005" lon="151.242106" />
            <trkpt lat="-33.8024785" lon="151.2421621" />
            <trkpt lat="-33.8023067" lon="151.2423084" />
            <trkpt lat="-33.8022046" lon="151.2423955" />
            <trkpt lat="-33.8020905" lon="151.2424927" />
            <trkpt lat="-33.8020612" lon="151.2425176" />
            <trkpt lat="-33.8017817" lon="151.2427557" />
            <trkpt lat="-33.801735" lon="151.2427955" />
            <trkpt lat="-33.8016556" lon="151.2428631" />
            <trkpt lat="-33.8016122" lon="151.2429001" />
            <trkpt lat="-33.8014146" lon="151.2430684" />
            <trkpt lat="-33.8013741" lon="151.2431029" />
            <trkpt lat="-33.8013954" lon="151.2431522" />
            <trkpt lat="-33.8013807" lon="151.2432587" />
            <trkpt lat="-33.8013641" lon="151.2433012" />
            <trkpt lat="-33.8013503" lon="151.2433363" />
            <trkpt lat="-33.8012835" lon="151.2435074" />
            <trkpt lat="-33.8012183" lon="151.2436741" />
            <trkpt lat="-33.801117" lon="151.2439334" />
            <trkpt lat="-33.801082" lon="151.2441372" />
            <trkpt lat="-33.801056" lon="151.2443295" />
            <trkpt lat="-33.8010347" lon="151.24445" />
            <trkpt lat="-33.8009944" lon="151.2446775" />
            <trkpt lat="-33.8009277" lon="151.244901" />
            <trkpt lat="-33.8008388" lon="151.2450741" />
            <trkpt lat="-33.8007528" lon="151.2452497" />
            <trkpt lat="-33.8005442" lon="151.2455609" />
            <trkpt lat="-33.8003376" lon="151.2458512" />
            <trkpt lat="-33.8000353" lon="151.2461717" />
            <trkpt lat="-33.799958" lon="151.2462548" />
            <trkpt lat="-33.7999141" lon="151.2463127" />
            <trkpt lat="-33.7998878" lon="151.2463844" />
            <trkpt lat="-33.7998781" lon="151.246433" />
            <trkpt lat="-33.7998769" lon="151.2464838" />
            <trkpt lat="-33.7998834" lon="151.2465531" />
            <trkpt lat="-33.7999023" lon="151.2466228" />
            <trkpt lat="-33.7999255" lon="151.246666" />
            <trkpt lat="-33.7999417" lon="151.246696" />
            <trkpt lat="-33.8000378" lon="151.2467715" />
            <trkpt lat="-33.8002434" lon="151.2468681" />
            <trkpt lat="-33.8002948" lon="151.2466998" />
            <trkpt lat="-33.8003837" lon="151.2466034" />
            <trkpt lat="-33.8005842" lon="151.2464999" />
            <trkpt lat="-33.800862" lon="151.2463823" />
            <trkpt lat="-33.8009818" lon="151.2463421" />
            <trkpt lat="-33.8012898" lon="151.2462528" />
            <trkpt lat="-33.8013793" lon="151.2462257" />
            <trkpt lat="-33.8015102" lon="151.246169" />
        </trkseg>
    </trk>
</gpx>
