<?xml version="1.0" encoding="UTF-8" standalone="no" ?>

<gpx xmlns="http://www.topografix.com/GPX/1/1" xmlns:xsi="http://www.w3.org/2001/XMLSchema-instance" xsi:schemaLocation="http://www.topografix.com/GPX/1/1 http://www.topografix.com/GPX/1/1/gpx.xsd" version="1.1" creator="waymarkedtrails.org"><metadata><name>Kiama Coast Walk</name><copyright author="OpenStreetMap and Contributors"><license>https://www.openstreetmap.org/copyright</license></copyright><link href="https://hiking.waymarkedtrails.org/#route?id=14273953&amp;type=relation"><text>WaymarkedTrails</text></link><time>2025-10-26T07:14:36.925Z</time></metadata><trk><trkseg><trkpt lat="-34.6287655" lon="150.8579736"/><trkpt lat="-34.6287966" lon="150.858022"/><trkpt lat="-34.6289422" lon="150.8581373"/><trkpt lat="-34.6290386" lon="150.8581251"/><trkpt lat="-34.629137" lon="150.8582653"/><trkpt lat="-34.6292245" lon="150.8584186"/><trkpt lat="-34.6293206" lon="150.858625"/><trkpt lat="-34.6294042" lon="150.8588222"/><trkpt lat="-34.6295022" lon="150.8591256"/><trkpt lat="-34.6295703" lon="150.8594816"/><trkpt lat="-34.6295232" lon="150.8597573"/><trkpt lat="-34.6293789" lon="150.8602075"/><trkpt lat="-34.629232" lon="150.8605022"/><trkpt lat="-34.6290783" lon="150.8608256"/><trkpt lat="-34.6289068" lon="150.8611275"/><trkpt lat="-34.628855" lon="150.8613157"/><trkpt lat="-34.6288918" lon="150.8613954"/><trkpt lat="-34.6290999" lon="150.8613904"/><trkpt lat="-34.6293148" lon="150.8613646"/><trkpt lat="-34.629507" lon="150.8613467"/><trkpt lat="-34.6296253" lon="150.8613179"/><trkpt lat="-34.6297885" lon="150.8613284"/><trkpt lat="-34.629971" lon="150.8613993"/><trkpt lat="-34.6301397" lon="150.8614365"/><trkpt lat="-34.6302617" lon="150.8613763"/><trkpt lat="-34.6303605" lon="150.8612847"/><trkpt lat="-34.6305477" lon="150.8612389"/><trkpt lat="-34.6308079" lon="150.8611886"/><trkpt lat="-34.6312041" lon="150.8611275"/><trkpt lat="-34.6313372" lon="150.861185"/><trkpt lat="-34.6314732" lon="150.8611993"/><trkpt lat="-34.6315974" lon="150.8611778"/><trkpt lat="-34.632029" lon="150.8610089"/><trkpt lat="-34.6323277" lon="150.8608759"/><trkpt lat="-34.632576" lon="150.8607574"/><trkpt lat="-34.6330213" lon="150.8604033"/><trkpt lat="-34.6330771" lon="150.8601793"/><trkpt lat="-34.6331666" lon="150.8599618"/><trkpt lat="-34.6333593" lon="150.8599618"/><trkpt lat="-34.6335313" lon="150.8598699"/><trkpt lat="-34.6336689" lon="150.8595353"/><trkpt lat="-34.633732" lon="150.8592716"/><trkpt lat="-34.6339596" lon="150.8589887"/><trkpt lat="-34.6339922" lon="150.8589215"/><trkpt lat="-34.6340146" lon="150.8588968"/><trkpt lat="-34.6340277" lon="150.8588662"/><trkpt lat="-34.6340349" lon="150.8588411"/><trkpt lat="-34.6340421" lon="150.8588213"/><trkpt lat="-34.6340618" lon="150.8588004"/><trkpt lat="-34.6340663" lon="150.8587855"/><trkpt lat="-34.6340673" lon="150.8587651"/><trkpt lat="-34.6340703" lon="150.8587544"/><trkpt lat="-34.634075" lon="150.8587496"/><trkpt lat="-34.6340857" lon="150.8587499"/><trkpt lat="-34.6341089" lon="150.8587575"/><trkpt lat="-34.6341529" lon="150.8587613"/><trkpt lat="-34.6341938" lon="150.8587712"/><trkpt lat="-34.6342121" lon="150.8587851"/><trkpt lat="-34.6342247" lon="150.8587948"/><trkpt lat="-34.6342544" lon="150.8588123"/><trkpt lat="-34.6343095" lon="150.8588259"/><trkpt lat="-34.6343404" lon="150.8588369"/><trkpt lat="-34.6343714" lon="150.8588236"/><trkpt lat="-34.634396" lon="150.858826"/><trkpt lat="-34.6344123" lon="150.8588444"/><trkpt lat="-34.6344465" lon="150.8588453"/><trkpt lat="-34.634468" lon="150.8588347"/><trkpt lat="-34.6344851" lon="150.858821"/><trkpt lat="-34.6345034" lon="150.8587757"/><trkpt lat="-34.6345502" lon="150.8587574"/><trkpt lat="-34.6345663" lon="150.8587648"/><trkpt lat="-34.6345805" lon="150.8587649"/><trkpt lat="-34.6345948" lon="150.8587548"/><trkpt lat="-34.63462" lon="150.8587316"/><trkpt lat="-34.6346779" lon="150.8587012"/><trkpt lat="-34.6347174" lon="150.85869"/><trkpt lat="-34.6347569" lon="150.8586672"/><trkpt lat="-34.6348096" lon="150.8586279"/><trkpt lat="-34.6348889" lon="150.8585779"/><trkpt lat="-34.6349076" lon="150.8585493"/><trkpt lat="-34.6349585" lon="150.8585134"/><trkpt lat="-34.6350292" lon="150.8585179"/><trkpt lat="-34.6350654" lon="150.8584358"/><trkpt lat="-34.6350887" lon="150.8584034"/><trkpt lat="-34.6351426" lon="150.8583449"/><trkpt lat="-34.6351643" lon="150.8582335"/><trkpt lat="-34.6352583" lon="150.8581163"/><trkpt lat="-34.6353524" lon="150.8579346"/><trkpt lat="-34.6354006" lon="150.8577997"/><trkpt lat="-34.6353693" lon="150.8576619"/><trkpt lat="-34.6354296" lon="150.8575769"/><trkpt lat="-34.6354211" lon="150.8575109"/><trkpt lat="-34.6354392" lon="150.8573923"/><trkpt lat="-34.6354272" lon="150.8572897"/><trkpt lat="-34.6353693" lon="150.8571724"/><trkpt lat="-34.6354078" lon="150.8570315"/><trkpt lat="-34.6354396" lon="150.8568268"/><trkpt lat="-34.6354545" lon="150.8567409"/><trkpt lat="-34.6354716" lon="150.8567141"/><trkpt lat="-34.6355377" lon="150.8565802"/><trkpt lat="-34.6356499" lon="150.856582"/><trkpt lat="-34.636366" lon="150.8558652"/><trkpt lat="-34.6368647" lon="150.8558303"/><trkpt lat="-34.6376305" lon="150.8556747"/><trkpt lat="-34.6386809" lon="150.8552349"/><trkpt lat="-34.6398836" lon="150.8550712"/><trkpt lat="-34.6398682" lon="150.8547628"/><trkpt lat="-34.6398439" lon="150.8544195"/><trkpt lat="-34.6401443" lon="150.8542592"/><trkpt lat="-34.6401232" lon="150.8540368"/><trkpt lat="-34.6401246" lon="150.8540211"/><trkpt lat="-34.6401243" lon="150.854004"/><trkpt lat="-34.6401209" lon="150.8539865"/><trkpt lat="-34.6400883" lon="150.8539028"/><trkpt lat="-34.6401484" lon="150.8538669"/><trkpt lat="-34.640058" lon="150.8536497"/><trkpt lat="-34.6401617" lon="150.8535692"/><trkpt lat="-34.6404486" lon="150.8534244"/><trkpt lat="-34.6409318" lon="150.8532876"/><trkpt lat="-34.6412011" lon="150.8532527"/><trkpt lat="-34.6417174" lon="150.8532339"/><trkpt lat="-34.6419977" lon="150.8532527"/><trkpt lat="-34.6434585" lon="150.8534297"/><trkpt lat="-34.6442838" lon="150.8540145"/><trkpt lat="-34.6444449" lon="150.8541593"/><trkpt lat="-34.6445376" lon="150.854331"/><trkpt lat="-34.6446347" lon="150.854618"/><trkpt lat="-34.6447273" lon="150.8547628"/><trkpt lat="-34.6448642" lon="150.8548969"/><trkpt lat="-34.6456431" lon="150.8554628"/><trkpt lat="-34.6457043" lon="150.8554966"/><trkpt lat="-34.6457953" lon="150.8555487"/><trkpt lat="-34.6458077" lon="150.8555551"/><trkpt lat="-34.6465875" lon="150.8559456"/><trkpt lat="-34.6470487" lon="150.8563533"/><trkpt lat="-34.6472362" lon="150.8566162"/><trkpt lat="-34.6479975" lon="150.857909"/><trkpt lat="-34.6481409" lon="150.8581129"/><trkpt lat="-34.6483035" lon="150.8582855"/><trkpt lat="-34.6483925" lon="150.8584091"/><trkpt lat="-34.6485306" lon="150.8584423"/><trkpt lat="-34.648667" lon="150.8585362"/><trkpt lat="-34.6490594" lon="150.8587816"/><trkpt lat="-34.6492481" lon="150.8588889"/><trkpt lat="-34.6493052" lon="150.858908"/><trkpt lat="-34.6493525" lon="150.8589121"/><trkpt lat="-34.6494211" lon="150.858908"/><trkpt lat="-34.6494925" lon="150.8588974"/><trkpt lat="-34.6495689" lon="150.8588975"/><trkpt lat="-34.6497132" lon="150.8589462"/><trkpt lat="-34.6498475" lon="150.8589919"/><trkpt lat="-34.6499362" lon="150.8590154"/><trkpt lat="-34.6500263" lon="150.8590376"/><trkpt lat="-34.6502076" lon="150.8590534"/><trkpt lat="-34.6504842" lon="150.8590596"/><trkpt lat="-34.6506163" lon="150.8590581"/><trkpt lat="-34.6506977" lon="150.8590481"/><trkpt lat="-34.6507628" lon="150.8590323"/><trkpt lat="-34.6508714" lon="150.8589924"/><trkpt lat="-34.6510734" lon="150.858918"/><trkpt lat="-34.6511634" lon="150.8588934"/><trkpt lat="-34.6512433" lon="150.8588601"/><trkpt lat="-34.6513215" lon="150.8588108"/><trkpt lat="-34.6515237" lon="150.8586912"/><trkpt lat="-34.6516525" lon="150.8586025"/><trkpt lat="-34.6516994" lon="150.8585576"/><trkpt lat="-34.6517885" lon="150.8584701"/><trkpt lat="-34.6518341" lon="150.858427"/><trkpt lat="-34.6518681" lon="150.8584005"/><trkpt lat="-34.6519462" lon="150.8583561"/><trkpt lat="-34.6520248" lon="150.8583164"/><trkpt lat="-34.6520643" lon="150.8582924"/><trkpt lat="-34.6520899" lon="150.8583068"/><trkpt lat="-34.6521496" lon="150.8583404"/><trkpt lat="-34.6523006" lon="150.8584348"/><trkpt lat="-34.6524868" lon="150.8585522"/><trkpt lat="-34.6527118" lon="150.8586997"/><trkpt lat="-34.6528769" lon="150.8587872"/><trkpt lat="-34.6530909" lon="150.8589236"/><trkpt lat="-34.6531566" lon="150.8589865"/><trkpt lat="-34.6532208" lon="150.8590563"/><trkpt lat="-34.6532524" lon="150.8591022"/><trkpt lat="-34.6532994" lon="150.8590016"/><trkpt lat="-34.6533107" lon="150.8589521"/><trkpt lat="-34.6533191" lon="150.8588803"/><trkpt lat="-34.6533207" lon="150.858798"/><trkpt lat="-34.6533187" lon="150.8586965"/><trkpt lat="-34.653312" lon="150.8586099"/><trkpt lat="-34.6532956" lon="150.8585142"/><trkpt lat="-34.6532733" lon="150.8584193"/><trkpt lat="-34.6532312" lon="150.8582582"/><trkpt lat="-34.6532131" lon="150.8581844"/><trkpt lat="-34.6531977" lon="150.8581014"/><trkpt lat="-34.6531859" lon="150.8580063"/><trkpt lat="-34.6531794" lon="150.8578902"/><trkpt lat="-34.6531754" lon="150.8578226"/><trkpt lat="-34.6531705" lon="150.8574857"/><trkpt lat="-34.6532618" lon="150.8574842"/><trkpt lat="-34.6532967" lon="150.857486"/><trkpt lat="-34.6533362" lon="150.8575604"/><trkpt lat="-34.6533776" lon="150.8576872"/><trkpt lat="-34.6533907" lon="150.8576813"/><trkpt lat="-34.6534123" lon="150.857568"/><trkpt lat="-34.6534303" lon="150.857521"/><trkpt lat="-34.6535258" lon="150.8575037"/><trkpt lat="-34.653536" lon="150.857496"/><trkpt lat="-34.653987" lon="150.8571386"/><trkpt lat="-34.654748" lon="150.8565354"/><trkpt lat="-34.655604" lon="150.8559206"/><trkpt lat="-34.6572689" lon="150.8552027"/><trkpt lat="-34.6592634" lon="150.8544624"/><trkpt lat="-34.6618402" lon="150.8539796"/><trkpt lat="-34.6634463" lon="150.8537114"/><trkpt lat="-34.6630002" lon="150.8530182"/><trkpt lat="-34.6629968" lon="150.8529812"/><trkpt lat="-34.6629009" lon="150.852991"/><trkpt lat="-34.6627974" lon="150.8530023"/><trkpt lat="-34.6627267" lon="150.8529894"/><trkpt lat="-34.6627041" lon="150.8529309"/><trkpt lat="-34.6627035" lon="150.8529086"/><trkpt lat="-34.6627058" lon="150.8528837"/><trkpt lat="-34.6627053" lon="150.8528537"/><trkpt lat="-34.6626931" lon="150.8528083"/><trkpt lat="-34.6626278" lon="150.8527023"/><trkpt lat="-34.6625569" lon="150.8525896"/><trkpt lat="-34.6624563" lon="150.8524458"/><trkpt lat="-34.6624402" lon="150.8523855"/><trkpt lat="-34.6625054" lon="150.852381"/><trkpt lat="-34.6625925" lon="150.8523662"/><trkpt lat="-34.6627232" lon="150.8523135"/><trkpt lat="-34.6627322" lon="150.8523073"/><trkpt lat="-34.6629264" lon="150.8521724"/><trkpt lat="-34.6630751" lon="150.8520312"/><trkpt lat="-34.6632148" lon="150.8518857"/><trkpt lat="-34.6632909" lon="150.8518725"/><trkpt lat="-34.6634397" lon="150.8519981"/><trkpt lat="-34.6636301" lon="150.8522341"/><trkpt lat="-34.6638822" lon="150.8526046"/><trkpt lat="-34.6640563" lon="150.8528692"/><trkpt lat="-34.6643465" lon="150.8532904"/><trkpt lat="-34.6645424" lon="150.8535881"/><trkpt lat="-34.6647093" lon="150.853749"/><trkpt lat="-34.6648961" lon="150.8538593"/><trkpt lat="-34.6656887" lon="150.8543202"/><trkpt lat="-34.6661022" lon="150.8545495"/><trkpt lat="-34.6663978" lon="150.8546796"/><trkpt lat="-34.6665992" lon="150.8547656"/><trkpt lat="-34.6667932" lon="150.8547722"/><trkpt lat="-34.6670071" lon="150.8547294"/><trkpt lat="-34.6670088" lon="150.8547463"/><trkpt lat="-34.6670117" lon="150.8547784"/><trkpt lat="-34.6669964" lon="150.8547928"/><trkpt lat="-34.6669827" lon="150.8548044"/><trkpt lat="-34.6669643" lon="150.8548169"/><trkpt lat="-34.6669465" lon="150.8548257"/><trkpt lat="-34.6669285" lon="150.8548324"/><trkpt lat="-34.6669041" lon="150.8548398"/><trkpt lat="-34.6668734" lon="150.8548479"/><trkpt lat="-34.6667293" lon="150.8548808"/><trkpt lat="-34.6667046" lon="150.85489"/><trkpt lat="-34.666675" lon="150.854902"/><trkpt lat="-34.666653" lon="150.8549137"/><trkpt lat="-34.6666276" lon="150.8549298"/><trkpt lat="-34.6665968" lon="150.854953"/><trkpt lat="-34.6665597" lon="150.8549847"/><trkpt lat="-34.6661246" lon="150.8553933"/><trkpt lat="-34.666084" lon="150.8554337"/><trkpt lat="-34.6660561" lon="150.8554635"/><trkpt lat="-34.6660342" lon="150.855494"/><trkpt lat="-34.6660149" lon="150.8555278"/><trkpt lat="-34.665999" lon="150.8555581"/><trkpt lat="-34.6659867" lon="150.855587"/><trkpt lat="-34.6659754" lon="150.8556211"/><trkpt lat="-34.6659677" lon="150.8556487"/><trkpt lat="-34.6659649" lon="150.8556699"/><trkpt lat="-34.6659638" lon="150.8556891"/><trkpt lat="-34.6659644" lon="150.8557124"/><trkpt lat="-34.6659666" lon="150.8557368"/><trkpt lat="-34.6659714" lon="150.8557609"/><trkpt lat="-34.6659777" lon="150.8557836"/><trkpt lat="-34.6659867" lon="150.8558075"/><trkpt lat="-34.665993" lon="150.8558206"/><trkpt lat="-34.6660107" lon="150.8558516"/><trkpt lat="-34.6664996" lon="150.8566432"/><trkpt lat="-34.6665283" lon="150.8566861"/><trkpt lat="-34.666557" lon="150.8567048"/><trkpt lat="-34.6666077" lon="150.8567155"/><trkpt lat="-34.6666803" lon="150.8567052"/><trkpt lat="-34.6673722" lon="150.8566068"/><trkpt lat="-34.6674695" lon="150.8566811"/><trkpt lat="-34.6675055" lon="150.8567319"/><trkpt lat="-34.6676268" lon="150.8569353"/><trkpt lat="-34.6676819" lon="150.8570292"/><trkpt lat="-34.6677349" lon="150.8570882"/><trkpt lat="-34.6678033" lon="150.8571016"/><trkpt lat="-34.6679091" lon="150.8570882"/><trkpt lat="-34.6680283" lon="150.8570721"/><trkpt lat="-34.6680967" lon="150.8570694"/><trkpt lat="-34.6681761" lon="150.8570587"/><trkpt lat="-34.6682224" lon="150.8570131"/><trkpt lat="-34.6682558" lon="150.8569374"/><trkpt lat="-34.6682999" lon="150.8568945"/><trkpt lat="-34.6683772" lon="150.8568114"/><trkpt lat="-34.6684254" lon="150.8567073"/><trkpt lat="-34.6684698" lon="150.85657"/><trkpt lat="-34.6685108" lon="150.8564632"/><trkpt lat="-34.6685631" lon="150.856383"/><trkpt lat="-34.6686127" lon="150.856329"/><trkpt lat="-34.668657" lon="150.8562486"/><trkpt lat="-34.6686617" lon="150.8561864"/><trkpt lat="-34.6686663" lon="150.8561402"/><trkpt lat="-34.6686733" lon="150.8561046"/><trkpt lat="-34.6686814" lon="150.85608"/><trkpt lat="-34.6686874" lon="150.8560652"/><trkpt lat="-34.6687034" lon="150.856036"/><trkpt lat="-34.6687165" lon="150.8560161"/><trkpt lat="-34.6687338" lon="150.8559908"/><trkpt lat="-34.66875" lon="150.8559696"/><trkpt lat="-34.668777" lon="150.8559426"/><trkpt lat="-34.6687972" lon="150.8559264"/><trkpt lat="-34.6688173" lon="150.8559148"/><trkpt lat="-34.6688669" lon="150.8558941"/><trkpt lat="-34.6689397" lon="150.8558833"/><trkpt lat="-34.669061" lon="150.8558806"/><trkpt lat="-34.6691978" lon="150.8558726"/><trkpt lat="-34.6692748" lon="150.855852"/><trkpt lat="-34.6693037" lon="150.856004"/><trkpt lat="-34.6693588" lon="150.8560121"/><trkpt lat="-34.6694286" lon="150.8560377"/><trkpt lat="-34.6694424" lon="150.8559968"/><trkpt lat="-34.6694954" lon="150.8558922"/><trkpt lat="-34.6695549" lon="150.8558117"/><trkpt lat="-34.6696299" lon="150.8557447"/><trkpt lat="-34.6697225" lon="150.855707"/><trkpt lat="-34.6698271" lon="150.8556995"/><trkpt lat="-34.6698725" lon="150.8556962"/><trkpt lat="-34.6699563" lon="150.8557123"/><trkpt lat="-34.6701615" lon="150.8557579"/><trkpt lat="-34.6704041" lon="150.8558411"/><trkpt lat="-34.6706006" lon="150.8559673"/><trkpt lat="-34.671046" lon="150.8563641"/><trkpt lat="-34.6712203" lon="150.8565224"/><trkpt lat="-34.6712283" lon="150.8565317"/><trkpt lat="-34.6713262" lon="150.8566457"/><trkpt lat="-34.6713804" lon="150.8567194"/><trkpt lat="-34.6714387" lon="150.8567986"/><trkpt lat="-34.6715333" lon="150.8569786"/><trkpt lat="-34.6716029" lon="150.8571294"/><trkpt lat="-34.6716382" lon="150.8572284"/><trkpt lat="-34.6716477" lon="150.8573498"/><trkpt lat="-34.6716287" lon="150.8574806"/><trkpt lat="-34.6715908" lon="150.8575762"/><trkpt lat="-34.6715263" lon="150.8576907"/><trkpt lat="-34.6714651" lon="150.8577906"/><trkpt lat="-34.6714135" lon="150.8578861"/><trkpt lat="-34.6713334" lon="150.8580221"/><trkpt lat="-34.6712628" lon="150.8581444"/><trkpt lat="-34.6711313" lon="150.8583923"/><trkpt lat="-34.6711599" lon="150.8584704"/><trkpt lat="-34.6712083" lon="150.8585986"/><trkpt lat="-34.6712018" lon="150.8586303"/><trkpt lat="-34.6713052" lon="150.8589204"/><trkpt lat="-34.6713682" lon="150.8590972"/><trkpt lat="-34.6714124" lon="150.8591075"/><trkpt lat="-34.6714481" lon="150.8591148"/><trkpt lat="-34.6714476" lon="150.8592017"/><trkpt lat="-34.6714481" lon="150.8592597"/><trkpt lat="-34.6714366" lon="150.8593224"/><trkpt lat="-34.6713709" lon="150.8596378"/><trkpt lat="-34.6713554" lon="150.8597022"/><trkpt lat="-34.6713378" lon="150.8597451"/><trkpt lat="-34.6713091" lon="150.8597934"/><trkpt lat="-34.6712782" lon="150.8598363"/><trkpt lat="-34.6706778" lon="150.8605321"/><trkpt lat="-34.6706381" lon="150.8605723"/><trkpt lat="-34.6705984" lon="150.8605965"/><trkpt lat="-34.6705498" lon="150.8606287"/><trkpt lat="-34.6705057" lon="150.8606635"/><trkpt lat="-34.6704598" lon="150.8607"/><trkpt lat="-34.6704245" lon="150.8607402"/><trkpt lat="-34.6703624" lon="150.8608191"/><trkpt lat="-34.6702896" lon="150.8609559"/><trkpt lat="-34.670272" lon="150.8609934"/><trkpt lat="-34.6702547" lon="150.8610353"/><trkpt lat="-34.6702389" lon="150.8610846"/><trkpt lat="-34.6702216" lon="150.861164"/><trkpt lat="-34.6702061" lon="150.8612043"/><trkpt lat="-34.670186" lon="150.8612375"/><trkpt lat="-34.6701551" lon="150.8613153"/><trkpt lat="-34.6701664" lon="150.861395"/><trkpt lat="-34.6701724" lon="150.8614373"/><trkpt lat="-34.6701756" lon="150.8615096"/><trkpt lat="-34.6701906" lon="150.8615718"/><trkpt lat="-34.6702143" lon="150.861632"/><trkpt lat="-34.6702483" lon="150.8617181"/><trkpt lat="-34.6704292" lon="150.861974"/><trkpt lat="-34.6704585" lon="150.8620111"/><trkpt lat="-34.6705067" lon="150.8621503"/><trkpt lat="-34.6705624" lon="150.8622405"/><trkpt lat="-34.6706317" lon="150.8623227"/><trkpt lat="-34.6706311" lon="150.86238"/><trkpt lat="-34.6706359" lon="150.862414"/><trkpt lat="-34.6706413" lon="150.8624388"/><trkpt lat="-34.6706751" lon="150.8625743"/><trkpt lat="-34.6706908" lon="150.8626229"/><trkpt lat="-34.6707089" lon="150.8626639"/><trkpt lat="-34.6707261" lon="150.8626975"/><trkpt lat="-34.6707443" lon="150.8627289"/><trkpt lat="-34.6707581" lon="150.8627491"/><trkpt lat="-34.6707789" lon="150.8627709"/><trkpt lat="-34.6708847" lon="150.8628525"/><trkpt lat="-34.6709104" lon="150.8628716"/><trkpt lat="-34.6709314" lon="150.8628926"/><trkpt lat="-34.6709517" lon="150.8629212"/><trkpt lat="-34.6709854" lon="150.8629681"/><trkpt lat="-34.6710084" lon="150.8629972"/><trkpt lat="-34.6710433" lon="150.8630314"/><trkpt lat="-34.6712842" lon="150.8631929"/><trkpt lat="-34.6713506" lon="150.8632236"/><trkpt lat="-34.6714188" lon="150.8632441"/><trkpt lat="-34.6714629" lon="150.8632573"/><trkpt lat="-34.6715115" lon="150.8632778"/><trkpt lat="-34.6715562" lon="150.8633055"/><trkpt lat="-34.6715915" lon="150.8633319"/><trkpt lat="-34.6716314" lon="150.8633646"/><trkpt lat="-34.6716615" lon="150.863386"/><trkpt lat="-34.6716883" lon="150.8633974"/><trkpt lat="-34.6717152" lon="150.8634024"/><trkpt lat="-34.6716512" lon="150.8632836"/><trkpt lat="-34.6716922" lon="150.863122"/><trkpt lat="-34.6717173" lon="150.8629646"/><trkpt lat="-34.6717446" lon="150.8629336"/><trkpt lat="-34.67165" lon="150.8627694"/><trkpt lat="-34.671726" lon="150.8627433"/><trkpt lat="-34.6717844" lon="150.8627312"/><trkpt lat="-34.6718888" lon="150.8627741"/><trkpt lat="-34.6719302" lon="150.8627788"/><trkpt lat="-34.6719985" lon="150.8627788"/><trkpt lat="-34.6720484" lon="150.8627592"/><trkpt lat="-34.6720731" lon="150.8627325"/><trkpt lat="-34.672155" lon="150.862518"/><trkpt lat="-34.672194" lon="150.8623301"/><trkpt lat="-34.6722172" lon="150.8621527"/><trkpt lat="-34.6722336" lon="150.8620905"/><trkpt lat="-34.6722646" lon="150.8620166"/><trkpt lat="-34.6723561" lon="150.861879"/><trkpt lat="-34.6724251" lon="150.8617785"/><trkpt lat="-34.6724452" lon="150.8617281"/><trkpt lat="-34.672446" lon="150.8616535"/><trkpt lat="-34.6723913" lon="150.8613578"/><trkpt lat="-34.672377" lon="150.8612804"/><trkpt lat="-34.6723764" lon="150.8611801"/><trkpt lat="-34.672396" lon="150.8610583"/><trkpt lat="-34.6724288" lon="150.8609476"/><trkpt lat="-34.6724476" lon="150.8608747"/><trkpt lat="-34.6724478" lon="150.8607962"/><trkpt lat="-34.6724354" lon="150.8607021"/><trkpt lat="-34.672409" lon="150.8605922"/><trkpt lat="-34.6723772" lon="150.8604996"/><trkpt lat="-34.6723412" lon="150.8604182"/><trkpt lat="-34.6722941" lon="150.8603099"/><trkpt lat="-34.6722179" lon="150.8601096"/><trkpt lat="-34.6721705" lon="150.8599548"/><trkpt lat="-34.672145" lon="150.859852"/><trkpt lat="-34.6721308" lon="150.859702"/><trkpt lat="-34.6721125" lon="150.859574"/><trkpt lat="-34.6720855" lon="150.859487"/><trkpt lat="-34.6720447" lon="150.8593736"/><trkpt lat="-34.6720074" lon="150.859232"/><trkpt lat="-34.6719782" lon="150.859087"/><trkpt lat="-34.6719743" lon="150.8590337"/><trkpt lat="-34.6719726" lon="150.85901"/><trkpt lat="-34.6719721" lon="150.8589561"/><trkpt lat="-34.6719707" lon="150.858909"/><trkpt lat="-34.6719741" lon="150.8588304"/><trkpt lat="-34.6719809" lon="150.8587765"/><trkpt lat="-34.6719901" lon="150.8587136"/><trkpt lat="-34.6720032" lon="150.8586707"/><trkpt lat="-34.6720264" lon="150.8585947"/><trkpt lat="-34.6720639" lon="150.858517"/><trkpt lat="-34.6720905" lon="150.8584771"/><trkpt lat="-34.6721389" lon="150.8584043"/><trkpt lat="-34.67245" lon="150.858061"/><trkpt lat="-34.6725206" lon="150.8579939"/><trkpt lat="-34.672664" lon="150.8579358"/><trkpt lat="-34.6730907" lon="150.8582745"/><trkpt lat="-34.6731311" lon="150.8582986"/><trkpt lat="-34.6731671" lon="150.8583091"/><trkpt lat="-34.6732072" lon="150.8583155"/><trkpt lat="-34.6732416" lon="150.8583106"/><trkpt lat="-34.673263" lon="150.8583012"/><trkpt lat="-34.6732879" lon="150.8582903"/><trkpt lat="-34.6733465" lon="150.8583128"/><trkpt lat="-34.6736554" lon="150.8583338"/><trkpt lat="-34.6737972" lon="150.8584315"/><trkpt lat="-34.6738521" lon="150.8584693"/><trkpt lat="-34.6739842" lon="150.8585575"/><trkpt lat="-34.6741618" lon="150.8586643"/><trkpt lat="-34.6742998" lon="150.8587024"/><trkpt lat="-34.6744652" lon="150.8586808"/><trkpt lat="-34.6746156" lon="150.8585989"/><trkpt lat="-34.6749407" lon="150.8583816"/><trkpt lat="-34.6750915" lon="150.8582042"/><trkpt lat="-34.67521" lon="150.8579337"/><trkpt lat="-34.6752753" lon="150.8576734"/><trkpt lat="-34.6753672" lon="150.8574527"/><trkpt lat="-34.6754023" lon="150.8572723"/><trkpt lat="-34.6754049" lon="150.8570511"/><trkpt lat="-34.6754235" lon="150.8568242"/><trkpt lat="-34.6753472" lon="150.8564919"/><trkpt lat="-34.6753134" lon="150.8563742"/><trkpt lat="-34.6751887" lon="150.8559399"/><trkpt lat="-34.675096" lon="150.85579"/><trkpt lat="-34.6750377" lon="150.855609"/><trkpt lat="-34.674992" lon="150.8553595"/><trkpt lat="-34.6750086" lon="150.8552111"/><trkpt lat="-34.6750046" lon="150.8551642"/><trkpt lat="-34.6749915" lon="150.8551396"/><trkpt lat="-34.6749284" lon="150.8550734"/><trkpt lat="-34.6749696" lon="150.854982"/><trkpt lat="-34.6751413" lon="150.8550203"/><trkpt lat="-34.6757645" lon="150.8547842"/><trkpt lat="-34.6770262" lon="150.8543444"/><trkpt lat="-34.6774058" lon="150.8539877"/><trkpt lat="-34.6774527" lon="150.8539894"/><trkpt lat="-34.6774876" lon="150.8539814"/><trkpt lat="-34.6775782" lon="150.8540238"/><trkpt lat="-34.6775951" lon="150.8540318"/><trkpt lat="-34.6775944" lon="150.8540437"/><trkpt lat="-34.6775949" lon="150.8540542"/><trkpt lat="-34.6775973" lon="150.8540671"/><trkpt lat="-34.6776021" lon="150.8540809"/><trkpt lat="-34.6776157" lon="150.8541131"/><trkpt lat="-34.6776555" lon="150.8541971"/><trkpt lat="-34.6776822" lon="150.8542461"/><trkpt lat="-34.6777092" lon="150.8543016"/><trkpt lat="-34.6777462" lon="150.8543824"/><trkpt lat="-34.6777561" lon="150.8544058"/><trkpt lat="-34.6777626" lon="150.8544241"/><trkpt lat="-34.6777649" lon="150.8544409"/><trkpt lat="-34.6777711" lon="150.85455"/><trkpt lat="-34.6778157" lon="150.8547744"/><trkpt lat="-34.6778204" lon="150.8550042"/><trkpt lat="-34.6778176" lon="150.8552193"/><trkpt lat="-34.6778556" lon="150.8553361"/><trkpt lat="-34.6779125" lon="150.8554186"/><trkpt lat="-34.6779717" lon="150.8554608"/><trkpt lat="-34.6780568" lon="150.8554789"/><trkpt lat="-34.6782334" lon="150.8554239"/><trkpt lat="-34.6784078" lon="150.8553546"/><trkpt lat="-34.6785961" lon="150.8552212"/><trkpt lat="-34.6788055" lon="150.855078"/><trkpt lat="-34.6789351" lon="150.854992"/><trkpt lat="-34.6790496" lon="150.8548923"/><trkpt lat="-34.6791854" lon="150.8547271"/><trkpt lat="-34.6792307" lon="150.8545831"/><trkpt lat="-34.6793319" lon="150.854439"/><trkpt lat="-34.6794099" lon="150.8543366"/><trkpt lat="-34.6794382" lon="150.8542855"/><trkpt lat="-34.6795057" lon="150.8542781"/><trkpt lat="-34.6795708" lon="150.8542659"/><trkpt lat="-34.6796118" lon="150.8542166"/><trkpt lat="-34.6796245" lon="150.8541995"/><trkpt lat="-34.6796496" lon="150.8542123"/><trkpt lat="-34.6796323" lon="150.8542807"/><trkpt lat="-34.6796146" lon="150.8543584"/><trkpt lat="-34.6796265" lon="150.8543836"/><trkpt lat="-34.6796422" lon="150.8543802"/><trkpt lat="-34.6796769" lon="150.8543474"/><trkpt lat="-34.6796907" lon="150.8543678"/><trkpt lat="-34.6816714" lon="150.8552349"/><trkpt lat="-34.6824743" lon="150.8566618"/><trkpt lat="-34.6826245" lon="150.8567963"/><trkpt lat="-34.6826797" lon="150.8568476"/><trkpt lat="-34.6827006" lon="150.856867"/><trkpt lat="-34.6827544" lon="150.8568382"/><trkpt lat="-34.6827738" lon="150.8567675"/><trkpt lat="-34.6827415" lon="150.8567361"/><trkpt lat="-34.6827609" lon="150.8567125"/><trkpt lat="-34.6827802" lon="150.8567256"/><trkpt lat="-34.6828384" lon="150.8567544"/><trkpt lat="-34.6828007" lon="150.8569621"/><trkpt lat="-34.6827612" lon="150.8569989"/><trkpt lat="-34.6827479" lon="150.8572215"/><trkpt lat="-34.682706" lon="150.85731"/><trkpt lat="-34.6826399" lon="150.8573717"/><trkpt lat="-34.6826222" lon="150.8575085"/><trkpt lat="-34.6826421" lon="150.8575621"/><trkpt lat="-34.6825737" lon="150.8577687"/><trkpt lat="-34.6825781" lon="150.8579484"/><trkpt lat="-34.6826266" lon="150.858112"/><trkpt lat="-34.682706" lon="150.8582085"/><trkpt lat="-34.6827588" lon="150.8589979"/><trkpt lat="-34.6829987" lon="150.8591559"/><trkpt lat="-34.6831362" lon="150.8588275"/><trkpt lat="-34.6832566" lon="150.8586131"/><trkpt lat="-34.6833587" lon="150.8585085"/><trkpt lat="-34.6834172" lon="150.8582041"/><trkpt lat="-34.6834535" lon="150.8581276"/><trkpt lat="-34.6837028" lon="150.858074"/><trkpt lat="-34.6840424" lon="150.8580337"/><trkpt lat="-34.6843391" lon="150.8579747"/><trkpt lat="-34.6847813" lon="150.8578849"/><trkpt lat="-34.6853437" lon="150.8578286"/><trkpt lat="-34.6855775" lon="150.8577803"/><trkpt lat="-34.685787" lon="150.8577065"/><trkpt lat="-34.6863627" lon="150.8574893"/><trkpt lat="-34.6865579" lon="150.8573806"/><trkpt lat="-34.6867913" lon="150.8572366"/><trkpt lat="-34.6869101" lon="150.8581729"/><trkpt lat="-34.686734" lon="150.858198"/><trkpt lat="-34.6867448" lon="150.8582939"/><trkpt lat="-34.6867456" lon="150.858415"/><trkpt lat="-34.6867181" lon="150.8585098"/><trkpt lat="-34.6866793" lon="150.8585554"/><trkpt lat="-34.686645" lon="150.8586004"/><trkpt lat="-34.6866764" lon="150.8586478"/><trkpt lat="-34.6866948" lon="150.8586867"/><trkpt lat="-34.6866915" lon="150.8587423"/><trkpt lat="-34.6867621" lon="150.8588252"/><trkpt lat="-34.6868385" lon="150.8589332"/><trkpt lat="-34.6868608" lon="150.8590057"/><trkpt lat="-34.686965" lon="150.859053"/><trkpt lat="-34.6869644" lon="150.859175"/><trkpt lat="-34.6869833" lon="150.8593134"/><trkpt lat="-34.6870074" lon="150.8594186"/><trkpt lat="-34.6870707" lon="150.8594972"/><trkpt lat="-34.6871287" lon="150.8598062"/><trkpt lat="-34.6874054" lon="150.8600089"/><trkpt lat="-34.687592" lon="150.8600129"/><trkpt lat="-34.6878852" lon="150.8599724"/><trkpt lat="-34.6880619" lon="150.8598873"/><trkpt lat="-34.688167" lon="150.8598207"/><trkpt lat="-34.6882218" lon="150.85979"/><trkpt lat="-34.6884418" lon="150.8597171"/><trkpt lat="-34.6886084" lon="150.8596563"/><trkpt lat="-34.6887684" lon="150.8596401"/><trkpt lat="-34.688805" lon="150.8595266"/><trkpt lat="-34.6887984" lon="150.8593442"/><trkpt lat="-34.6888217" lon="150.859097"/><trkpt lat="-34.6888617" lon="150.8588497"/><trkpt lat="-34.6889283" lon="150.8586268"/><trkpt lat="-34.689005" lon="150.8582945"/><trkpt lat="-34.6890117" lon="150.8579176"/><trkpt lat="-34.6891283" lon="150.8576014"/><trkpt lat="-34.689165" lon="150.8572448"/><trkpt lat="-34.6892349" lon="150.8570665"/><trkpt lat="-34.6892483" lon="150.8568679"/><trkpt lat="-34.6892616" lon="150.8564139"/><trkpt lat="-34.6892883" lon="150.8562356"/><trkpt lat="-34.6893649" lon="150.8559559"/><trkpt lat="-34.6893582" lon="150.8557371"/><trkpt lat="-34.6893437" lon="150.8556915"/><trkpt lat="-34.6892683" lon="150.8554534"/><trkpt lat="-34.6892221" lon="150.8553544"/><trkpt lat="-34.6891849" lon="150.8552751"/><trkpt lat="-34.6891771" lon="150.8550949"/><trkpt lat="-34.689172" lon="150.8547932"/><trkpt lat="-34.6891787" lon="150.8547199"/><trkpt lat="-34.689213" lon="150.8546232"/><trkpt lat="-34.6892336" lon="150.8542097"/><trkpt lat="-34.6892306" lon="150.8541266"/><trkpt lat="-34.6892849" lon="150.85412"/><trkpt lat="-34.6893316" lon="150.8540794"/><trkpt lat="-34.6893149" lon="150.8540227"/><trkpt lat="-34.6898468" lon="150.8536288"/><trkpt lat="-34.6902624" lon="150.8533207"/><trkpt lat="-34.690789" lon="150.8532148"/><trkpt lat="-34.6913471" lon="150.8531907"/><trkpt lat="-34.6920795" lon="150.8534411"/><trkpt lat="-34.6923583" lon="150.8535551"/><trkpt lat="-34.6924219" lon="150.8535811"/><trkpt lat="-34.6924487" lon="150.8535816"/><trkpt lat="-34.6925365" lon="150.8536037"/><trkpt lat="-34.6925729" lon="150.8535189"/><trkpt lat="-34.6925699" lon="150.8534416"/><trkpt lat="-34.6925335" lon="150.85332"/><trkpt lat="-34.6925335" lon="150.85325"/><trkpt lat="-34.6926018" lon="150.8531869"/><trkpt lat="-34.6926419" lon="150.8532561"/><trkpt lat="-34.6927116" lon="150.8532739"/><trkpt lat="-34.6927656" lon="150.8533006"/><trkpt lat="-34.6927395" lon="150.8533642"/><trkpt lat="-34.6927483" lon="150.8534495"/><trkpt lat="-34.6928092" lon="150.8536847"/><trkpt lat="-34.6928705" lon="150.8538164"/><trkpt lat="-34.6929009" lon="150.853892"/><trkpt lat="-34.6929409" lon="150.8539522"/><trkpt lat="-34.6929843" lon="150.8539898"/><trkpt lat="-34.6929849" lon="150.8540277"/><trkpt lat="-34.6929684" lon="150.8540686"/><trkpt lat="-34.6929498" lon="150.8541136"/><trkpt lat="-34.6929226" lon="150.854145"/><trkpt lat="-34.6928939" lon="150.8541831"/><trkpt lat="-34.6928815" lon="150.8542337"/><trkpt lat="-34.6928823" lon="150.8542871"/><trkpt lat="-34.6929207" lon="150.8543834"/><trkpt lat="-34.6929035" lon="150.854431"/><trkpt lat="-34.6928975" lon="150.8545651"/><trkpt lat="-34.6929045" lon="150.8546442"/><trkpt lat="-34.6929319" lon="150.854708"/><trkpt lat="-34.6929313" lon="150.8548078"/><trkpt lat="-34.6929583" lon="150.8548641"/><trkpt lat="-34.6929556" lon="150.8550537"/><trkpt lat="-34.6929784" lon="150.855162"/><trkpt lat="-34.6930304" lon="150.855373"/><trkpt lat="-34.6930673" lon="150.855664"/><trkpt lat="-34.6931113" lon="150.8559771"/><trkpt lat="-34.6931952" lon="150.8563058"/><trkpt lat="-34.6932424" lon="150.8564376"/><trkpt lat="-34.6934331" lon="150.8568935"/><trkpt lat="-34.6934778" lon="150.8570068"/><trkpt lat="-34.6935241" lon="150.8570561"/><trkpt lat="-34.6935971" lon="150.8570898"/><trkpt lat="-34.6936809" lon="150.8571071"/><trkpt lat="-34.6938028" lon="150.8570971"/><trkpt lat="-34.6939893" lon="150.8570472"/><trkpt lat="-34.6942724" lon="150.8569934"/><trkpt lat="-34.6945178" lon="150.8569897"/><trkpt lat="-34.6946629" lon="150.8570039"/><trkpt lat="-34.694748" lon="150.8569971"/><trkpt lat="-34.6947793" lon="150.8569748"/><trkpt lat="-34.6948818" lon="150.8569261"/><trkpt lat="-34.6949521" lon="150.8568789"/><trkpt lat="-34.6949692" lon="150.856789"/><trkpt lat="-34.6950101" lon="150.8567426"/><trkpt lat="-34.6950288" lon="150.8567176"/><trkpt lat="-34.6950966" lon="150.8566548"/><trkpt lat="-34.6951083" lon="150.8565635"/><trkpt lat="-34.6951112" lon="150.8565389"/><trkpt lat="-34.6951117" lon="150.8565352"/><trkpt lat="-34.6951149" lon="150.8565173"/><trkpt lat="-34.6953343" lon="150.8562786"/><trkpt lat="-34.695485" lon="150.8560344"/><trkpt lat="-34.6958067" lon="150.8556709"/><trkpt lat="-34.6959102" lon="150.8554503"/><trkpt lat="-34.6959745" lon="150.855178"/><trkpt lat="-34.6960786" lon="150.8549036"/><trkpt lat="-34.6960996" lon="150.8548559"/><trkpt lat="-34.6961536" lon="150.854781"/><trkpt lat="-34.6961781" lon="150.8547175"/><trkpt lat="-34.6961775" lon="150.8546364"/><trkpt lat="-34.6961924" lon="150.8545868"/><trkpt lat="-34.696396" lon="150.85416"/><trkpt lat="-34.69642" lon="150.8540551"/><trkpt lat="-34.6964169" lon="150.8539671"/><trkpt lat="-34.6964383" lon="150.8538866"/><trkpt lat="-34.6965438" lon="150.8536487"/><trkpt lat="-34.6966226" lon="150.85339"/><trkpt lat="-34.6966859" lon="150.8531735"/><trkpt lat="-34.6966898" lon="150.8530731"/><trkpt lat="-34.6967504" lon="150.8529036"/><trkpt lat="-34.6968504" lon="150.8527157"/><trkpt lat="-34.696914" lon="150.852561"/><trkpt lat="-34.6969445" lon="150.8524181"/><trkpt lat="-34.6969792" lon="150.8522842"/><trkpt lat="-34.6971072" lon="150.8519246"/><trkpt lat="-34.6971303" lon="150.8518707"/><trkpt lat="-34.6971416" lon="150.851823"/><trkpt lat="-34.6971342" lon="150.8517529"/><trkpt lat="-34.6971165" lon="150.8516853"/><trkpt lat="-34.6971024" lon="150.8516307"/><trkpt lat="-34.6971142" lon="150.8516049"/><trkpt lat="-34.6971379" lon="150.8516002"/><trkpt lat="-34.6972169" lon="150.851673"/><trkpt lat="-34.6972669" lon="150.8517057"/><trkpt lat="-34.6973351" lon="150.8517283"/><trkpt lat="-34.6974138" lon="150.8517209"/><trkpt lat="-34.6974835" lon="150.8517099"/><trkpt lat="-34.6975895" lon="150.8516841"/><trkpt lat="-34.6976834" lon="150.8516951"/><trkpt lat="-34.6978652" lon="150.8517725"/><trkpt lat="-34.6980651" lon="150.8518572"/><trkpt lat="-34.6982802" lon="150.8519751"/><trkpt lat="-34.6983393" lon="150.8520164"/><trkpt lat="-34.6983703" lon="150.8520979"/><trkpt lat="-34.6983921" lon="150.8521153"/><trkpt lat="-34.6983886" lon="150.8521309"/><trkpt lat="-34.6984131" lon="150.8521391"/><trkpt lat="-34.6984476" lon="150.8521292"/><trkpt lat="-34.6984844" lon="150.8521833"/><trkpt lat="-34.698596" lon="150.8523664"/><trkpt lat="-34.6988951" lon="150.8525978"/><trkpt lat="-34.6989857" lon="150.8526883"/><trkpt lat="-34.6990405" lon="150.8528189"/><trkpt lat="-34.6991579" lon="150.8532086"/><trkpt lat="-34.6994393" lon="150.8539158"/><trkpt lat="-34.699562" lon="150.8541983"/><trkpt lat="-34.6996865" lon="150.854591"/><trkpt lat="-34.6998035" lon="150.8550692"/><trkpt lat="-34.6998816" lon="150.8552271"/><trkpt lat="-34.699963" lon="150.8553048"/><trkpt lat="-34.7002954" lon="150.8550918"/><trkpt lat="-34.7007247" lon="150.8544705"/><trkpt lat="-34.7009616" lon="150.8542533"/><trkpt lat="-34.7010375" lon="150.8541594"/><trkpt lat="-34.7010882" lon="150.8540466"/><trkpt lat="-34.7011981" lon="150.8538136"/><trkpt lat="-34.7015864" lon="150.8529939"/><trkpt lat="-34.7016389" lon="150.8529133"/><trkpt lat="-34.701699" lon="150.8528188"/><trkpt lat="-34.702373" lon="150.8520236"/><trkpt lat="-34.7024396" lon="150.8519511"/><trkpt lat="-34.7024818" lon="150.8518804"/><trkpt lat="-34.7025614" lon="150.8517382"/><trkpt lat="-34.7026511" lon="150.8515211"/><trkpt lat="-34.7027656" lon="150.8511507"/><trkpt lat="-34.7028782" lon="150.8508347"/><trkpt lat="-34.702909" lon="150.8507085"/><trkpt lat="-34.7029059" lon="150.8506364"/><trkpt lat="-34.7028739" lon="150.8503623"/><trkpt lat="-34.702878" lon="150.8501943"/><trkpt lat="-34.7028595" lon="150.8500892"/><trkpt lat="-34.7028841" lon="150.8499291"/><trkpt lat="-34.7028902" lon="150.8498171"/><trkpt lat="-34.7029148" lon="150.8497253"/><trkpt lat="-34.7029894" lon="150.8496687"/><trkpt lat="-34.7030719" lon="150.8496004"/><trkpt lat="-34.7031008" lon="150.8495599"/><trkpt lat="-34.7031745" lon="150.8495009"/><trkpt lat="-34.7032025" lon="150.8494852"/><trkpt lat="-34.7032491" lon="150.8494734"/><trkpt lat="-34.7032772" lon="150.8494617"/><trkpt lat="-34.7033011" lon="150.8494595"/><trkpt lat="-34.7033556" lon="150.8494519"/><trkpt lat="-34.7033895" lon="150.8494542"/><trkpt lat="-34.7034641" lon="150.849499"/><trkpt lat="-34.7035237" lon="150.8495279"/><trkpt lat="-34.7036308" lon="150.8495449"/><trkpt lat="-34.7037188" lon="150.8495843"/><trkpt lat="-34.7038778" lon="150.8496453"/><trkpt lat="-34.7039905" lon="150.8496719"/><trkpt lat="-34.7040932" lon="150.849736"/><trkpt lat="-34.7041405" lon="150.8497552"/><trkpt lat="-34.7042055" lon="150.8497776"/><trkpt lat="-34.7042985" lon="150.849863"/><trkpt lat="-34.7043722" lon="150.8499462"/><trkpt lat="-34.7045722" lon="150.8500658"/><trkpt lat="-34.7047065" lon="150.8501746"/><trkpt lat="-34.7048653" lon="150.8503166"/><trkpt lat="-34.7049916" lon="150.8504756"/><trkpt lat="-34.7050864" lon="150.8506154"/><trkpt lat="-34.7052338" lon="150.8508907"/><trkpt lat="-34.7053294" lon="150.8510999"/><trkpt lat="-34.7053864" lon="150.8512013"/><trkpt lat="-34.7054794" lon="150.8513454"/><trkpt lat="-34.7056154" lon="150.8515279"/><trkpt lat="-34.70569" lon="150.8516261"/><trkpt lat="-34.705792" lon="150.8517546"/><trkpt lat="-34.7058185" lon="150.8517963"/><trkpt lat="-34.7058339" lon="150.8518193"/><trkpt lat="-34.7058602" lon="150.8518342"/><trkpt lat="-34.7059401" lon="150.8517798"/><trkpt lat="-34.7060269" lon="150.8516688"/><trkpt lat="-34.7060717" lon="150.8515503"/><trkpt lat="-34.7060831" lon="150.8514329"/><trkpt lat="-34.7060919" lon="150.8513038"/><trkpt lat="-34.7060936" lon="150.8511319"/><trkpt lat="-34.7060971" lon="150.8510348"/><trkpt lat="-34.7061094" lon="150.8508854"/><trkpt lat="-34.7060954" lon="150.8507104"/><trkpt lat="-34.7060743" lon="150.8505247"/><trkpt lat="-34.706084" lon="150.8503874"/><trkpt lat="-34.706121" lon="150.8502571"/><trkpt lat="-34.7061619" lon="150.8501527"/><trkpt lat="-34.7063834" lon="150.8496958"/><trkpt lat="-34.7064491" lon="150.8495776"/><trkpt lat="-34.7065307" lon="150.8494553"/><trkpt lat="-34.7065785" lon="150.8493928"/><trkpt lat="-34.7066558" lon="150.8493236"/><trkpt lat="-34.7068025" lon="150.8491823"/><trkpt lat="-34.7069256" lon="150.8491053"/><trkpt lat="-34.7073256" lon="150.8489127"/><trkpt lat="-34.707363" lon="150.8488778"/><trkpt lat="-34.7073934" lon="150.8488596"/><trkpt lat="-34.707436" lon="150.8488576"/><trkpt lat="-34.7074856" lon="150.8488516"/><trkpt lat="-34.7075408" lon="150.8488472"/><trkpt lat="-34.7076279" lon="150.8488485"/><trkpt lat="-34.7076794" lon="150.8488617"/><trkpt lat="-34.7077284" lon="150.8488918"/><trkpt lat="-34.7077785" lon="150.848934"/><trkpt lat="-34.707822" lon="150.8489866"/><trkpt lat="-34.7078813" lon="150.8490749"/><trkpt lat="-34.7079106" lon="150.8491033"/><trkpt lat="-34.7079471" lon="150.8491104"/><trkpt lat="-34.707968" lon="150.8491254"/><trkpt lat="-34.7080025" lon="150.8491512"/><trkpt lat="-34.7080379" lon="150.8491752"/><trkpt lat="-34.7080612" lon="150.8491835"/><trkpt lat="-34.7081078" lon="150.8491738"/><trkpt lat="-34.7081542" lon="150.8491636"/><trkpt lat="-34.7081973" lon="150.8491525"/><trkpt lat="-34.7082377" lon="150.8491426"/><trkpt lat="-34.7082841" lon="150.849139"/><trkpt lat="-34.7083342" lon="150.8491452"/><trkpt lat="-34.708407" lon="150.8491642"/><trkpt lat="-34.7085438" lon="150.8492709"/><trkpt lat="-34.7088105" lon="150.849478"/><trkpt lat="-34.7089114" lon="150.8495495"/><trkpt lat="-34.708965" lon="150.8495922"/><trkpt lat="-34.7090185" lon="150.8496071"/><trkpt lat="-34.709065" lon="150.8496562"/><trkpt lat="-34.7091194" lon="150.8497171"/><trkpt lat="-34.709229" lon="150.8498067"/><trkpt lat="-34.7092826" lon="150.8498622"/><trkpt lat="-34.7093256" lon="150.8499198"/><trkpt lat="-34.7093452" lon="150.8499451"/><trkpt lat="-34.7093712" lon="150.8499632"/><trkpt lat="-34.7094241" lon="150.8499854"/><trkpt lat="-34.7097837" lon="150.8500955"/><trkpt lat="-34.7098914" lon="150.850113"/><trkpt lat="-34.7099748" lon="150.8501109"/><trkpt lat="-34.7100511" lon="150.8501049"/><trkpt lat="-34.7101168" lon="150.8500707"/><trkpt lat="-34.7101786" lon="150.850038"/><trkpt lat="-34.7102531" lon="150.8500255"/><trkpt lat="-34.7103266" lon="150.8500447"/><trkpt lat="-34.7104573" lon="150.8501109"/><trkpt lat="-34.7105231" lon="150.8501578"/><trkpt lat="-34.7106117" lon="150.8501995"/><trkpt lat="-34.7107153" lon="150.8502219"/><trkpt lat="-34.7107907" lon="150.8502453"/><trkpt lat="-34.7108469" lon="150.8502325"/><trkpt lat="-34.7109302" lon="150.8502187"/><trkpt lat="-34.7110065" lon="150.8502048"/><trkpt lat="-34.7110785" lon="150.8502069"/><trkpt lat="-34.7111416" lon="150.8502357"/><trkpt lat="-34.7112109" lon="150.8502688"/><trkpt lat="-34.7112838" lon="150.8503478"/><trkpt lat="-34.7113496" lon="150.8504428"/><trkpt lat="-34.7113759" lon="150.8505335"/><trkpt lat="-34.7114285" lon="150.8506424"/><trkpt lat="-34.7115022" lon="150.850716"/><trkpt lat="-34.7115882" lon="150.8507491"/><trkpt lat="-34.7117005" lon="150.8508057"/><trkpt lat="-34.7117988" lon="150.8508601"/><trkpt lat="-34.7119225" lon="150.850858"/><trkpt lat="-34.7120058" lon="150.8508772"/><trkpt lat="-34.7121348" lon="150.8509327"/><trkpt lat="-34.7122979" lon="150.8509914"/><trkpt lat="-34.712419" lon="150.8510255"/><trkpt lat="-34.7126015" lon="150.8510735"/><trkpt lat="-34.7127463" lon="150.8511322"/><trkpt lat="-34.7128428" lon="150.8511397"/><trkpt lat="-34.7129472" lon="150.8511216"/><trkpt lat="-34.7130305" lon="150.8511056"/><trkpt lat="-34.7131288" lon="150.8511141"/><trkpt lat="-34.7132288" lon="150.8511322"/><trkpt lat="-34.7132867" lon="150.8511643"/><trkpt lat="-34.713363" lon="150.8511813"/><trkpt lat="-34.7134534" lon="150.8512326"/><trkpt lat="-34.7134955" lon="150.8512432"/><trkpt lat="-34.7135323" lon="150.8512443"/><trkpt lat="-34.7136806" lon="150.8512219"/><trkpt lat="-34.713749" lon="150.8512112"/><trkpt lat="-34.7138718" lon="150.8511781"/><trkpt lat="-34.7139824" lon="150.851129"/><trkpt lat="-34.7140455" lon="150.8510864"/><trkpt lat="-34.7141052" lon="150.8510309"/><trkpt lat="-34.7141464" lon="150.8509967"/><trkpt lat="-34.71434" lon="150.8508154"/><trkpt lat="-34.7144824" lon="150.8506715"/><trkpt lat="-34.7145493" lon="150.8505657"/><trkpt lat="-34.7148267" lon="150.849582"/><trkpt lat="-34.7148519" lon="150.8494384"/><trkpt lat="-34.7148635" lon="150.8492734"/><trkpt lat="-34.7148574" lon="150.8490395"/><trkpt lat="-34.7148685" lon="150.8486893"/><trkpt lat="-34.7148643" lon="150.8485563"/><trkpt lat="-34.7148872" lon="150.8484709"/><trkpt lat="-34.714938" lon="150.8483779"/><trkpt lat="-34.7152182" lon="150.8479071"/><trkpt lat="-34.7152481" lon="150.8478341"/><trkpt lat="-34.7152691" lon="150.847726"/><trkpt lat="-34.7152856" lon="150.8476196"/><trkpt lat="-34.7153501" lon="150.8473423"/><trkpt lat="-34.7154141" lon="150.8470383"/><trkpt lat="-34.715446" lon="150.8469603"/><trkpt lat="-34.7154903" lon="150.846906"/><trkpt lat="-34.7155219" lon="150.8468416"/><trkpt lat="-34.715619" lon="150.8467583"/><trkpt lat="-34.7157177" lon="150.8466472"/><trkpt lat="-34.7158029" lon="150.8465217"/><trkpt lat="-34.7158618" lon="150.8464511"/><trkpt lat="-34.716049" lon="150.8463387"/><trkpt lat="-34.7161172" lon="150.8462948"/><trkpt lat="-34.7161682" lon="150.846246"/><trkpt lat="-34.7162079" lon="150.8461979"/><trkpt lat="-34.7162384" lon="150.8461392"/><trkpt lat="-34.716256" lon="150.8460815"/><trkpt lat="-34.7162941" lon="150.8460212"/><trkpt lat="-34.7163159" lon="150.845978"/><trkpt lat="-34.7163401" lon="150.8458283"/><trkpt lat="-34.7163528" lon="150.845773"/><trkpt lat="-34.7163568" lon="150.8456786"/><trkpt lat="-34.7163788" lon="150.8456442"/><trkpt lat="-34.7164024" lon="150.8456333"/><trkpt lat="-34.7164796" lon="150.8456273"/><trkpt lat="-34.7166403" lon="150.8456186"/><trkpt lat="-34.7168198" lon="150.8456211"/><trkpt lat="-34.7169552" lon="150.8456284"/><trkpt lat="-34.7170374" lon="150.8456272"/><trkpt lat="-34.7170915" lon="150.8456259"/><trkpt lat="-34.7171808" lon="150.8456381"/><trkpt lat="-34.7173232" lon="150.8456808"/><trkpt lat="-34.7174976" lon="150.8457626"/><trkpt lat="-34.7177353" lon="150.8458553"/><trkpt lat="-34.7178586" lon="150.8459114"/><trkpt lat="-34.7179769" lon="150.845976"/><trkpt lat="-34.7180682" lon="150.8460041"/><trkpt lat="-34.7181705" lon="150.8460212"/><trkpt lat="-34.7182437" lon="150.846037"/><trkpt lat="-34.7182998" lon="150.8460566"/><trkpt lat="-34.718364" lon="150.8461261"/><trkpt lat="-34.7184292" lon="150.8462213"/><trkpt lat="-34.7185084" lon="150.8463103"/><trkpt lat="-34.7185746" lon="150.8463603"/><trkpt lat="-34.7186738" lon="150.8464042"/><trkpt lat="-34.7188754" lon="150.8464055"/><trkpt lat="-34.7189476" lon="150.8463988"/><trkpt lat="-34.7190035" lon="150.8463858"/><trkpt lat="-34.7190504" lon="150.8463839"/><trkpt lat="-34.7191341" lon="150.8463994"/><trkpt lat="-34.7192825" lon="150.8464699"/><trkpt lat="-34.719415" lon="150.846575"/><trkpt lat="-34.719576" lon="150.8466716"/><trkpt lat="-34.7197281" lon="150.8467929"/><trkpt lat="-34.7198052" lon="150.8468323"/><trkpt lat="-34.7198568" lon="150.8468423"/><trkpt lat="-34.7199149" lon="150.8468285"/><trkpt lat="-34.7199957" lon="150.846784"/><trkpt lat="-34.7200737" lon="150.8467235"/><trkpt lat="-34.7201196" lon="150.8466777"/><trkpt lat="-34.7201507" lon="150.8466569"/><trkpt lat="-34.7201854" lon="150.8466516"/><trkpt lat="-34.7202239" lon="150.8466717"/><trkpt lat="-34.7203273" lon="150.8467726"/><trkpt lat="-34.7203915" lon="150.8468593"/><trkpt lat="-34.7204747" lon="150.8469544"/><trkpt lat="-34.7205699" lon="150.8471045"/><trkpt lat="-34.7207812" lon="150.8473669"/><trkpt lat="-34.7208397" lon="150.8474107"/><trkpt lat="-34.7208574" lon="150.8474165"/><trkpt lat="-34.7208842" lon="150.8474175"/><trkpt lat="-34.7209065" lon="150.8474113"/><trkpt lat="-34.7209681" lon="150.8474002"/><trkpt lat="-34.7210676" lon="150.8473622"/><trkpt lat="-34.721121" lon="150.8473371"/><trkpt lat="-34.7211721" lon="150.8473051"/><trkpt lat="-34.7212054" lon="150.8472612"/><trkpt lat="-34.7212556" lon="150.8469531"/><trkpt lat="-34.7212765" lon="150.8468553"/><trkpt lat="-34.7212895" lon="150.8467321"/><trkpt lat="-34.7212986" lon="150.8466204"/><trkpt lat="-34.7213167" lon="150.8465469"/><trkpt lat="-34.7213386" lon="150.8464868"/><trkpt lat="-34.7213802" lon="150.8464157"/><trkpt lat="-34.7214173" lon="150.8463706"/><trkpt lat="-34.7214452" lon="150.8463385"/><trkpt lat="-34.7214945" lon="150.8463124"/><trkpt lat="-34.7215461" lon="150.8463138"/><trkpt lat="-34.7216048" lon="150.8463154"/><trkpt lat="-34.7216749" lon="150.8463298"/><trkpt lat="-34.7217371" lon="150.8463554"/><trkpt lat="-34.7218424" lon="150.8464042"/><trkpt lat="-34.7219296" lon="150.846436"/><trkpt lat="-34.722068" lon="150.8464811"/><trkpt lat="-34.7221617" lon="150.8465022"/><trkpt lat="-34.722215" lon="150.846504"/><trkpt lat="-34.7222565" lon="150.8464969"/><trkpt lat="-34.7223129" lon="150.8464702"/><trkpt lat="-34.722466" lon="150.8463396"/><trkpt lat="-34.7225212" lon="150.8462932"/><trkpt lat="-34.7226134" lon="150.8462213"/><trkpt lat="-34.7227187" lon="150.8461407"/><trkpt lat="-34.7227963" lon="150.8461065"/><trkpt lat="-34.7228563" lon="150.8460644"/><trkpt lat="-34.7229073" lon="150.8460083"/><trkpt lat="-34.7229324" lon="150.8459495"/><trkpt lat="-34.7229438" lon="150.845722"/><trkpt lat="-34.7229469" lon="150.8456244"/><trkpt lat="-34.7229706" lon="150.8455022"/><trkpt lat="-34.722979" lon="150.8454196"/><trkpt lat="-34.7229867" lon="150.8453401"/><trkpt lat="-34.7230532" lon="150.8451457"/><trkpt lat="-34.7231463" lon="150.844915"/><trkpt lat="-34.7231916" lon="150.8448337"/><trkpt lat="-34.7232367" lon="150.8447437"/><trkpt lat="-34.723266" lon="150.844648"/><trkpt lat="-34.7232714" lon="150.8445491"/><trkpt lat="-34.7232947" lon="150.8444344"/><trkpt lat="-34.723332" lon="150.8443392"/><trkpt lat="-34.7233758" lon="150.8442759"/><trkpt lat="-34.7235514" lon="150.8441045"/><trkpt lat="-34.7236782" lon="150.843976"/><trkpt lat="-34.7237561" lon="150.8438626"/><trkpt lat="-34.7237844" lon="150.8437743"/><trkpt lat="-34.7238274" lon="150.8436936"/><trkpt lat="-34.7238877" lon="150.8436367"/><trkpt lat="-34.7239305" lon="150.8436166"/><trkpt lat="-34.723977" lon="150.8436241"/><trkpt lat="-34.7240312" lon="150.8436448"/><trkpt lat="-34.7240994" lon="150.843679"/><trkpt lat="-34.7242387" lon="150.8437741"/><trkpt lat="-34.724332" lon="150.8438058"/><trkpt lat="-34.7244282" lon="150.8438632"/><trkpt lat="-34.7244804" lon="150.8439046"/><trkpt lat="-34.7245245" lon="150.8439486"/><trkpt lat="-34.7245696" lon="150.8439974"/><trkpt lat="-34.7246508" lon="150.8441303"/><trkpt lat="-34.7247049" lon="150.8442096"/><trkpt lat="-34.7247995" lon="150.8443055"/><trkpt lat="-34.7249182" lon="150.8442876"/><trkpt lat="-34.7250017" lon="150.844256"/><trkpt lat="-34.7251004" lon="150.8442478"/><trkpt lat="-34.7252688" lon="150.8442241"/><trkpt lat="-34.7253763" lon="150.8442056"/><trkpt lat="-34.7255501" lon="150.8441534"/><trkpt lat="-34.7256903" lon="150.8440553"/><trkpt lat="-34.7258349" lon="150.8439571"/><trkpt lat="-34.7259382" lon="150.8438876"/><trkpt lat="-34.7260278" lon="150.843817"/><trkpt lat="-34.7260458" lon="150.8437321"/><trkpt lat="-34.7260566" lon="150.8436144"/><trkpt lat="-34.7260702" lon="150.8435045"/><trkpt lat="-34.7260898" lon="150.8433048"/><trkpt lat="-34.7260727" lon="150.8431646"/><trkpt lat="-34.7260619" lon="150.8429727"/><trkpt lat="-34.7260515" lon="150.842753"/><trkpt lat="-34.7260374" lon="150.8425359"/><trkpt lat="-34.7260094" lon="150.8423627"/><trkpt lat="-34.7259843" lon="150.842137"/><trkpt lat="-34.7259793" lon="150.8419162"/><trkpt lat="-34.7259843" lon="150.8417956"/><trkpt lat="-34.7260374" lon="150.841699"/><trkpt lat="-34.7261116" lon="150.8416185"/><trkpt lat="-34.7262159" lon="150.8415368"/><trkpt lat="-34.7263011" lon="150.8414673"/><trkpt lat="-34.7263555" lon="150.8414046"/><trkpt lat="-34.7264619" lon="150.8413036"/><trkpt lat="-34.7265307" lon="150.8412294"/><trkpt lat="-34.7265668" lon="150.8411952"/><trkpt lat="-34.7266701" lon="150.8411135"/><trkpt lat="-34.7268456" lon="150.8409403"/><trkpt lat="-34.7269559" lon="150.8407963"/><trkpt lat="-34.7270531" lon="150.8406389"/><trkpt lat="-34.7271504" lon="150.8404364"/><trkpt lat="-34.7272215" lon="150.8402961"/><trkpt lat="-34.7272892" lon="150.840158"/><trkpt lat="-34.7273561" lon="150.8400338"/><trkpt lat="-34.7274333" lon="150.839868"/><trkpt lat="-34.7274674" lon="150.8396624"/><trkpt lat="-34.7275805" lon="150.8394971"/><trkpt lat="-34.7276446" lon="150.8393922"/><trkpt lat="-34.7277489" lon="150.8392885"/><trkpt lat="-34.7278742" lon="150.8391507"/><trkpt lat="-34.7279474" lon="150.8390677"/><trkpt lat="-34.7280677" lon="150.8390372"/><trkpt lat="-34.728178" lon="150.8390165"/><trkpt lat="-34.7282492" lon="150.839047"/><trkpt lat="-34.7283445" lon="150.8391287"/><trkpt lat="-34.7284347" lon="150.8391738"/><trkpt lat="-34.7284932" lon="150.8391227"/><trkpt lat="-34.7285383" lon="150.8390875"/><trkpt lat="-34.7285526" lon="150.8390112"/><trkpt lat="-34.7285574" lon="150.8388864"/><trkpt lat="-34.7285521" lon="150.8387069"/><trkpt lat="-34.7285189" lon="150.8385893"/><trkpt lat="-34.7284534" lon="150.8383718"/><trkpt lat="-34.7284224" lon="150.8382457"/><trkpt lat="-34.7284031" lon="150.8381499"/><trkpt lat="-34.7284351" lon="150.8380493"/><trkpt lat="-34.7284615" lon="150.8379594"/><trkpt lat="-34.7285183" lon="150.8378193"/><trkpt lat="-34.728492" lon="150.8377019"/><trkpt lat="-34.7284875" lon="150.8376336"/><trkpt lat="-34.7285323" lon="150.8375961"/></trkseg></trk></gpx>