<?xml version="1.0" encoding="UTF-8" standalone="no" ?>

<gpx xmlns="http://www.topografix.com/GPX/1/1" xmlns:xsi="http://www.w3.org/2001/XMLSchema-instance" xsi:schemaLocation="http://www.topografix.com/GPX/1/1 http://www.topografix.com/GPX/1/1/gpx.xsd" version="1.1" creator="waymarkedtrails.org"><metadata><name>Manly to Spit Bridge Walk</name><copyright author="OpenStreetMap and Contributors"><license>https://www.openstreetmap.org/copyright</license></copyright><link href="https://hiking.waymarkedtrails.org/#route?id=12317119&amp;type=relation"><text>WaymarkedTrails</text></link><time>2025-10-17T20:37:26.396Z</time></metadata><trk><trkseg><trkpt lat="-33.799965" lon="151.2840008"/><trkpt lat="-33.7999546" lon="151.2839639"/><trkpt lat="-33.7998803" lon="151.2837321"/><trkpt lat="-33.7997567" lon="151.2837892"/><trkpt lat="-33.7996683" lon="151.2838058"/><trkpt lat="-33.7996102" lon="151.2838515"/><trkpt lat="-33.7995171" lon="151.2838158"/><trkpt lat="-33.7994541" lon="151.2838255"/><trkpt lat="-33.7993929" lon="151.2838528"/><trkpt lat="-33.7993638" lon="151.2838529"/><trkpt lat="-33.7993325" lon="151.2838529"/><trkpt lat="-33.7992932" lon="151.2838543"/><trkpt lat="-33.7991392" lon="151.2838157"/><trkpt lat="-33.7989098" lon="151.2832841"/><trkpt lat="-33.7988151" lon="151.2830361"/><trkpt lat="-33.7987451" lon="151.2828044"/><trkpt lat="-33.7986738" lon="151.2825745"/><trkpt lat="-33.7986631" lon="151.2825153"/><trkpt lat="-33.7986328" lon="151.2823488"/><trkpt lat="-33.7986203" lon="151.2819966"/><trkpt lat="-33.7986207" lon="151.2817758"/><trkpt lat="-33.7984219" lon="151.2816116"/><trkpt lat="-33.798371" lon="151.281569"/><trkpt lat="-33.798362" lon="151.2815561"/><trkpt lat="-33.7983509" lon="151.2815403"/><trkpt lat="-33.7983292" lon="151.2814673"/><trkpt lat="-33.798305" lon="151.2813258"/><trkpt lat="-33.798295" lon="151.2812554"/><trkpt lat="-33.7982951" lon="151.2812081"/><trkpt lat="-33.7983042" lon="151.2811638"/><trkpt lat="-33.798327" lon="151.2811036"/><trkpt lat="-33.798403" lon="151.2809805"/><trkpt lat="-33.7984166" lon="151.2809717"/><trkpt lat="-33.798545" lon="151.2808987"/><trkpt lat="-33.7986726" lon="151.2808258"/><trkpt lat="-33.7989063" lon="151.2807077"/><trkpt lat="-33.7989832" lon="151.2806542"/><trkpt lat="-33.7990387" lon="151.2806194"/><trkpt lat="-33.7990785" lon="151.2806231"/><trkpt lat="-33.7991958" lon="151.2805865"/><trkpt lat="-33.7994684" lon="151.2805016"/><trkpt lat="-33.7995045" lon="151.2804864"/><trkpt lat="-33.7996001" lon="151.2804311"/><trkpt lat="-33.7996234" lon="151.2804052"/><trkpt lat="-33.7996301" lon="151.2803641"/><trkpt lat="-33.7996317" lon="151.2802778"/><trkpt lat="-33.7996228" lon="151.2801426"/><trkpt lat="-33.7995769" lon="151.2798552"/><trkpt lat="-33.7995546" lon="151.2795917"/><trkpt lat="-33.7995323" lon="151.279509"/><trkpt lat="-33.7994133" lon="151.2793027"/><trkpt lat="-33.7993254" lon="151.2791214"/><trkpt lat="-33.7992522" lon="151.278919"/><trkpt lat="-33.7992141" lon="151.2788231"/><trkpt lat="-33.7991985" lon="151.2787575"/><trkpt lat="-33.7991955" lon="151.2786998"/><trkpt lat="-33.7992006" lon="151.2785615"/><trkpt lat="-33.7991946" lon="151.2784411"/><trkpt lat="-33.7991954" lon="151.2783149"/><trkpt lat="-33.7992123" lon="151.2781993"/><trkpt lat="-33.7992517" lon="151.2779761"/><trkpt lat="-33.7993267" lon="151.2777742"/><trkpt lat="-33.7994584" lon="151.2775662"/><trkpt lat="-33.7996284" lon="151.2773893"/><trkpt lat="-33.799827" lon="151.2772428"/><trkpt lat="-33.7998864" lon="151.2771559"/><trkpt lat="-33.799937" lon="151.2770584"/><trkpt lat="-33.8000424" lon="151.2767539"/><trkpt lat="-33.8000811" lon="151.2766511"/><trkpt lat="-33.8001472" lon="151.2765045"/><trkpt lat="-33.8002163" lon="151.2763633"/><trkpt lat="-33.8002479" lon="151.2762359"/><trkpt lat="-33.8002771" lon="151.2761267"/><trkpt lat="-33.8002908" lon="151.2760544"/><trkpt lat="-33.8002932" lon="151.2759969"/><trkpt lat="-33.8002856" lon="151.2759611"/><trkpt lat="-33.8002677" lon="151.275927"/><trkpt lat="-33.80024" lon="151.2758876"/><trkpt lat="-33.8002028" lon="151.2758598"/><trkpt lat="-33.8001112" lon="151.2758155"/><trkpt lat="-33.8000196" lon="151.2757837"/><trkpt lat="-33.7999689" lon="151.2757603"/><trkpt lat="-33.7999137" lon="151.2757193"/><trkpt lat="-33.7998021" lon="151.2756215"/><trkpt lat="-33.7997489" lon="151.2755523"/><trkpt lat="-33.7997198" lon="151.2754574"/><trkpt lat="-33.7996704" lon="151.2751073"/><trkpt lat="-33.7996548" lon="151.2750122"/><trkpt lat="-33.799645" lon="151.2749505"/><trkpt lat="-33.7996468" lon="151.2749104"/><trkpt lat="-33.7996709" lon="151.27477"/><trkpt lat="-33.799705" lon="151.2746247"/><trkpt lat="-33.799729" lon="151.2745459"/><trkpt lat="-33.7997684" lon="151.2744446"/><trkpt lat="-33.799819" lon="151.2743413"/><trkpt lat="-33.7999932" lon="151.2740649"/><trkpt lat="-33.8002007" lon="151.2738065"/><trkpt lat="-33.8002408" lon="151.273746"/><trkpt lat="-33.8002764" lon="151.2736706"/><trkpt lat="-33.8003046" lon="151.2735647"/><trkpt lat="-33.8003355" lon="151.2734796"/><trkpt lat="-33.8003664" lon="151.273434"/><trkpt lat="-33.8004087" lon="151.2733955"/><trkpt lat="-33.8004613" lon="151.2733394"/><trkpt lat="-33.8005024" lon="151.2732828"/><trkpt lat="-33.8005497" lon="151.2732039"/><trkpt lat="-33.8005778" lon="151.2731188"/><trkpt lat="-33.8005778" lon="151.2730541"/><trkpt lat="-33.8005573" lon="151.2729916"/><trkpt lat="-33.8004961" lon="151.272843"/><trkpt lat="-33.800433" lon="151.2726341"/><trkpt lat="-33.8003711" lon="151.2724666"/><trkpt lat="-33.8002924" lon="151.2722907"/><trkpt lat="-33.8002499" lon="151.2722"/><trkpt lat="-33.8002277" lon="151.2721718"/><trkpt lat="-33.8002028" lon="151.2721525"/><trkpt lat="-33.8000779" lon="151.2720883"/><trkpt lat="-33.7999561" lon="151.2720156"/><trkpt lat="-33.799851" lon="151.2719477"/><trkpt lat="-33.7996621" lon="151.2718059"/><trkpt lat="-33.7994626" lon="151.2716763"/><trkpt lat="-33.7993625" lon="151.2716348"/><trkpt lat="-33.7991746" lon="151.2715259"/><trkpt lat="-33.7991075" lon="151.2714736"/><trkpt lat="-33.7990695" lon="151.2714096"/><trkpt lat="-33.7990331" lon="151.2713733"/><trkpt lat="-33.7990026" lon="151.2713597"/><trkpt lat="-33.7989253" lon="151.2713501"/><trkpt lat="-33.7988796" lon="151.2713116"/><trkpt lat="-33.7988118" lon="151.2712249"/><trkpt lat="-33.798763" lon="151.2711281"/><trkpt lat="-33.7987092" lon="151.2709974"/><trkpt lat="-33.7986002" lon="151.270754"/><trkpt lat="-33.7985798" lon="151.2706368"/><trkpt lat="-33.7985712" lon="151.270531"/><trkpt lat="-33.7985757" lon="151.2704273"/><trkpt lat="-33.7985749" lon="151.2703048"/><trkpt lat="-33.7985699" lon="151.2702418"/><trkpt lat="-33.7985469" lon="151.2701758"/><trkpt lat="-33.7985075" lon="151.2701216"/><trkpt lat="-33.7984551" lon="151.2700734"/><trkpt lat="-33.798376" lon="151.2700467"/><trkpt lat="-33.7983271" lon="151.2700463"/><trkpt lat="-33.7982751" lon="151.2700428"/><trkpt lat="-33.7982424" lon="151.2700351"/><trkpt lat="-33.7981744" lon="151.2700087"/><trkpt lat="-33.7981283" lon="151.2699597"/><trkpt lat="-33.7980581" lon="151.2698184"/><trkpt lat="-33.7979223" lon="151.2695415"/><trkpt lat="-33.7979116" lon="151.2695047"/><trkpt lat="-33.7979038" lon="151.2694562"/><trkpt lat="-33.797896" lon="151.2694062"/><trkpt lat="-33.7978771" lon="151.2693657"/><trkpt lat="-33.7978399" lon="151.2693296"/><trkpt lat="-33.7977944" lon="151.2692944"/><trkpt lat="-33.7977467" lon="151.269254"/><trkpt lat="-33.7977117" lon="151.2692059"/><trkpt lat="-33.7975944" lon="151.2689972"/><trkpt lat="-33.7975597" lon="151.2689558"/><trkpt lat="-33.7975291" lon="151.2689174"/><trkpt lat="-33.7974979" lon="151.2688631"/><trkpt lat="-33.7974658" lon="151.2687958"/><trkpt lat="-33.7974397" lon="151.2687272"/><trkpt lat="-33.7974095" lon="151.2686525"/><trkpt lat="-33.7973702" lon="151.2685893"/><trkpt lat="-33.7973169" lon="151.2685269"/><trkpt lat="-33.7972682" lon="151.2684927"/><trkpt lat="-33.797207" lon="151.2683911"/><trkpt lat="-33.7971238" lon="151.2678366"/><trkpt lat="-33.79714" lon="151.2677217"/><trkpt lat="-33.7971569" lon="151.2677132"/><trkpt lat="-33.7975122" lon="151.2676371"/><trkpt lat="-33.7975479" lon="151.2676236"/><trkpt lat="-33.7975717" lon="151.2675927"/><trkpt lat="-33.7975879" lon="151.2675649"/><trkpt lat="-33.7975991" lon="151.267525"/><trkpt lat="-33.7974391" lon="151.2663123"/><trkpt lat="-33.7976206" lon="151.2662798"/><trkpt lat="-33.7976747" lon="151.2662806"/><trkpt lat="-33.7977244" lon="151.2662728"/><trkpt lat="-33.7977703" lon="151.2662464"/><trkpt lat="-33.7978031" lon="151.2661969"/><trkpt lat="-33.7977991" lon="151.2661325"/><trkpt lat="-33.7977861" lon="151.2660642"/><trkpt lat="-33.7978212" lon="151.2660307"/><trkpt lat="-33.7978538" lon="151.2659817"/><trkpt lat="-33.7978851" lon="151.2659534"/><trkpt lat="-33.79792" lon="151.2659604"/><trkpt lat="-33.7979609" lon="151.2659871"/><trkpt lat="-33.7979877" lon="151.2660332"/><trkpt lat="-33.7980091" lon="151.2660772"/><trkpt lat="-33.7980369" lon="151.2660889"/><trkpt lat="-33.7980901" lon="151.2660686"/><trkpt lat="-33.7981369" lon="151.266036"/><trkpt lat="-33.7981933" lon="151.2659804"/><trkpt lat="-33.7983227" lon="151.2658307"/><trkpt lat="-33.7984383" lon="151.2657175"/><trkpt lat="-33.7985431" lon="151.2656213"/><trkpt lat="-33.7986442" lon="151.2655494"/><trkpt lat="-33.7988527" lon="151.2654249"/><trkpt lat="-33.7989989" lon="151.2653553"/><trkpt lat="-33.7991337" lon="151.2653012"/><trkpt lat="-33.7991522" lon="151.2652937"/><trkpt lat="-33.799325" lon="151.2652471"/><trkpt lat="-33.7994476" lon="151.2652453"/><trkpt lat="-33.7994755" lon="151.2652449"/><trkpt lat="-33.7995314" lon="151.2652441"/><trkpt lat="-33.7996687" lon="151.2652378"/><trkpt lat="-33.7997817" lon="151.2652381"/><trkpt lat="-33.7998408" lon="151.2652551"/><trkpt lat="-33.7999169" lon="151.2652666"/><trkpt lat="-33.7999987" lon="151.2652663"/><trkpt lat="-33.800041" lon="151.2653206"/><trkpt lat="-33.8000621" lon="151.265398"/><trkpt lat="-33.8000747" lon="151.2654779"/><trkpt lat="-33.8000756" lon="151.2655345"/><trkpt lat="-33.8000666" lon="151.2655698"/><trkpt lat="-33.8000549" lon="151.2656215"/><trkpt lat="-33.8000435" lon="151.2656437"/><trkpt lat="-33.8000084" lon="151.2656758"/><trkpt lat="-33.7999298" lon="151.265767"/><trkpt lat="-33.7996972" lon="151.2660795"/><trkpt lat="-33.7996336" lon="151.2662345"/><trkpt lat="-33.7995847" lon="151.2665088"/><trkpt lat="-33.7995714" lon="151.2667386"/><trkpt lat="-33.7995869" lon="151.2668291"/><trkpt lat="-33.799598" lon="151.2668935"/><trkpt lat="-33.7996558" lon="151.2670646"/><trkpt lat="-33.7997209" lon="151.2672498"/><trkpt lat="-33.7998127" lon="151.2675045"/><trkpt lat="-33.7999414" lon="151.2677617"/><trkpt lat="-33.7999875" lon="151.2678559"/><trkpt lat="-33.8002035" lon="151.2680799"/><trkpt lat="-33.8002632" lon="151.2681422"/><trkpt lat="-33.8003285" lon="151.2681991"/><trkpt lat="-33.8004252" lon="151.2682197"/><trkpt lat="-33.8007685" lon="151.2686683"/><trkpt lat="-33.8010213" lon="151.2688473"/><trkpt lat="-33.8011322" lon="151.2689258"/><trkpt lat="-33.8015237" lon="151.2690919"/><trkpt lat="-33.8017972" lon="151.2692867"/><trkpt lat="-33.8019391" lon="151.2692976"/><trkpt lat="-33.8019757" lon="151.2693204"/><trkpt lat="-33.8020309" lon="151.2693549"/><trkpt lat="-33.8023376" lon="151.2696296"/><trkpt lat="-33.8025063" lon="151.2697635"/><trkpt lat="-33.8028569" lon="151.269921"/><trkpt lat="-33.8030253" lon="151.2699655"/><trkpt lat="-33.8033076" lon="151.2699484"/><trkpt lat="-33.8033866" lon="151.2699472"/><trkpt lat="-33.8034163" lon="151.2699468"/><trkpt lat="-33.803477" lon="151.2699494"/><trkpt lat="-33.8036214" lon="151.2699558"/><trkpt lat="-33.8037615" lon="151.2699883"/><trkpt lat="-33.8038274" lon="151.2700638"/><trkpt lat="-33.8038991" lon="151.2701358"/><trkpt lat="-33.8042023" lon="151.2704036"/><trkpt lat="-33.8045589" lon="151.2706094"/><trkpt lat="-33.8046365" lon="151.2706803"/><trkpt lat="-33.8046983" lon="151.2707797"/><trkpt lat="-33.8047728" lon="151.2709428"/><trkpt lat="-33.8047859" lon="151.2709904"/><trkpt lat="-33.8047894" lon="151.2710438"/><trkpt lat="-33.8047839" lon="151.2711231"/><trkpt lat="-33.8047635" lon="151.271174"/><trkpt lat="-33.8047322" lon="151.2712362"/><trkpt lat="-33.8047282" lon="151.2713009"/><trkpt lat="-33.8047496" lon="151.2713574"/><trkpt lat="-33.8048144" lon="151.271442"/><trkpt lat="-33.8049479" lon="151.2715007"/><trkpt lat="-33.8051191" lon="151.2716209"/><trkpt lat="-33.8051515" lon="151.2716713"/><trkpt lat="-33.8052403" lon="151.2718097"/><trkpt lat="-33.8054543" lon="151.27205"/><trkpt lat="-33.8057212" lon="151.2721854"/><trkpt lat="-33.8058537" lon="151.272256"/><trkpt lat="-33.8060534" lon="151.2723504"/><trkpt lat="-33.8061361" lon="151.272404"/><trkpt lat="-33.8062388" lon="151.2724706"/><trkpt lat="-33.8063429" lon="151.272613"/><trkpt lat="-33.8063957" lon="151.2726852"/><trkpt lat="-33.8065098" lon="151.2729169"/><trkpt lat="-33.8066239" lon="151.2731572"/><trkpt lat="-33.8067138" lon="151.2732732"/><trkpt lat="-33.8068022" lon="151.2733461"/><trkpt lat="-33.8070162" lon="151.2734576"/><trkpt lat="-33.8070494" lon="151.2734655"/><trkpt lat="-33.8072598" lon="151.2735155"/><trkpt lat="-33.8073212" lon="151.2735441"/><trkpt lat="-33.8075225" lon="151.2736379"/><trkpt lat="-33.807627" lon="151.273705"/><trkpt lat="-33.807719" lon="151.2737641"/><trkpt lat="-33.8080193" lon="151.274187"/><trkpt lat="-33.8081048" lon="151.2741884"/><trkpt lat="-33.8082364" lon="151.2742428"/><trkpt lat="-33.80832" lon="151.2743273"/><trkpt lat="-33.8083464" lon="151.2744069"/><trkpt lat="-33.8083554" lon="151.2744673"/><trkpt lat="-33.8084119" lon="151.2744951"/><trkpt lat="-33.8084532" lon="151.274528"/><trkpt lat="-33.8084806" lon="151.2745958"/><trkpt lat="-33.808484" lon="151.2746313"/><trkpt lat="-33.8085126" lon="151.2746585"/><trkpt lat="-33.8085785" lon="151.2746735"/><trkpt lat="-33.8086545" lon="151.2746753"/><trkpt lat="-33.8087177" lon="151.2746624"/><trkpt lat="-33.8087722" lon="151.2746269"/><trkpt lat="-33.8088228" lon="151.2745791"/><trkpt lat="-33.8088435" lon="151.27453"/><trkpt lat="-33.8088333" lon="151.2744788"/><trkpt lat="-33.8088488" lon="151.2744251"/><trkpt lat="-33.8088868" lon="151.2743791"/><trkpt lat="-33.808923" lon="151.2743552"/><trkpt lat="-33.8089579" lon="151.2743368"/><trkpt lat="-33.80899" lon="151.2743062"/><trkpt lat="-33.8090154" lon="151.2742643"/><trkpt lat="-33.809039" lon="151.2742123"/><trkpt lat="-33.8090619" lon="151.2741554"/><trkpt lat="-33.8091004" lon="151.274144"/><trkpt lat="-33.8091289" lon="151.2741486"/><trkpt lat="-33.8091595" lon="151.2741617"/><trkpt lat="-33.8091833" lon="151.2741601"/><trkpt lat="-33.8092039" lon="151.2741316"/><trkpt lat="-33.8092334" lon="151.2740877"/><trkpt lat="-33.8092629" lon="151.2740558"/><trkpt lat="-33.8093127" lon="151.2740543"/><trkpt lat="-33.8093294" lon="151.2740377"/><trkpt lat="-33.8093188" lon="151.2739742"/><trkpt lat="-33.8092872" lon="151.2739311"/><trkpt lat="-33.8092631" lon="151.2738436"/><trkpt lat="-33.809275" lon="151.273799"/><trkpt lat="-33.8093087" lon="151.2737634"/><trkpt lat="-33.8093521" lon="151.2737525"/><trkpt lat="-33.8094125" lon="151.2737138"/><trkpt lat="-33.8094378" lon="151.2736834"/><trkpt lat="-33.8094739" lon="151.2736791"/><trkpt lat="-33.8095292" lon="151.2737015"/><trkpt lat="-33.8096178" lon="151.2736953"/><trkpt lat="-33.8097033" lon="151.2736643"/><trkpt lat="-33.8097425" lon="151.2736303"/><trkpt lat="-33.8097519" lon="151.2736088"/><trkpt lat="-33.8097092" lon="151.2735295"/><trkpt lat="-33.8097101" lon="151.2734935"/><trkpt lat="-33.8097311" lon="151.2734567"/><trkpt lat="-33.8097799" lon="151.2734372"/><trkpt lat="-33.8098204" lon="151.2733957"/><trkpt lat="-33.8098476" lon="151.2733649"/><trkpt lat="-33.8098803" lon="151.2733592"/><trkpt lat="-33.8099179" lon="151.273356"/><trkpt lat="-33.8099324" lon="151.2733358"/><trkpt lat="-33.8099568" lon="151.2733193"/><trkpt lat="-33.8100048" lon="151.2733371"/><trkpt lat="-33.8100715" lon="151.2733303"/><trkpt lat="-33.810144" lon="151.2733268"/><trkpt lat="-33.810291" lon="151.2733568"/><trkpt lat="-33.8104001" lon="151.2733844"/><trkpt lat="-33.8104836" lon="151.2734283"/><trkpt lat="-33.8105427" lon="151.2734147"/><trkpt lat="-33.8105612" lon="151.2733586"/><trkpt lat="-33.8105594" lon="151.2733078"/><trkpt lat="-33.8105415" lon="151.2732742"/><trkpt lat="-33.8104857" lon="151.2732051"/><trkpt lat="-33.8104419" lon="151.2731571"/><trkpt lat="-33.8104424" lon="151.2731267"/><trkpt lat="-33.8104668" lon="151.2730949"/><trkpt lat="-33.8104834" lon="151.2730633"/><trkpt lat="-33.8104727" lon="151.2730245"/><trkpt lat="-33.8104391" lon="151.2729671"/><trkpt lat="-33.8103991" lon="151.2728496"/><trkpt lat="-33.8103491" lon="151.2727604"/><trkpt lat="-33.8101527" lon="151.2724568"/><trkpt lat="-33.8101475" lon="151.2724503"/><trkpt lat="-33.8099163" lon="151.2721697"/><trkpt lat="-33.8097797" lon="151.2719779"/><trkpt lat="-33.8096907" lon="151.2718048"/><trkpt lat="-33.8096683" lon="151.2717712"/><trkpt lat="-33.8096328" lon="151.2717487"/><trkpt lat="-33.8096509" lon="151.2716855"/><trkpt lat="-33.8096219" lon="151.2716779"/><trkpt lat="-33.8095847" lon="151.271646"/><trkpt lat="-33.8095244" lon="151.2715704"/><trkpt lat="-33.8095153" lon="151.2715031"/><trkpt lat="-33.8095571" lon="151.2713188"/><trkpt lat="-33.809575" lon="151.2712683"/><trkpt lat="-33.8095309" lon="151.2711893"/><trkpt lat="-33.8094695" lon="151.2710458"/><trkpt lat="-33.8093728" lon="151.2708548"/><trkpt lat="-33.8093197" lon="151.2708292"/><trkpt lat="-33.8093006" lon="151.2707212"/><trkpt lat="-33.8092546" lon="151.2706593"/><trkpt lat="-33.8092284" lon="151.2705834"/><trkpt lat="-33.8091637" lon="151.2705383"/><trkpt lat="-33.8090686" lon="151.2704374"/><trkpt lat="-33.8090367" lon="151.2702936"/><trkpt lat="-33.809018" lon="151.2701522"/><trkpt lat="-33.809021" lon="151.270117"/><trkpt lat="-33.8090591" lon="151.2700666"/><trkpt lat="-33.8090688" lon="151.2700586"/><trkpt lat="-33.809097" lon="151.2700353"/><trkpt lat="-33.8091183" lon="151.2699523"/><trkpt lat="-33.80912" lon="151.2697927"/><trkpt lat="-33.8091485" lon="151.2696468"/><trkpt lat="-33.8091283" lon="151.2695342"/><trkpt lat="-33.8091057" lon="151.2694222"/><trkpt lat="-33.8091107" lon="151.2692893"/><trkpt lat="-33.8090928" lon="151.2691168"/><trkpt lat="-33.8091028" lon="151.2690803"/><trkpt lat="-33.8092199" lon="151.2689344"/><trkpt lat="-33.8093099" lon="151.2689033"/><trkpt lat="-33.8093608" lon="151.2688272"/><trkpt lat="-33.8094256" lon="151.2687803"/><trkpt lat="-33.8094371" lon="151.2686918"/><trkpt lat="-33.8094473" lon="151.268651"/><trkpt lat="-33.8095085" lon="151.2684989"/><trkpt lat="-33.8095244" lon="151.2682816"/><trkpt lat="-33.8095461" lon="151.2682199"/><trkpt lat="-33.8095999" lon="151.2681514"/><trkpt lat="-33.8097018" lon="151.2681199"/><trkpt lat="-33.8098001" lon="151.2680675"/><trkpt lat="-33.809886" lon="151.2679583"/><trkpt lat="-33.8098967" lon="151.2679235"/><trkpt lat="-33.8098795" lon="151.2678786"/><trkpt lat="-33.8098656" lon="151.2678305"/><trkpt lat="-33.8098741" lon="151.2678076"/><trkpt lat="-33.8098883" lon="151.2677968"/><trkpt lat="-33.8099796" lon="151.2677754"/><trkpt lat="-33.8100092" lon="151.2677576"/><trkpt lat="-33.810063" lon="151.267707"/><trkpt lat="-33.8101414" lon="151.2676767"/><trkpt lat="-33.8101748" lon="151.267657"/><trkpt lat="-33.8101139" lon="151.2675583"/><trkpt lat="-33.8101904" lon="151.267483"/><trkpt lat="-33.810311" lon="151.2673637"/><trkpt lat="-33.8105107" lon="151.2672263"/><trkpt lat="-33.8107674" lon="151.2670547"/><trkpt lat="-33.81096" lon="151.2668916"/><trkpt lat="-33.8111596" lon="151.2667972"/><trkpt lat="-33.8113237" lon="151.2666942"/><trkpt lat="-33.8115091" lon="151.2666599"/><trkpt lat="-33.8116303" lon="151.2665397"/><trkpt lat="-33.811723" lon="151.2664281"/><trkpt lat="-33.81183" lon="151.2663251"/><trkpt lat="-33.8119512" lon="151.2662393"/><trkpt lat="-33.8121224" lon="151.2661363"/><trkpt lat="-33.8122508" lon="151.2659818"/><trkpt lat="-33.8123988" lon="151.2658748"/><trkpt lat="-33.8124067" lon="151.2656811"/><trkpt lat="-33.8123398" lon="151.2654837"/><trkpt lat="-33.8123288" lon="151.2654149"/><trkpt lat="-33.8123966" lon="151.2653537"/><trkpt lat="-33.8123796" lon="151.2652385"/><trkpt lat="-33.8124005" lon="151.2650892"/><trkpt lat="-33.8124433" lon="151.2648231"/><trkpt lat="-33.8125503" lon="151.2645227"/><trkpt lat="-33.8125989" lon="151.2644177"/><trkpt lat="-33.8126223" lon="151.2642861"/><trkpt lat="-33.8126786" lon="151.2640249"/><trkpt lat="-33.8127999" lon="151.2638189"/><trkpt lat="-33.81285" lon="151.2637078"/><trkpt lat="-33.8128826" lon="151.2636288"/><trkpt lat="-33.8128957" lon="151.2635968"/><trkpt lat="-33.8129013" lon="151.2634471"/><trkpt lat="-33.8129147" lon="151.2632826"/><trkpt lat="-33.812965" lon="151.2631854"/><trkpt lat="-33.8129688" lon="151.2631121"/><trkpt lat="-33.812994" lon="151.2630426"/><trkpt lat="-33.8130482" lon="151.2629315"/><trkpt lat="-33.8130804" lon="151.2628203"/><trkpt lat="-33.8131707" lon="151.2627546"/><trkpt lat="-33.8133133" lon="151.2626344"/><trkpt lat="-33.8133717" lon="151.2625895"/><trkpt lat="-33.8134158" lon="151.2625521"/><trkpt lat="-33.8134772" lon="151.2625171"/><trkpt lat="-33.8135527" lon="151.2624573"/><trkpt lat="-33.8136131" lon="151.2623948"/><trkpt lat="-33.8137212" lon="151.2623221"/><trkpt lat="-33.8137497" lon="151.2622363"/><trkpt lat="-33.8137475" lon="151.2620888"/><trkpt lat="-33.8136841" lon="151.2619907"/><trkpt lat="-33.8135629" lon="151.2618791"/><trkpt lat="-33.8134583" lon="151.2617542"/><trkpt lat="-33.813406" lon="151.2616645"/><trkpt lat="-33.8133918" lon="151.26151"/><trkpt lat="-33.8133919" lon="151.2613621"/><trkpt lat="-33.8134632" lon="151.2612927"/><trkpt lat="-33.8135309" lon="151.2611767"/><trkpt lat="-33.8134881" lon="151.2609757"/><trkpt lat="-33.8134773" lon="151.2607976"/><trkpt lat="-33.8134773" lon="151.2606431"/><trkpt lat="-33.813349" lon="151.2605058"/><trkpt lat="-33.8132277" lon="151.2603856"/><trkpt lat="-33.8131031" lon="151.2603491"/><trkpt lat="-33.8130104" lon="151.2602826"/><trkpt lat="-33.8128213" lon="151.2602826"/><trkpt lat="-33.8126501" lon="151.2601968"/><trkpt lat="-33.8124718" lon="151.2601625"/><trkpt lat="-33.8123292" lon="151.2601539"/><trkpt lat="-33.8122222" lon="151.260214"/><trkpt lat="-33.8121295" lon="151.2601625"/><trkpt lat="-33.8120725" lon="151.2600509"/><trkpt lat="-33.8120439" lon="151.2599565"/><trkpt lat="-33.8120725" lon="151.2598277"/><trkpt lat="-33.8120439" lon="151.2597076"/><trkpt lat="-33.8119299" lon="151.2596346"/><trkpt lat="-33.8117801" lon="151.2595443"/><trkpt lat="-33.8116516" lon="151.2595029"/><trkpt lat="-33.811502" lon="151.2593913"/><trkpt lat="-33.8114165" lon="151.2593217"/><trkpt lat="-33.8113114" lon="151.2594604"/><trkpt lat="-33.8112167" lon="151.2594844"/><trkpt lat="-33.8112167" lon="151.2594771"/><trkpt lat="-33.8112167" lon="151.2593299"/><trkpt lat="-33.8112452" lon="151.2591926"/><trkpt lat="-33.811381" lon="151.259011"/><trkpt lat="-33.8114772" lon="151.2588335"/><trkpt lat="-33.8115058" lon="151.2586962"/><trkpt lat="-33.8114806" lon="151.2585231"/><trkpt lat="-33.811452" lon="151.2583772"/><trkpt lat="-33.8113522" lon="151.2582313"/><trkpt lat="-33.8113094" lon="151.2581111"/><trkpt lat="-33.8113451" lon="151.2578965"/><trkpt lat="-33.8113878" lon="151.2579824"/><trkpt lat="-33.8114164" lon="151.257888"/><trkpt lat="-33.8113807" lon="151.2577764"/><trkpt lat="-33.8113451" lon="151.2576133"/><trkpt lat="-33.8112809" lon="151.2574331"/><trkpt lat="-33.8112167" lon="151.25727"/><trkpt lat="-33.8112167" lon="151.2571155"/><trkpt lat="-33.8112024" lon="151.2569524"/><trkpt lat="-33.8113023" lon="151.2567893"/><trkpt lat="-33.8112311" lon="151.2566326"/><trkpt lat="-33.811124" lon="151.2565576"/><trkpt lat="-33.8109956" lon="151.2563173"/><trkpt lat="-33.8109243" lon="151.2561199"/><trkpt lat="-33.8108958" lon="151.2560083"/><trkpt lat="-33.8108744" lon="151.2558452"/><trkpt lat="-33.8107318" lon="151.2556134"/><trkpt lat="-33.8106462" lon="151.2554933"/><trkpt lat="-33.8106401" lon="151.2553107"/><trkpt lat="-33.8105963" lon="151.2551671"/><trkpt lat="-33.8105715" lon="151.2549869"/><trkpt lat="-33.8105107" lon="151.2547723"/><trkpt lat="-33.8105178" lon="151.2545577"/><trkpt lat="-33.8104894" lon="151.2544355"/><trkpt lat="-33.8105181" lon="151.2542225"/><trkpt lat="-33.8103966" lon="151.2538453"/><trkpt lat="-33.8103253" lon="151.2537595"/><trkpt lat="-33.8102112" lon="151.2537509"/><trkpt lat="-33.8101043" lon="151.2537739"/><trkpt lat="-33.8100043" lon="151.2538282"/><trkpt lat="-33.8099212" lon="151.2539048"/><trkpt lat="-33.809894" lon="151.2539055"/><trkpt lat="-33.8098047" lon="151.2538625"/><trkpt lat="-33.8097119" lon="151.2538282"/><trkpt lat="-33.8096358" lon="151.2538041"/><trkpt lat="-33.8095764" lon="151.2537853"/><trkpt lat="-33.8089157" lon="151.2528905"/><trkpt lat="-33.8088227" lon="151.25277"/><trkpt lat="-33.8077793" lon="151.2517597"/><trkpt lat="-33.807551" lon="151.2517339"/><trkpt lat="-33.807281" lon="151.2516264"/><trkpt lat="-33.8071685" lon="151.2515942"/><trkpt lat="-33.8070908" lon="151.2516642"/><trkpt lat="-33.806738" lon="151.2518541"/><trkpt lat="-33.8063814" lon="151.2521373"/><trkpt lat="-33.8061746" lon="151.2524892"/><trkpt lat="-33.8061552" lon="151.2525396"/><trkpt lat="-33.8059963" lon="151.2529527"/><trkpt lat="-33.8057538" lon="151.2532102"/><trkpt lat="-33.8055752" lon="151.2531946"/><trkpt lat="-33.80542" lon="151.2531704"/><trkpt lat="-33.80531" lon="151.2531149"/><trkpt lat="-33.8052227" lon="151.253085"/><trkpt lat="-33.8050795" lon="151.2530802"/><trkpt lat="-33.8048859" lon="151.2530825"/><trkpt lat="-33.8047743" lon="151.2530595"/><trkpt lat="-33.8045453" lon="151.2529714"/><trkpt lat="-33.8045302" lon="151.2529636"/><trkpt lat="-33.804308" lon="151.2528483"/><trkpt lat="-33.804146" lon="151.2526993"/><trkpt lat="-33.8040402" lon="151.2526149"/><trkpt lat="-33.8039031" lon="151.2524942"/><trkpt lat="-33.8038351" lon="151.2524573"/><trkpt lat="-33.8037387" lon="151.2524204"/><trkpt lat="-33.8036362" lon="151.252409"/><trkpt lat="-33.8035604" lon="151.2524278"/><trkpt lat="-33.8034924" lon="151.252462"/><trkpt lat="-33.8033994" lon="151.2524828"/><trkpt lat="-33.8033342" lon="151.2525297"/><trkpt lat="-33.8032673" lon="151.2526055"/><trkpt lat="-33.8032006" lon="151.2527124"/><trkpt lat="-33.8031151" lon="151.2528805"/><trkpt lat="-33.8030759" lon="151.2529127"/><trkpt lat="-33.8030612" lon="151.2529247"/><trkpt lat="-33.8030177" lon="151.2529568"/><trkpt lat="-33.8029601" lon="151.2529487"/><trkpt lat="-33.802865" lon="151.2529086"/><trkpt lat="-33.8027447" lon="151.2528495"/><trkpt lat="-33.8026167" lon="151.2527578"/><trkpt lat="-33.8025973" lon="151.2527366"/><trkpt lat="-33.8025221" lon="151.2526547"/><trkpt lat="-33.8024689" lon="151.2525907"/><trkpt lat="-33.8024284" lon="151.2524969"/><trkpt lat="-33.8023493" lon="151.252289"/><trkpt lat="-33.8023378" lon="151.2522244"/><trkpt lat="-33.802359" lon="151.2521459"/></trkseg></trk></gpx>