<?xml version="1.0" encoding="UTF-8" standalone="no" ?>

<gpx xmlns="http://www.topografix.com/GPX/1/1" xmlns:xsi="http://www.w3.org/2001/XMLSchema-instance" xsi:schemaLocation="http://www.topografix.com/GPX/1/1 http://www.topografix.com/GPX/1/1/gpx.xsd" version="1.1" creator="waymarkedtrails.org"><metadata><name>The Coast Track</name><copyright author="OpenStreetMap and Contributors"><license>https://www.openstreetmap.org/copyright</license></copyright><link href="https://hiking.waymarkedtrails.org/#route?id=4609482&amp;type=relation"><text>WaymarkedTrails</text></link><time>2025-10-24T03:25:57.962Z</time></metadata><trk><trkseg><trkpt lat="-34.0916666" lon="151.1570859"/><trkpt lat="-34.0917925" lon="151.1572427"/><trkpt lat="-34.091812" lon="151.1572715"/><trkpt lat="-34.0920142" lon="151.157417"/><trkpt lat="-34.0922291" lon="151.1575591"/><trkpt lat="-34.092509" lon="151.1576933"/><trkpt lat="-34.0927222" lon="151.1577362"/><trkpt lat="-34.0929838" lon="151.1577167"/><trkpt lat="-34.0932997" lon="151.157535"/><trkpt lat="-34.0933686" lon="151.1576477"/><trkpt lat="-34.093597" lon="151.1578906"/><trkpt lat="-34.0937756" lon="151.1581457"/><trkpt lat="-34.0940174" lon="151.1585167"/><trkpt lat="-34.0944357" lon="151.1589034"/><trkpt lat="-34.0949973" lon="151.1594184"/><trkpt lat="-34.0955161" lon="151.1599677"/><trkpt lat="-34.0958777" lon="151.1604804"/><trkpt lat="-34.0962201" lon="151.1610748"/><trkpt lat="-34.0964487" lon="151.1614003"/><trkpt lat="-34.0965804" lon="151.1615231"/><trkpt lat="-34.0967379" lon="151.1614776"/><trkpt lat="-34.096947" lon="151.1616773"/><trkpt lat="-34.0970599" lon="151.161692"/><trkpt lat="-34.0971504" lon="151.161768"/><trkpt lat="-34.0972187" lon="151.1619327"/><trkpt lat="-34.0972915" lon="151.161985"/><trkpt lat="-34.0973742" lon="151.1620038"/><trkpt lat="-34.0974664" lon="151.1619723"/><trkpt lat="-34.0975622" lon="151.1618673"/><trkpt lat="-34.0975525" lon="151.1617512"/><trkpt lat="-34.0975939" lon="151.1615918"/><trkpt lat="-34.0976434" lon="151.1614944"/><trkpt lat="-34.0977193" lon="151.161423"/><trkpt lat="-34.0977428" lon="151.1614009"/><trkpt lat="-34.0978016" lon="151.1612878"/><trkpt lat="-34.0978031" lon="151.1611347"/><trkpt lat="-34.0978199" lon="151.1609441"/><trkpt lat="-34.0978573" lon="151.1608262"/><trkpt lat="-34.0979125" lon="151.1607326"/><trkpt lat="-34.0979982" lon="151.1606321"/><trkpt lat="-34.0980885" lon="151.1605682"/><trkpt lat="-34.0981297" lon="151.1605414"/><trkpt lat="-34.0981578" lon="151.160491"/><trkpt lat="-34.0982034" lon="151.1603834"/><trkpt lat="-34.0982679" lon="151.1603222"/><trkpt lat="-34.0983611" lon="151.1603199"/><trkpt lat="-34.0984325" lon="151.1601795"/><trkpt lat="-34.0985004" lon="151.1598195"/><trkpt lat="-34.0986174" lon="151.1595044"/><trkpt lat="-34.0986529" lon="151.1593051"/><trkpt lat="-34.0986335" lon="151.1592547"/><trkpt lat="-34.0986308" lon="151.1591524"/><trkpt lat="-34.0986082" lon="151.159043"/><trkpt lat="-34.098633" lon="151.1589201"/><trkpt lat="-34.0986517" lon="151.1587769"/><trkpt lat="-34.0986387" lon="151.1586823"/><trkpt lat="-34.0986493" lon="151.1585834"/><trkpt lat="-34.098636" lon="151.1584547"/><trkpt lat="-34.0986649" lon="151.1583803"/><trkpt lat="-34.0987939" lon="151.1581717"/><trkpt lat="-34.0988367" lon="151.15814"/><trkpt lat="-34.0989389" lon="151.1581145"/><trkpt lat="-34.099054" lon="151.1580386"/><trkpt lat="-34.0992382" lon="151.1579691"/><trkpt lat="-34.0993736" lon="151.1578496"/><trkpt lat="-34.0994027" lon="151.1577889"/><trkpt lat="-34.0994022" lon="151.1577178"/><trkpt lat="-34.099362" lon="151.1576188"/><trkpt lat="-34.099418" lon="151.1574819"/><trkpt lat="-34.0994543" lon="151.1573747"/><trkpt lat="-34.0994952" lon="151.1572469"/><trkpt lat="-34.0995812" lon="151.1571321"/><trkpt lat="-34.0997091" lon="151.1570954"/><trkpt lat="-34.0998442" lon="151.1570076"/><trkpt lat="-34.10014" lon="151.1568695"/><trkpt lat="-34.1004736" lon="151.1570136"/><trkpt lat="-34.100738" lon="151.1570042"/><trkpt lat="-34.1009475" lon="151.1570167"/><trkpt lat="-34.1010282" lon="151.1571553"/><trkpt lat="-34.1010963" lon="151.1572957"/><trkpt lat="-34.1011888" lon="151.1573845"/><trkpt lat="-34.1013952" lon="151.1574684"/><trkpt lat="-34.1014854" lon="151.1575634"/><trkpt lat="-34.1015452" lon="151.1576721"/><trkpt lat="-34.1015964" lon="151.1577203"/><trkpt lat="-34.1016919" lon="151.1577686"/><trkpt lat="-34.101763" lon="151.1577726"/><trkpt lat="-34.1018352" lon="151.1577176"/><trkpt lat="-34.1020684" lon="151.1576533"/><trkpt lat="-34.1021502" lon="151.1575962"/><trkpt lat="-34.1022954" lon="151.1575316"/><trkpt lat="-34.1024886" lon="151.1574954"/><trkpt lat="-34.1026162" lon="151.1575493"/><trkpt lat="-34.1026806" lon="151.1575467"/><trkpt lat="-34.1027618" lon="151.1575397"/><trkpt lat="-34.102854" lon="151.1574928"/><trkpt lat="-34.1028665" lon="151.1574628"/><trkpt lat="-34.1029201" lon="151.1573342"/><trkpt lat="-34.1030017" lon="151.157309"/><trkpt lat="-34.1030479" lon="151.1572423"/><trkpt lat="-34.1032493" lon="151.1571642"/><trkpt lat="-34.1033865" lon="151.1570991"/><trkpt lat="-34.1034583" lon="151.1570193"/><trkpt lat="-34.1034922" lon="151.1568142"/><trkpt lat="-34.1035857" lon="151.1566913"/><trkpt lat="-34.1035383" lon="151.1565653"/><trkpt lat="-34.1035205" lon="151.156516"/><trkpt lat="-34.1035655" lon="151.1563589"/><trkpt lat="-34.1035222" lon="151.156253"/><trkpt lat="-34.103505" lon="151.1561801"/><trkpt lat="-34.1035333" lon="151.1561443"/><trkpt lat="-34.1035836" lon="151.1561336"/><trkpt lat="-34.103651" lon="151.1561523"/><trkpt lat="-34.1036996" lon="151.1561889"/><trkpt lat="-34.1037651" lon="151.1561623"/><trkpt lat="-34.1037759" lon="151.1561579"/><trkpt lat="-34.1037987" lon="151.1560927"/><trkpt lat="-34.1037632" lon="151.155987"/><trkpt lat="-34.103661" lon="151.1558613"/><trkpt lat="-34.1036522" lon="151.1557855"/><trkpt lat="-34.1037038" lon="151.15576"/><trkpt lat="-34.1038309" lon="151.1557755"/><trkpt lat="-34.1040461" lon="151.1558309"/><trkpt lat="-34.104282" lon="151.1557779"/><trkpt lat="-34.1045782" lon="151.1556802"/><trkpt lat="-34.1047034" lon="151.1555649"/><trkpt lat="-34.1048184" lon="151.1554684"/><trkpt lat="-34.1049011" lon="151.1552819"/><trkpt lat="-34.105041" lon="151.155174"/><trkpt lat="-34.1051349" lon="151.1550204"/><trkpt lat="-34.1052764" lon="151.1549219"/><trkpt lat="-34.1055302" lon="151.154716"/><trkpt lat="-34.1055802" lon="151.1544974"/><trkpt lat="-34.1055957" lon="151.1540938"/><trkpt lat="-34.1056368" lon="151.1538952"/><trkpt lat="-34.1058156" lon="151.1535653"/><trkpt lat="-34.1060251" lon="151.1535137"/><trkpt lat="-34.1063453" lon="151.1534205"/><trkpt lat="-34.1064996" lon="151.153391"/><trkpt lat="-34.106604" lon="151.1533494"/><trkpt lat="-34.1067551" lon="151.153289"/><trkpt lat="-34.1069282" lon="151.1532059"/><trkpt lat="-34.1071403" lon="151.1531483"/><trkpt lat="-34.1073742" lon="151.1530447"/><trkpt lat="-34.107489" lon="151.1529753"/><trkpt lat="-34.1075867" lon="151.1529209"/><trkpt lat="-34.1077844" lon="151.1528143"/><trkpt lat="-34.1079665" lon="151.1527606"/><trkpt lat="-34.1081241" lon="151.1527982"/><trkpt lat="-34.108193" lon="151.152795"/><trkpt lat="-34.1082619" lon="151.1527741"/><trkpt lat="-34.1083359" lon="151.1527565"/><trkpt lat="-34.1084245" lon="151.1527355"/><trkpt lat="-34.1084842" lon="151.1527207"/><trkpt lat="-34.1086118" lon="151.1526637"/><trkpt lat="-34.1086802" lon="151.1526132"/><trkpt lat="-34.1087855" lon="151.1525639"/><trkpt lat="-34.1088139" lon="151.1525372"/><trkpt lat="-34.1089031" lon="151.1524536"/><trkpt lat="-34.1091068" lon="151.1522397"/><trkpt lat="-34.1092962" lon="151.1521176"/><trkpt lat="-34.1094175" lon="151.1518179"/><trkpt lat="-34.1094701" lon="151.1515352"/><trkpt lat="-34.1095876" lon="151.1514191"/><trkpt lat="-34.1097168" lon="151.1513867"/><trkpt lat="-34.1098361" lon="151.1512566"/><trkpt lat="-34.1099188" lon="151.1510897"/><trkpt lat="-34.1099249" lon="151.1509489"/><trkpt lat="-34.1100271" lon="151.1508952"/><trkpt lat="-34.1101853" lon="151.150743"/><trkpt lat="-34.1104001" lon="151.1507101"/><trkpt lat="-34.1105807" lon="151.1506673"/><trkpt lat="-34.1107405" lon="151.1506539"/><trkpt lat="-34.1110635" lon="151.1505828"/><trkpt lat="-34.1114376" lon="151.1505403"/><trkpt lat="-34.1117487" lon="151.1506091"/><trkpt lat="-34.1119639" lon="151.1506356"/><trkpt lat="-34.1122051" lon="151.1506439"/><trkpt lat="-34.1123603" lon="151.1505959"/><trkpt lat="-34.1126925" lon="151.1504084"/><trkpt lat="-34.1129412" lon="151.1503118"/><trkpt lat="-34.1131255" lon="151.1503427"/><trkpt lat="-34.113316" lon="151.1501901"/><trkpt lat="-34.1135719" lon="151.1499102"/><trkpt lat="-34.1138056" lon="151.1496996"/><trkpt lat="-34.1136979" lon="151.1495038"/><trkpt lat="-34.1136702" lon="151.1493214"/><trkpt lat="-34.1137212" lon="151.1492222"/><trkpt lat="-34.1138945" lon="151.1488319"/><trkpt lat="-34.1141065" lon="151.1486562"/><trkpt lat="-34.114292" lon="151.1485436"/><trkpt lat="-34.1144325" lon="151.1485024"/><trkpt lat="-34.1145826" lon="151.1484922"/><trkpt lat="-34.1146706" lon="151.1485103"/><trkpt lat="-34.1148649" lon="151.1484182"/><trkpt lat="-34.1149026" lon="151.1481989"/><trkpt lat="-34.115077" lon="151.1480078"/><trkpt lat="-34.1153901" lon="151.1477818"/><trkpt lat="-34.1154456" lon="151.1477705"/><trkpt lat="-34.1155694" lon="151.1476739"/><trkpt lat="-34.1158432" lon="151.1475738"/><trkpt lat="-34.1159442" lon="151.1475159"/><trkpt lat="-34.1159197" lon="151.1474615"/><trkpt lat="-34.1159236" lon="151.1472681"/><trkpt lat="-34.1159752" lon="151.1471528"/><trkpt lat="-34.1159208" lon="151.1470442"/><trkpt lat="-34.1158875" lon="151.1469637"/><trkpt lat="-34.1159191" lon="151.1467478"/><trkpt lat="-34.115858" lon="151.146632"/><trkpt lat="-34.1158701" lon="151.146514"/><trkpt lat="-34.1158336" lon="151.1464307"/><trkpt lat="-34.1159016" lon="151.1462057"/><trkpt lat="-34.1160852" lon="151.1459272"/><trkpt lat="-34.1160224" lon="151.1458661"/><trkpt lat="-34.1160389" lon="151.1457566"/><trkpt lat="-34.115978" lon="151.1455402"/><trkpt lat="-34.1159857" lon="151.1454245"/><trkpt lat="-34.1160149" lon="151.1452683"/><trkpt lat="-34.1160674" lon="151.145231"/><trkpt lat="-34.1161429" lon="151.1451935"/><trkpt lat="-34.1161767" lon="151.1451362"/><trkpt lat="-34.1162179" lon="151.1449259"/><trkpt lat="-34.1162372" lon="151.1447777"/><trkpt lat="-34.1162239" lon="151.1447261"/><trkpt lat="-34.1163445" lon="151.1446569"/><trkpt lat="-34.1163704" lon="151.1445803"/><trkpt lat="-34.1164296" lon="151.1444803"/><trkpt lat="-34.116465" lon="151.1443701"/><trkpt lat="-34.1165607" lon="151.144258"/><trkpt lat="-34.1166521" lon="151.1441407"/><trkpt lat="-34.1166108" lon="151.143916"/><trkpt lat="-34.1166087" lon="151.1438456"/><trkpt lat="-34.1165806" lon="151.1437739"/><trkpt lat="-34.1163518" lon="151.1435833"/><trkpt lat="-34.1161359" lon="151.1435742"/><trkpt lat="-34.1160734" lon="151.1435714"/><trkpt lat="-34.1159994" lon="151.14335"/><trkpt lat="-34.1159541" lon="151.1431354"/><trkpt lat="-34.1160704" lon="151.1426552"/><trkpt lat="-34.1159394" lon="151.1419597"/><trkpt lat="-34.1159394" lon="151.1415413"/><trkpt lat="-34.1161486" lon="151.1406727"/><trkpt lat="-34.1164648" lon="151.1399218"/><trkpt lat="-34.1167684" lon="151.1395348"/><trkpt lat="-34.1170701" lon="151.1392631"/><trkpt lat="-34.1171449" lon="151.1392295"/><trkpt lat="-34.1172491" lon="151.139268"/><trkpt lat="-34.1174727" lon="151.1392541"/><trkpt lat="-34.1176162" lon="151.1392072"/><trkpt lat="-34.117835" lon="151.1391837"/><trkpt lat="-34.1180365" lon="151.1390854"/><trkpt lat="-34.1181385" lon="151.1389781"/><trkpt lat="-34.1182351" lon="151.1388075"/><trkpt lat="-34.1182676" lon="151.138592"/><trkpt lat="-34.1183507" lon="151.1384007"/><trkpt lat="-34.1184462" lon="151.1382705"/><trkpt lat="-34.1185504" lon="151.138093"/><trkpt lat="-34.1186038" lon="151.1380118"/><trkpt lat="-34.1186149" lon="151.1379125"/><trkpt lat="-34.1185815" lon="151.1378365"/><trkpt lat="-34.1185872" lon="151.1377932"/><trkpt lat="-34.1186667" lon="151.1377263"/><trkpt lat="-34.1187405" lon="151.1376895"/><trkpt lat="-34.1188487" lon="151.137619"/><trkpt lat="-34.1189283" lon="151.1375592"/><trkpt lat="-34.1190527" lon="151.1375189"/><trkpt lat="-34.119191" lon="151.1373805"/><trkpt lat="-34.1192751" lon="151.1372764"/><trkpt lat="-34.1195238" lon="151.1370385"/><trkpt lat="-34.1195942" lon="151.1369094"/><trkpt lat="-34.11962" lon="151.1367262"/><trkpt lat="-34.1196243" lon="151.1365457"/><trkpt lat="-34.1196053" lon="151.1364105"/><trkpt lat="-34.1196461" lon="151.1363051"/><trkpt lat="-34.1197763" lon="151.1361342"/><trkpt lat="-34.1197927" lon="151.135961"/><trkpt lat="-34.1198799" lon="151.1358679"/><trkpt lat="-34.1199517" lon="151.13574"/><trkpt lat="-34.1200378" lon="151.1356424"/><trkpt lat="-34.1201124" lon="151.1355481"/><trkpt lat="-34.1201826" lon="151.1354664"/><trkpt lat="-34.1203375" lon="151.1352083"/><trkpt lat="-34.120678" lon="151.1350601"/><trkpt lat="-34.1208035" lon="151.1352224"/><trkpt lat="-34.1208959" lon="151.1352911"/><trkpt lat="-34.1211232" lon="151.1353941"/><trkpt lat="-34.1214643" lon="151.1354628"/><trkpt lat="-34.1218196" lon="151.1356344"/><trkpt lat="-34.1218566" lon="151.1356427"/><trkpt lat="-34.1219959" lon="151.1356738"/><trkpt lat="-34.1221322" lon="151.1357203"/><trkpt lat="-34.1222977" lon="151.135674"/><trkpt lat="-34.1223672" lon="151.13568"/><trkpt lat="-34.1224341" lon="151.1357129"/><trkpt lat="-34.1226483" lon="151.1358038"/><trkpt lat="-34.1227186" lon="151.1357884"/><trkpt lat="-34.1227714" lon="151.1357346"/><trkpt lat="-34.1228527" lon="151.1355328"/><trkpt lat="-34.1229292" lon="151.1354869"/><trkpt lat="-34.1230066" lon="151.1354742"/><trkpt lat="-34.1231649" lon="151.1354447"/><trkpt lat="-34.1233089" lon="151.1353677"/><trkpt lat="-34.1234195" lon="151.1354085"/><trkpt lat="-34.1234956" lon="151.1354036"/><trkpt lat="-34.1235739" lon="151.1353883"/><trkpt lat="-34.1237384" lon="151.1354047"/><trkpt lat="-34.1237647" lon="151.1353693"/><trkpt lat="-34.1238233" lon="151.1351624"/><trkpt lat="-34.1239654" lon="151.1349478"/><trkpt lat="-34.1241799" lon="151.1347423"/><trkpt lat="-34.1243076" lon="151.1346389"/><trkpt lat="-34.1243385" lon="151.1346205"/><trkpt lat="-34.1243881" lon="151.134591"/><trkpt lat="-34.1245289" lon="151.134505"/><trkpt lat="-34.1245928" lon="151.1344452"/><trkpt lat="-34.1247026" lon="151.1343604"/><trkpt lat="-34.12477" lon="151.1342356"/><trkpt lat="-34.1248152" lon="151.1342203"/><trkpt lat="-34.1249226" lon="151.134241"/><trkpt lat="-34.1250024" lon="151.1342056"/><trkpt lat="-34.1251357" lon="151.1342373"/><trkpt lat="-34.1252213" lon="151.1342165"/><trkpt lat="-34.1253318" lon="151.1342125"/><trkpt lat="-34.1254348" lon="151.1341688"/><trkpt lat="-34.1255641" lon="151.1340895"/><trkpt lat="-34.1256131" lon="151.1340694"/><trkpt lat="-34.1257415" lon="151.1340465"/><trkpt lat="-34.1258638" lon="151.1339917"/><trkpt lat="-34.1259369" lon="151.1339162"/><trkpt lat="-34.126057" lon="151.1336396"/><trkpt lat="-34.1261467" lon="151.1333447"/><trkpt lat="-34.1263121" lon="151.1330404"/><trkpt lat="-34.1263536" lon="151.1329314"/><trkpt lat="-34.1264803" lon="151.1327816"/><trkpt lat="-34.1265146" lon="151.1327027"/><trkpt lat="-34.126651" lon="151.1324"/><trkpt lat="-34.1267973" lon="151.132202"/><trkpt lat="-34.126935" lon="151.1320643"/><trkpt lat="-34.1270135" lon="151.1320381"/><trkpt lat="-34.127113" lon="151.1319609"/><trkpt lat="-34.1272125" lon="151.1319008"/><trkpt lat="-34.1273048" lon="151.1316948"/><trkpt lat="-34.127323" lon="151.1316847"/><trkpt lat="-34.1273966" lon="151.1316439"/><trkpt lat="-34.1275094" lon="151.1315816"/><trkpt lat="-34.1276388" lon="151.1315832"/><trkpt lat="-34.127724" lon="151.1314802"/><trkpt lat="-34.1279443" lon="151.1313343"/><trkpt lat="-34.1281294" lon="151.1312204"/><trkpt lat="-34.1282301" lon="151.131041"/><trkpt lat="-34.1282872" lon="151.1309773"/><trkpt lat="-34.1283492" lon="151.1309871"/><trkpt lat="-34.1284718" lon="151.1310339"/><trkpt lat="-34.1286023" lon="151.1310365"/><trkpt lat="-34.1287482" lon="151.1310097"/><trkpt lat="-34.1288267" lon="151.1308542"/><trkpt lat="-34.1290187" lon="151.1305263"/><trkpt lat="-34.1290666" lon="151.1303396"/><trkpt lat="-34.1291675" lon="151.1301768"/><trkpt lat="-34.129234" lon="151.1300407"/><trkpt lat="-34.1292729" lon="151.1299353"/><trkpt lat="-34.1293776" lon="151.1297523"/><trkpt lat="-34.1294829" lon="151.1296478"/><trkpt lat="-34.1295657" lon="151.1295034"/><trkpt lat="-34.1297145" lon="151.129383"/><trkpt lat="-34.1299901" lon="151.1291875"/><trkpt lat="-34.1300552" lon="151.1291286"/><trkpt lat="-34.130256" lon="151.1289468"/><trkpt lat="-34.1303301" lon="151.1288756"/><trkpt lat="-34.1304381" lon="151.1287718"/><trkpt lat="-34.1306783" lon="151.1285409"/><trkpt lat="-34.1307849" lon="151.1284229"/><trkpt lat="-34.130887" lon="151.1283129"/><trkpt lat="-34.1309647" lon="151.1283076"/><trkpt lat="-34.1310779" lon="151.1282405"/><trkpt lat="-34.1312156" lon="151.128042"/><trkpt lat="-34.1312176" lon="151.1279484"/><trkpt lat="-34.1312822" lon="151.1277765"/><trkpt lat="-34.1313976" lon="151.1276316"/><trkpt lat="-34.1315775" lon="151.1273446"/><trkpt lat="-34.1316974" lon="151.1272239"/><trkpt lat="-34.1317988" lon="151.12708"/><trkpt lat="-34.1317869" lon="151.1269614"/><trkpt lat="-34.1316736" lon="151.1268129"/><trkpt lat="-34.1316676" lon="151.1266466"/><trkpt lat="-34.1315475" lon="151.126376"/><trkpt lat="-34.1315147" lon="151.1260642"/><trkpt lat="-34.1312735" lon="151.1253499"/><trkpt lat="-34.1311803" lon="151.1251678"/><trkpt lat="-34.1311046" lon="151.1248421"/><trkpt lat="-34.1310372" lon="151.1246543"/><trkpt lat="-34.1309627" lon="151.1243892"/><trkpt lat="-34.1308629" lon="151.1241832"/><trkpt lat="-34.1307982" lon="151.1239114"/><trkpt lat="-34.1306837" lon="151.1236441"/><trkpt lat="-34.1306625" lon="151.1234731"/><trkpt lat="-34.1306317" lon="151.1232355"/><trkpt lat="-34.1305651" lon="151.1230773"/><trkpt lat="-34.1304428" lon="151.1227795"/><trkpt lat="-34.1303583" lon="151.1225961"/><trkpt lat="-34.1303457" lon="151.1224594"/><trkpt lat="-34.1303186" lon="151.1221465"/><trkpt lat="-34.1302251" lon="151.1217851"/><trkpt lat="-34.1302041" lon="151.1216164"/><trkpt lat="-34.1302564" lon="151.1214759"/><trkpt lat="-34.1303557" lon="151.1213752"/><trkpt lat="-34.1304325" lon="151.121225"/><trkpt lat="-34.1305856" lon="151.1210198"/><trkpt lat="-34.1306632" lon="151.1208808"/><trkpt lat="-34.1307662" lon="151.1207531"/><trkpt lat="-34.1308386" lon="151.120607"/><trkpt lat="-34.130954" lon="151.1204798"/><trkpt lat="-34.1310735" lon="151.1204111"/><trkpt lat="-34.1311371" lon="151.1203103"/><trkpt lat="-34.131243" lon="151.1201763"/><trkpt lat="-34.1313378" lon="151.1201474"/><trkpt lat="-34.1314508" lon="151.1199775"/><trkpt lat="-34.1316293" lon="151.1197989"/><trkpt lat="-34.1316974" lon="151.1196333"/><trkpt lat="-34.1317684" lon="151.119518"/><trkpt lat="-34.1319466" lon="151.1194418"/><trkpt lat="-34.1320735" lon="151.1194128"/><trkpt lat="-34.132184" lon="151.119333"/><trkpt lat="-34.1322369" lon="151.1192041"/><trkpt lat="-34.1322428" lon="151.1190643"/><trkpt lat="-34.132327" lon="151.118937"/><trkpt lat="-34.1324536" lon="151.1188776"/><trkpt lat="-34.1325417" lon="151.1187139"/><trkpt lat="-34.1325692" lon="151.1184875"/><trkpt lat="-34.1325511" lon="151.118317"/><trkpt lat="-34.1325764" lon="151.1180189"/><trkpt lat="-34.1325493" lon="151.1178983"/><trkpt lat="-34.1325426" lon="151.1176493"/><trkpt lat="-34.1324411" lon="151.1175492"/><trkpt lat="-34.1324345" lon="151.1174688"/><trkpt lat="-34.1324848" lon="151.1174121"/><trkpt lat="-34.132498" lon="151.1173083"/><trkpt lat="-34.132465" lon="151.1172125"/><trkpt lat="-34.1324471" lon="151.1171022"/><trkpt lat="-34.1323917" lon="151.1170386"/><trkpt lat="-34.132322" lon="151.1169977"/><trkpt lat="-34.1322856" lon="151.116965"/><trkpt lat="-34.1322914" lon="151.1169029"/><trkpt lat="-34.1324075" lon="151.1167437"/><trkpt lat="-34.1325217" lon="151.1165351"/><trkpt lat="-34.1325485" lon="151.116421"/><trkpt lat="-34.132468" lon="151.1162809"/><trkpt lat="-34.1324134" lon="151.1160257"/><trkpt lat="-34.1324422" lon="151.115842"/><trkpt lat="-34.1324589" lon="151.1157146"/><trkpt lat="-34.1324201" lon="151.1156127"/><trkpt lat="-34.1322868" lon="151.1154959"/><trkpt lat="-34.1322206" lon="151.1153348"/><trkpt lat="-34.1322231" lon="151.1152516"/><trkpt lat="-34.1322058" lon="151.1150145"/><trkpt lat="-34.1322391" lon="151.114972"/><trkpt lat="-34.1323257" lon="151.1148616"/><trkpt lat="-34.13246" lon="151.1147326"/><trkpt lat="-34.1328231" lon="151.1145102"/><trkpt lat="-34.1330077" lon="151.1144428"/><trkpt lat="-34.1333139" lon="151.1143051"/><trkpt lat="-34.1336154" lon="151.1143066"/><trkpt lat="-34.133683" lon="151.1142856"/><trkpt lat="-34.1338533" lon="151.1141389"/><trkpt lat="-34.1343071" lon="151.1141061"/><trkpt lat="-34.1346212" lon="151.1141"/><trkpt lat="-34.1347569" lon="151.1140734"/><trkpt lat="-34.1349785" lon="151.1140964"/><trkpt lat="-34.1352804" lon="151.1141147"/><trkpt lat="-34.1356398" lon="151.1142998"/><trkpt lat="-34.1359055" lon="151.1145308"/><trkpt lat="-34.1360307" lon="151.1144527"/><trkpt lat="-34.1361804" lon="151.114398"/><trkpt lat="-34.1363514" lon="151.1144924"/><trkpt lat="-34.1365716" lon="151.1145418"/><trkpt lat="-34.1366819" lon="151.1144253"/><trkpt lat="-34.1368245" lon="151.1142312"/><trkpt lat="-34.1369036" lon="151.1142035"/><trkpt lat="-34.1370077" lon="151.1142476"/><trkpt lat="-34.1371828" lon="151.1142457"/><trkpt lat="-34.137185" lon="151.1143291"/><trkpt lat="-34.1372001" lon="151.114376"/><trkpt lat="-34.1372606" lon="151.1144046"/><trkpt lat="-34.1373281" lon="151.1144387"/><trkpt lat="-34.1374264" lon="151.1145355"/><trkpt lat="-34.1374352" lon="151.1145399"/><trkpt lat="-34.1374604" lon="151.1145526"/><trkpt lat="-34.1374936" lon="151.114552"/><trkpt lat="-34.1375203" lon="151.1145332"/><trkpt lat="-34.1375996" lon="151.1144853"/><trkpt lat="-34.1376522" lon="151.1144725"/><trkpt lat="-34.1377069" lon="151.1144805"/><trkpt lat="-34.1377625" lon="151.1145114"/><trkpt lat="-34.1377776" lon="151.1145198"/><trkpt lat="-34.137835" lon="151.1145759"/><trkpt lat="-34.1379344" lon="151.1144916"/><trkpt lat="-34.1380275" lon="151.1144748"/><trkpt lat="-34.1381027" lon="151.1145452"/><trkpt lat="-34.138207" lon="151.114721"/><trkpt lat="-34.1382396" lon="151.1147757"/><trkpt lat="-34.1382917" lon="151.114863"/><trkpt lat="-34.1383314" lon="151.1149311"/><trkpt lat="-34.1383733" lon="151.115003"/><trkpt lat="-34.1384459" lon="151.1151209"/><trkpt lat="-34.1385303" lon="151.1151184"/><trkpt lat="-34.1386881" lon="151.1150881"/><trkpt lat="-34.1387803" lon="151.1150282"/><trkpt lat="-34.1388633" lon="151.1149501"/><trkpt lat="-34.1389093" lon="151.1149462"/><trkpt lat="-34.1390262" lon="151.1148706"/><trkpt lat="-34.1391243" lon="151.1146083"/><trkpt lat="-34.1392031" lon="151.1141191"/><trkpt lat="-34.1392997" lon="151.1141521"/><trkpt lat="-34.1394245" lon="151.1142232"/><trkpt lat="-34.1395595" lon="151.1143408"/><trkpt lat="-34.1396847" lon="151.1145012"/><trkpt lat="-34.1397961" lon="151.1148047"/><trkpt lat="-34.139859" lon="151.1149793"/><trkpt lat="-34.1398181" lon="151.1152354"/><trkpt lat="-34.1398621" lon="151.1154527"/><trkpt lat="-34.1398935" lon="151.1157097"/><trkpt lat="-34.1399076" lon="151.1159791"/><trkpt lat="-34.1399857" lon="151.1163554"/><trkpt lat="-34.1401548" lon="151.1164591"/><trkpt lat="-34.1404116" lon="151.1165417"/><trkpt lat="-34.1406448" lon="151.1166839"/><trkpt lat="-34.1407665" lon="151.1167737"/><trkpt lat="-34.1409178" lon="151.1167286"/><trkpt lat="-34.141057" lon="151.116829"/><trkpt lat="-34.14118" lon="151.1168843"/><trkpt lat="-34.1413614" lon="151.1168719"/><trkpt lat="-34.1415327" lon="151.1169348"/><trkpt lat="-34.1417206" lon="151.1168013"/><trkpt lat="-34.1419154" lon="151.1167722"/><trkpt lat="-34.1419982" lon="151.1168317"/><trkpt lat="-34.1420545" lon="151.1170085"/><trkpt lat="-34.1421296" lon="151.1170857"/><trkpt lat="-34.1422612" lon="151.1170464"/><trkpt lat="-34.1423122" lon="151.1170517"/><trkpt lat="-34.1424495" lon="151.1170858"/><trkpt lat="-34.1426124" lon="151.1169717"/><trkpt lat="-34.1427816" lon="151.1169588"/><trkpt lat="-34.1428683" lon="151.1169077"/><trkpt lat="-34.1429322" lon="151.1168165"/><trkpt lat="-34.1428877" lon="151.1166863"/><trkpt lat="-34.1428657" lon="151.1165573"/><trkpt lat="-34.1429584" lon="151.1163828"/><trkpt lat="-34.1430252" lon="151.1162785"/><trkpt lat="-34.1430819" lon="151.1162117"/><trkpt lat="-34.1431735" lon="151.1161641"/><trkpt lat="-34.1432919" lon="151.1160728"/><trkpt lat="-34.1433483" lon="151.1160194"/><trkpt lat="-34.1435521" lon="151.1160195"/><trkpt lat="-34.143727" lon="151.1159741"/><trkpt lat="-34.1438045" lon="151.1159066"/><trkpt lat="-34.1438617" lon="151.1157068"/><trkpt lat="-34.1438518" lon="151.1155746"/><trkpt lat="-34.1437984" lon="151.1154323"/><trkpt lat="-34.143756" lon="151.1152445"/><trkpt lat="-34.1437264" lon="151.1150937"/><trkpt lat="-34.1436807" lon="151.1148662"/><trkpt lat="-34.1436092" lon="151.114701"/><trkpt lat="-34.1435849" lon="151.1146336"/><trkpt lat="-34.1434765" lon="151.1143471"/><trkpt lat="-34.1433069" lon="151.114201"/><trkpt lat="-34.1432174" lon="151.1140227"/><trkpt lat="-34.1432272" lon="151.1138462"/><trkpt lat="-34.1432716" lon="151.1136396"/><trkpt lat="-34.1432894" lon="151.1134665"/><trkpt lat="-34.1434043" lon="151.1133993"/><trkpt lat="-34.1434298" lon="151.1133468"/><trkpt lat="-34.143396" lon="151.1132251"/><trkpt lat="-34.1433406" lon="151.1130947"/><trkpt lat="-34.1433649" lon="151.1128401"/><trkpt lat="-34.1433937" lon="151.1127582"/><trkpt lat="-34.1433671" lon="151.1126321"/><trkpt lat="-34.1433882" lon="151.1125235"/><trkpt lat="-34.143437" lon="151.1124484"/><trkpt lat="-34.1435048" lon="151.1123853"/><trkpt lat="-34.1436069" lon="151.1122927"/><trkpt lat="-34.1437124" lon="151.1121573"/><trkpt lat="-34.1438012" lon="151.1120808"/><trkpt lat="-34.143829" lon="151.1120124"/><trkpt lat="-34.1439" lon="151.1119775"/><trkpt lat="-34.14394" lon="151.1118447"/><trkpt lat="-34.1439877" lon="151.1118152"/><trkpt lat="-34.1440721" lon="151.1117494"/><trkpt lat="-34.1441554" lon="151.1116757"/><trkpt lat="-34.1441154" lon="151.1115657"/><trkpt lat="-34.1441754" lon="151.1114597"/><trkpt lat="-34.1443478" lon="151.111401"/><trkpt lat="-34.144444" lon="151.1112786"/><trkpt lat="-34.1445207" lon="151.1111364"/><trkpt lat="-34.1445195" lon="151.11097"/><trkpt lat="-34.1445351" lon="151.1108493"/><trkpt lat="-34.1446628" lon="151.110793"/><trkpt lat="-34.1447738" lon="151.1107058"/><trkpt lat="-34.1449081" lon="151.1105958"/><trkpt lat="-34.1449237" lon="151.110467"/><trkpt lat="-34.1449714" lon="151.1103368"/><trkpt lat="-34.1449781" lon="151.1102081"/><trkpt lat="-34.1450425" lon="151.1099478"/><trkpt lat="-34.1450847" lon="151.109756"/><trkpt lat="-34.145189" lon="151.1095024"/><trkpt lat="-34.1453722" lon="151.1093066"/><trkpt lat="-34.1454362" lon="151.1092876"/><trkpt lat="-34.1454943" lon="151.1092704"/><trkpt lat="-34.1456287" lon="151.1091684"/><trkpt lat="-34.1457031" lon="151.1090799"/><trkpt lat="-34.1457697" lon="151.1091107"/><trkpt lat="-34.1458785" lon="151.1090785"/><trkpt lat="-34.1460173" lon="151.1089886"/><trkpt lat="-34.146159" lon="151.1089382"/><trkpt lat="-34.1463082" lon="151.1090432"/><trkpt lat="-34.146528" lon="151.1090968"/><trkpt lat="-34.1466934" lon="151.1090718"/><trkpt lat="-34.1467811" lon="151.1089806"/><trkpt lat="-34.1469365" lon="151.1089095"/><trkpt lat="-34.1470187" lon="151.1089457"/><trkpt lat="-34.1471575" lon="151.1088384"/><trkpt lat="-34.1473251" lon="151.1088169"/><trkpt lat="-34.1473839" lon="151.1088545"/><trkpt lat="-34.1473806" lon="151.1089538"/><trkpt lat="-34.1474339" lon="151.1089685"/><trkpt lat="-34.1474816" lon="151.1090638"/><trkpt lat="-34.1475805" lon="151.1090732"/><trkpt lat="-34.1476457" lon="151.10921"/><trkpt lat="-34.1477436" lon="151.1093335"/><trkpt lat="-34.1478632" lon="151.1094609"/><trkpt lat="-34.1480204" lon="151.1094777"/><trkpt lat="-34.1481554" lon="151.1094054"/><trkpt lat="-34.1482841" lon="151.1093296"/><trkpt lat="-34.1484408" lon="151.1091114"/><trkpt lat="-34.1485028" lon="151.1090691"/><trkpt lat="-34.148543" lon="151.1090011"/><trkpt lat="-34.1485887" lon="151.1089874"/><trkpt lat="-34.1486497" lon="151.1089437"/><trkpt lat="-34.1486575" lon="151.1088945"/><trkpt lat="-34.1486599" lon="151.1085209"/><trkpt lat="-34.1487165" lon="151.1084686"/><trkpt lat="-34.148777" lon="151.1083246"/><trkpt lat="-34.1488252" lon="151.1081753"/><trkpt lat="-34.1488239" lon="151.1079268"/><trkpt lat="-34.1488083" lon="151.1077606"/><trkpt lat="-34.1488282" lon="151.107581"/><trkpt lat="-34.1489478" lon="151.1075062"/><trkpt lat="-34.1490401" lon="151.1074417"/><trkpt lat="-34.149128" lon="151.107469"/><trkpt lat="-34.1492221" lon="151.107452"/><trkpt lat="-34.1492968" lon="151.1074018"/><trkpt lat="-34.1494259" lon="151.1073212"/><trkpt lat="-34.1495068" lon="151.1071758"/><trkpt lat="-34.1495944" lon="151.1070954"/><trkpt lat="-34.1497194" lon="151.1069814"/><trkpt lat="-34.1497937" lon="151.1067961"/><trkpt lat="-34.1498689" lon="151.1065336"/><trkpt lat="-34.1499483" lon="151.1064281"/><trkpt lat="-34.1500736" lon="151.1063671"/><trkpt lat="-34.1502116" lon="151.1062071"/><trkpt lat="-34.1503147" lon="151.1060149"/><trkpt lat="-34.1505122" lon="151.1057644"/><trkpt lat="-34.1506096" lon="151.1055958"/><trkpt lat="-34.1506368" lon="151.1054311"/><trkpt lat="-34.1506787" lon="151.1052317"/><trkpt lat="-34.1507716" lon="151.1050782"/><trkpt lat="-34.1509144" lon="151.1049427"/><trkpt lat="-34.1510964" lon="151.1048958"/><trkpt lat="-34.1511875" lon="151.1047616"/><trkpt lat="-34.1512518" lon="151.1046637"/><trkpt lat="-34.1512921" lon="151.104536"/><trkpt lat="-34.1513962" lon="151.1042881"/><trkpt lat="-34.1515094" lon="151.1041217"/><trkpt lat="-34.1515494" lon="151.1040372"/><trkpt lat="-34.1515438" lon="151.1039124"/><trkpt lat="-34.1515904" lon="151.1038252"/><trkpt lat="-34.1516415" lon="151.1037447"/><trkpt lat="-34.1517206" lon="151.1035889"/><trkpt lat="-34.1518367" lon="151.1033602"/><trkpt lat="-34.1519379" lon="151.1030686"/><trkpt lat="-34.1520445" lon="151.1028767"/><trkpt lat="-34.1520932" lon="151.1027095"/><trkpt lat="-34.1520911" lon="151.102524"/><trkpt lat="-34.1521083" lon="151.1024019"/><trkpt lat="-34.15214" lon="151.1022651"/><trkpt lat="-34.1523032" lon="151.1021497"/><trkpt lat="-34.1523931" lon="151.1020397"/><trkpt lat="-34.1525663" lon="151.1019203"/><trkpt lat="-34.1527455" lon="151.1018243"/><trkpt lat="-34.1529371" lon="151.1016346"/><trkpt lat="-34.1529415" lon="151.1012979"/><trkpt lat="-34.1531036" lon="151.1012335"/><trkpt lat="-34.1531946" lon="151.1011114"/><trkpt lat="-34.1532002" lon="151.100937"/><trkpt lat="-34.1531802" lon="151.1006848"/><trkpt lat="-34.1530925" lon="151.1005586"/><trkpt lat="-34.1529593" lon="151.1005587"/><trkpt lat="-34.1528416" lon="151.1005023"/><trkpt lat="-34.1527753" lon="151.1001229"/><trkpt lat="-34.1527586" lon="151.1000729"/><trkpt lat="-34.1526556" lon="151.0997648"/><trkpt lat="-34.1525475" lon="151.0995789"/><trkpt lat="-34.1525374" lon="151.0994197"/><trkpt lat="-34.1525418" lon="151.0992696"/><trkpt lat="-34.1525152" lon="151.0990375"/><trkpt lat="-34.1524053" lon="151.0989114"/><trkpt lat="-34.1523376" lon="151.098859"/><trkpt lat="-34.1522773" lon="151.0987236"/><trkpt lat="-34.1522241" lon="151.0986357"/><trkpt lat="-34.15218" lon="151.0985625"/><trkpt lat="-34.1521906" lon="151.0985212"/><trkpt lat="-34.1522543" lon="151.0982741"/><trkpt lat="-34.1523642" lon="151.0982138"/><trkpt lat="-34.1524553" lon="151.0980984"/><trkpt lat="-34.1527506" lon="151.098093"/><trkpt lat="-34.1528838" lon="151.0979897"/><trkpt lat="-34.15304" lon="151.0980416"/><trkpt lat="-34.1531646" lon="151.0980421"/><trkpt lat="-34.1532441" lon="151.0981108"/><trkpt lat="-34.1534404" lon="151.0981165"/><trkpt lat="-34.1536005" lon="151.0980586"/><trkpt lat="-34.1536644" lon="151.0979556"/><trkpt lat="-34.1537409" lon="151.0978072"/><trkpt lat="-34.1538679" lon="151.0975723"/><trkpt lat="-34.1540581" lon="151.0974307"/><trkpt lat="-34.154216" lon="151.0972568"/><trkpt lat="-34.1542939" lon="151.097005"/><trkpt lat="-34.1543363" lon="151.0969371"/><trkpt lat="-34.1544105" lon="151.0968602"/><trkpt lat="-34.154561" lon="151.0967489"/><trkpt lat="-34.1545943" lon="151.0966636"/><trkpt lat="-34.1546431" lon="151.0965852"/><trkpt lat="-34.1547122" lon="151.0965429"/><trkpt lat="-34.1547846" lon="151.0965375"/><trkpt lat="-34.1548254" lon="151.0965261"/><trkpt lat="-34.1548473" lon="151.0965127"/><trkpt lat="-34.1548989" lon="151.0964798"/><trkpt lat="-34.1549225" lon="151.0964587"/><trkpt lat="-34.1549555" lon="151.0964034"/><trkpt lat="-34.1549811" lon="151.0963296"/><trkpt lat="-34.1550223" lon="151.0962018"/><trkpt lat="-34.1551132" lon="151.0959574"/><trkpt lat="-34.1551589" lon="151.0959232"/><trkpt lat="-34.155262" lon="151.0958232"/><trkpt lat="-34.155434" lon="151.0957669"/><trkpt lat="-34.1556217" lon="151.0959158"/><trkpt lat="-34.1557749" lon="151.0960204"/><trkpt lat="-34.1559886" lon="151.0960578"/><trkpt lat="-34.1562881" lon="151.0960381"/><trkpt lat="-34.1564705" lon="151.096022"/><trkpt lat="-34.1565571" lon="151.095942"/><trkpt lat="-34.1567659" lon="151.095782"/><trkpt lat="-34.1569167" lon="151.0956268"/><trkpt lat="-34.1571296" lon="151.0954139"/><trkpt lat="-34.1573181" lon="151.0952403"/><trkpt lat="-34.1574668" lon="151.0951208"/><trkpt lat="-34.1574923" lon="151.0950322"/><trkpt lat="-34.1575799" lon="151.0948623"/><trkpt lat="-34.1576889" lon="151.0947429"/><trkpt lat="-34.15775" lon="151.0947306"/><trkpt lat="-34.157801" lon="151.0947306"/><trkpt lat="-34.157857" lon="151.094685"/><trkpt lat="-34.1578744" lon="151.0946591"/><trkpt lat="-34.1579008" lon="151.0946198"/><trkpt lat="-34.1579212" lon="151.094488"/><trkpt lat="-34.1579477" lon="151.0943243"/><trkpt lat="-34.1580781" lon="151.0941162"/><trkpt lat="-34.1581005" lon="151.0940103"/><trkpt lat="-34.158149" lon="151.0937596"/><trkpt lat="-34.158149" lon="151.0935066"/><trkpt lat="-34.1582227" lon="151.09329"/><trkpt lat="-34.1582231" lon="151.0930638"/><trkpt lat="-34.1582892" lon="151.0928277"/><trkpt lat="-34.1583236" lon="151.0926721"/><trkpt lat="-34.1586045" lon="151.0923649"/><trkpt lat="-34.1588897" lon="151.0920724"/><trkpt lat="-34.1590529" lon="151.0917531"/><trkpt lat="-34.1591995" lon="151.0915747"/><trkpt lat="-34.1593162" lon="151.0914453"/><trkpt lat="-34.1593586" lon="151.0913802"/><trkpt lat="-34.1594326" lon="151.091242"/><trkpt lat="-34.1595225" lon="151.0909925"/><trkpt lat="-34.1596535" lon="151.0907256"/><trkpt lat="-34.1596512" lon="151.0905699"/><trkpt lat="-34.1596879" lon="151.0903567"/><trkpt lat="-34.1597534" lon="151.0901112"/><trkpt lat="-34.1598178" lon="151.0898509"/><trkpt lat="-34.1597878" lon="151.0896698"/><trkpt lat="-34.1598366" lon="151.0893586"/><trkpt lat="-34.1599321" lon="151.0891091"/><trkpt lat="-34.160012" lon="151.0887925"/><trkpt lat="-34.1601441" lon="151.0886355"/><trkpt lat="-34.160281" lon="151.0883272"/><trkpt lat="-34.1602841" lon="151.0879819"/><trkpt lat="-34.1603611" lon="151.0878168"/><trkpt lat="-34.1605651" lon="151.0877922"/><trkpt lat="-34.160697" lon="151.087722"/><trkpt lat="-34.1607865" lon="151.0875095"/><trkpt lat="-34.1609576" lon="151.0873786"/><trkpt lat="-34.1610298" lon="151.0871642"/><trkpt lat="-34.1610267" lon="151.0868948"/><trkpt lat="-34.1610141" lon="151.0865647"/><trkpt lat="-34.1610863" lon="151.0863598"/><trkpt lat="-34.1612512" lon="151.0862555"/><trkpt lat="-34.1614808" lon="151.0860489"/><trkpt lat="-34.1618505" lon="151.0856885"/><trkpt lat="-34.1619655" lon="151.0855307"/><trkpt lat="-34.1620625" lon="151.0853678"/><trkpt lat="-34.1622147" lon="151.0853062"/><trkpt lat="-34.1622571" lon="151.0852123"/><trkpt lat="-34.1624015" lon="151.085143"/><trkpt lat="-34.1625177" lon="151.0850652"/><trkpt lat="-34.1626384" lon="151.0849117"/><trkpt lat="-34.1629845" lon="151.0843737"/><trkpt lat="-34.1632681" lon="151.0840911"/><trkpt lat="-34.1633462" lon="151.0838593"/><trkpt lat="-34.1632462" lon="151.083728"/><trkpt lat="-34.1631485" lon="151.0835617"/><trkpt lat="-34.1631319" lon="151.083406"/><trkpt lat="-34.1631929" lon="151.0832182"/><trkpt lat="-34.1631718" lon="151.0829553"/><trkpt lat="-34.1633161" lon="151.0827608"/><trkpt lat="-34.1633406" lon="151.0825743"/><trkpt lat="-34.1634649" lon="151.0823597"/><trkpt lat="-34.1636303" lon="151.0822618"/><trkpt lat="-34.1640254" lon="151.0821088"/><trkpt lat="-34.1643581" lon="151.0819869"/><trkpt lat="-34.1645693" lon="151.0818124"/><trkpt lat="-34.164768" lon="151.0817466"/><trkpt lat="-34.1649989" lon="151.0816715"/><trkpt lat="-34.16504" lon="151.0815508"/><trkpt lat="-34.1651531" lon="151.0814582"/><trkpt lat="-34.1651554" lon="151.0812195"/><trkpt lat="-34.1651998" lon="151.0810317"/><trkpt lat="-34.1652753" lon="151.0809739"/><trkpt lat="-34.1654725" lon="151.080811"/><trkpt lat="-34.1655291" lon="151.0807043"/><trkpt lat="-34.1655868" lon="151.0804534"/><trkpt lat="-34.1656612" lon="151.0803112"/><trkpt lat="-34.1658877" lon="151.0801127"/><trkpt lat="-34.1659232" lon="151.0798698"/><trkpt lat="-34.1660119" lon="151.0796123"/><trkpt lat="-34.1660042" lon="151.0794661"/><trkpt lat="-34.1660974" lon="151.0792143"/><trkpt lat="-34.1661135" lon="151.078991"/><trkpt lat="-34.1662366" lon="151.0786435"/><trkpt lat="-34.1663247" lon="151.0782738"/><trkpt lat="-34.1664068" lon="151.0779698"/><trkpt lat="-34.1664285" lon="151.0778579"/><trkpt lat="-34.1664428" lon="151.0778182"/><trkpt lat="-34.166491" lon="151.0777147"/><trkpt lat="-34.1665442" lon="151.0776277"/><trkpt lat="-34.1665692" lon="151.0775311"/><trkpt lat="-34.1665642" lon="151.0774315"/><trkpt lat="-34.166513" lon="151.0772993"/><trkpt lat="-34.1665082" lon="151.0772088"/><trkpt lat="-34.1665805" lon="151.0770789"/><trkpt lat="-34.1665331" lon="151.0769873"/><trkpt lat="-34.166486" lon="151.0769073"/><trkpt lat="-34.1665413" lon="151.0767877"/><trkpt lat="-34.1665223" lon="151.0767039"/><trkpt lat="-34.1665565" lon="151.0766174"/><trkpt lat="-34.1664847" lon="151.076618"/><trkpt lat="-34.1664352" lon="151.0766059"/><trkpt lat="-34.1664328" lon="151.0765509"/><trkpt lat="-34.1665215" lon="151.0765319"/><trkpt lat="-34.1665474" lon="151.0764959"/><trkpt lat="-34.166609" lon="151.0764494"/><trkpt lat="-34.1666991" lon="151.07643"/><trkpt lat="-34.1666643" lon="151.0763915"/><trkpt lat="-34.1665984" lon="151.076328"/><trkpt lat="-34.166543" lon="151.07625"/><trkpt lat="-34.1664203" lon="151.0761854"/><trkpt lat="-34.1663323" lon="151.076125"/><trkpt lat="-34.166352" lon="151.0760757"/><trkpt lat="-34.1664444" lon="151.0760721"/><trkpt lat="-34.1665131" lon="151.0760549"/><trkpt lat="-34.1664467" lon="151.0760006"/><trkpt lat="-34.1664042" lon="151.0759787"/><trkpt lat="-34.1664054" lon="151.0759266"/><trkpt lat="-34.1664995" lon="151.0758964"/><trkpt lat="-34.1666353" lon="151.0758338"/><trkpt lat="-34.1667617" lon="151.0757949"/><trkpt lat="-34.1668425" lon="151.0757342"/><trkpt lat="-34.1668902" lon="151.0756774"/><trkpt lat="-34.1670014" lon="151.0756577"/><trkpt lat="-34.166899" lon="151.0755634"/><trkpt lat="-34.1669963" lon="151.075498"/><trkpt lat="-34.1671181" lon="151.0754739"/><trkpt lat="-34.1670784" lon="151.0754253"/><trkpt lat="-34.1670827" lon="151.075349"/><trkpt lat="-34.1671424" lon="151.0753091"/><trkpt lat="-34.1672168" lon="151.075351"/><trkpt lat="-34.1672475" lon="151.0753338"/><trkpt lat="-34.1672954" lon="151.0752912"/><trkpt lat="-34.1673595" lon="151.0752887"/><trkpt lat="-34.1673409" lon="151.0751868"/><trkpt lat="-34.1673566" lon="151.0750379"/><trkpt lat="-34.1673707" lon="151.0749279"/><trkpt lat="-34.1673362" lon="151.0747771"/><trkpt lat="-34.1673691" lon="151.0746623"/><trkpt lat="-34.1673385" lon="151.0745911"/><trkpt lat="-34.1673684" lon="151.0745115"/><trkpt lat="-34.1673456" lon="151.074446"/><trkpt lat="-34.167406" lon="151.0743473"/><trkpt lat="-34.1674037" lon="151.0742269"/><trkpt lat="-34.1673793" lon="151.0741747"/><trkpt lat="-34.1674877" lon="151.0740277"/><trkpt lat="-34.1674673" lon="151.0738294"/><trkpt lat="-34.1674814" lon="151.0736359"/><trkpt lat="-34.1675528" lon="151.0734415"/><trkpt lat="-34.1676336" lon="151.0733419"/><trkpt lat="-34.1676949" lon="151.0732669"/><trkpt lat="-34.1676933" lon="151.0730521"/><trkpt lat="-34.1677242" lon="151.0729506"/><trkpt lat="-34.1682037" lon="151.0713777"/><trkpt lat="-34.1684408" lon="151.0707635"/><trkpt lat="-34.1688632" lon="151.0696692"/><trkpt lat="-34.1691006" lon="151.0693953"/><trkpt lat="-34.1693009" lon="151.0691643"/><trkpt lat="-34.1696396" lon="151.0685968"/><trkpt lat="-34.1697938" lon="151.0683835"/><trkpt lat="-34.1698882" lon="151.068126"/><trkpt lat="-34.1700591" lon="151.0676202"/><trkpt lat="-34.1700968" lon="151.0673412"/><trkpt lat="-34.1700624" lon="151.0671011"/><trkpt lat="-34.1700258" lon="151.066924"/><trkpt lat="-34.1699914" lon="151.0667174"/><trkpt lat="-34.170001" lon="151.0666196"/><trkpt lat="-34.170019" lon="151.0665949"/><trkpt lat="-34.1700765" lon="151.0665163"/><trkpt lat="-34.1701592" lon="151.0664596"/><trkpt lat="-34.1702411" lon="151.0664035"/><trkpt lat="-34.1703251" lon="151.0663405"/><trkpt lat="-34.1704539" lon="151.0664613"/><trkpt lat="-34.1705496" lon="151.0665289"/><trkpt lat="-34.1708285" lon="151.0665431"/><trkpt lat="-34.1709184" lon="151.0665322"/><trkpt lat="-34.1710312" lon="151.0664773"/><trkpt lat="-34.1712287" lon="151.0663244"/><trkpt lat="-34.1715464" lon="151.0660782"/><trkpt lat="-34.1716918" lon="151.0659113"/><trkpt lat="-34.1718504" lon="151.065747"/><trkpt lat="-34.1719975" lon="151.0656652"/><trkpt lat="-34.1721212" lon="151.0654861"/><trkpt lat="-34.1722277" lon="151.0653058"/><trkpt lat="-34.1724226" lon="151.0650047"/><trkpt lat="-34.1727134" lon="151.0646722"/><trkpt lat="-34.1728132" lon="151.0645595"/><trkpt lat="-34.1729464" lon="151.0645005"/><trkpt lat="-34.1730377" lon="151.0643958"/><trkpt lat="-34.1732304" lon="151.0641384"/><trkpt lat="-34.1734016" lon="151.0639117"/><trkpt lat="-34.173497" lon="151.0637688"/><trkpt lat="-34.1735459" lon="151.0636374"/><trkpt lat="-34.1737212" lon="151.0632036"/><trkpt lat="-34.1738299" lon="151.0629421"/><trkpt lat="-34.1739309" lon="151.062755"/><trkpt lat="-34.1739015" lon="151.0626498"/><trkpt lat="-34.1739198" lon="151.0625927"/><trkpt lat="-34.173938" lon="151.0625363"/><trkpt lat="-34.1739991" lon="151.0623473"/><trkpt lat="-34.1740795" lon="151.0622869"/><trkpt lat="-34.1741428" lon="151.062293"/><trkpt lat="-34.174185" lon="151.0622554"/><trkpt lat="-34.1742249" lon="151.0621709"/><trkpt lat="-34.1742881" lon="151.0621441"/><trkpt lat="-34.1743253" lon="151.0621045"/><trkpt lat="-34.174418" lon="151.0620596"/><trkpt lat="-34.1745015" lon="151.0620669"/><trkpt lat="-34.1746182" lon="151.0620301"/><trkpt lat="-34.1747286" lon="151.0620314"/><trkpt lat="-34.1748324" lon="151.0619879"/><trkpt lat="-34.1748706" lon="151.0618967"/><trkpt lat="-34.174915" lon="151.061786"/><trkpt lat="-34.1749849" lon="151.0617284"/><trkpt lat="-34.1750221" lon="151.0617116"/><trkpt lat="-34.1750776" lon="151.061723"/><trkpt lat="-34.1751214" lon="151.061733"/><trkpt lat="-34.1751569" lon="151.0617444"/><trkpt lat="-34.1752335" lon="151.0617619"/><trkpt lat="-34.1752895" lon="151.0617471"/><trkpt lat="-34.175386" lon="151.0617672"/><trkpt lat="-34.1754282" lon="151.0617961"/><trkpt lat="-34.1754703" lon="151.0617968"/><trkpt lat="-34.1755463" lon="151.0618028"/><trkpt lat="-34.175634" lon="151.0618651"/><trkpt lat="-34.1756961" lon="151.0619644"/><trkpt lat="-34.1757339" lon="151.0620388"/><trkpt lat="-34.1757738" lon="151.0620951"/><trkpt lat="-34.1758642" lon="151.0621917"/><trkpt lat="-34.1759264" lon="151.0622118"/><trkpt lat="-34.1759661" lon="151.0621725"/><trkpt lat="-34.1759688" lon="151.062127"/><trkpt lat="-34.1760032" lon="151.0620854"/><trkpt lat="-34.1760592" lon="151.0621035"/><trkpt lat="-34.1761164" lon="151.0620921"/><trkpt lat="-34.1761713" lon="151.0621029"/><trkpt lat="-34.1762112" lon="151.0620197"/><trkpt lat="-34.1762506" lon="151.0620123"/><trkpt lat="-34.1762994" lon="151.0620465"/><trkpt lat="-34.1763416" lon="151.0620271"/><trkpt lat="-34.1763682" lon="151.0619614"/><trkpt lat="-34.1763682" lon="151.0618588"/><trkpt lat="-34.1763643" lon="151.0616972"/><trkpt lat="-34.1764115" lon="151.0616087"/><trkpt lat="-34.1764864" lon="151.0616335"/><trkpt lat="-34.1765258" lon="151.0616046"/><trkpt lat="-34.1765723" lon="151.0615283"/><trkpt lat="-34.1765501" lon="151.0614371"/><trkpt lat="-34.1765901" lon="151.0613761"/><trkpt lat="-34.1765984" lon="151.0612949"/><trkpt lat="-34.176569" lon="151.0611418"/><trkpt lat="-34.1764985" lon="151.0609791"/><trkpt lat="-34.1764708" lon="151.0608403"/><trkpt lat="-34.1764988" lon="151.0607461"/><trkpt lat="-34.1766696" lon="151.0606731"/><trkpt lat="-34.1767749" lon="151.0606041"/><trkpt lat="-34.1768292" lon="151.0604264"/><trkpt lat="-34.1768669" lon="151.0603652"/><trkpt lat="-34.1769715" lon="151.0603082"/><trkpt lat="-34.1770131" lon="151.0602827"/><trkpt lat="-34.1770103" lon="151.0601956"/><trkpt lat="-34.1770325" lon="151.0601473"/><trkpt lat="-34.1770778" lon="151.0600367"/><trkpt lat="-34.1771168" lon="151.0599052"/><trkpt lat="-34.1771168" lon="151.0597329"/><trkpt lat="-34.1771762" lon="151.0596477"/><trkpt lat="-34.1772128" lon="151.0595076"/><trkpt lat="-34.1772666" lon="151.0592038"/><trkpt lat="-34.177256" lon="151.0591421"/><trkpt lat="-34.1772804" lon="151.0590999"/><trkpt lat="-34.1772804" lon="151.0590529"/><trkpt lat="-34.1773087" lon="151.059008"/><trkpt lat="-34.1773659" lon="151.0589879"/><trkpt lat="-34.1773942" lon="151.0589101"/><trkpt lat="-34.1773858" lon="151.0587056"/><trkpt lat="-34.177362" lon="151.0586305"/><trkpt lat="-34.1773487" lon="151.0584937"/><trkpt lat="-34.1773143" lon="151.0583489"/><trkpt lat="-34.1773198" lon="151.058259"/><trkpt lat="-34.1772849" lon="151.0581336"/><trkpt lat="-34.1771817" lon="151.0579103"/><trkpt lat="-34.1771628" lon="151.0577547"/><trkpt lat="-34.1771085" lon="151.0576535"/><trkpt lat="-34.1770613" lon="151.0574952"/><trkpt lat="-34.1769903" lon="151.0572089"/><trkpt lat="-34.1770036" lon="151.0571338"/><trkpt lat="-34.1770452" lon="151.0570842"/><trkpt lat="-34.177119" lon="151.0570681"/><trkpt lat="-34.177185" lon="151.0570922"/><trkpt lat="-34.1772228" lon="151.0570554"/><trkpt lat="-34.1772699" lon="151.0570187"/><trkpt lat="-34.1773942" lon="151.05702"/><trkpt lat="-34.1775355" lon="151.0571277"/><trkpt lat="-34.1776523" lon="151.0571295"/><trkpt lat="-34.1776593" lon="151.0570974"/><trkpt lat="-34.1776696" lon="151.0570508"/><trkpt lat="-34.177534" lon="151.0569863"/><trkpt lat="-34.1773953" lon="151.0568938"/><trkpt lat="-34.1773503" lon="151.0566973"/><trkpt lat="-34.1773259" lon="151.0564559"/><trkpt lat="-34.1772868" lon="151.0562258"/><trkpt lat="-34.1774256" lon="151.0560309"/><trkpt lat="-34.1774969" lon="151.0558722"/><trkpt lat="-34.1777708" lon="151.0557808"/><trkpt lat="-34.1778512" lon="151.0557764"/><trkpt lat="-34.1779683" lon="151.0558051"/><trkpt lat="-34.1780712" lon="151.0559121"/><trkpt lat="-34.1781146" lon="151.055813"/><trkpt lat="-34.1781647" lon="151.0555976"/><trkpt lat="-34.178264" lon="151.0554527"/><trkpt lat="-34.1784005" lon="151.0553394"/><trkpt lat="-34.1785669" lon="151.0552804"/><trkpt lat="-34.1786662" lon="151.0551195"/><trkpt lat="-34.1787638" lon="151.0550967"/><trkpt lat="-34.1789081" lon="151.055043"/><trkpt lat="-34.1790989" lon="151.0549907"/><trkpt lat="-34.1792658" lon="151.0548241"/><trkpt lat="-34.1793641" lon="151.0547641"/><trkpt lat="-34.1794326" lon="151.0546591"/><trkpt lat="-34.1794992" lon="151.0544341"/><trkpt lat="-34.179551" lon="151.054225"/><trkpt lat="-34.1796708" lon="151.0539956"/><trkpt lat="-34.1797579" lon="151.0537971"/><trkpt lat="-34.1798406" lon="151.0536013"/><trkpt lat="-34.1798567" lon="151.0534713"/><trkpt lat="-34.1799266" lon="151.0533338"/><trkpt lat="-34.1800026" lon="151.0532513"/><trkpt lat="-34.1801141" lon="151.0532138"/><trkpt lat="-34.1801892" lon="151.0532848"/><trkpt lat="-34.1802602" lon="151.0533935"/><trkpt lat="-34.1804067" lon="151.0534243"/><trkpt lat="-34.1806707" lon="151.0532191"/><trkpt lat="-34.1808335" lon="151.0528802"/><trkpt lat="-34.1808966" lon="151.0527134"/><trkpt lat="-34.1809547" lon="151.0525597"/><trkpt lat="-34.1810918" lon="151.0521771"/><trkpt lat="-34.1811656" lon="151.0520832"/><trkpt lat="-34.1812288" lon="151.052047"/><trkpt lat="-34.1812571" lon="151.0519652"/><trkpt lat="-34.1813858" lon="151.051935"/><trkpt lat="-34.1815328" lon="151.0520229"/><trkpt lat="-34.1816548" lon="151.051986"/><trkpt lat="-34.1817913" lon="151.0518914"/><trkpt lat="-34.1820981" lon="151.0516027"/><trkpt lat="-34.1821829" lon="151.0515816"/><trkpt lat="-34.1823632" lon="151.0515421"/><trkpt lat="-34.1826108" lon="151.0514533"/><trkpt lat="-34.182801" lon="151.0512109"/><trkpt lat="-34.1829447" lon="151.0510406"/><trkpt lat="-34.1831151" lon="151.0509462"/><trkpt lat="-34.1833051" lon="151.0506985"/><trkpt lat="-34.1834637" lon="151.0504048"/><trkpt lat="-34.1835312" lon="151.0502637"/><trkpt lat="-34.1835438" lon="151.0502342"/><trkpt lat="-34.1836362" lon="151.0501611"/><trkpt lat="-34.1837842" lon="151.0500164"/><trkpt lat="-34.1838053" lon="151.0499139"/><trkpt lat="-34.1838142" lon="151.0497499"/><trkpt lat="-34.1838304" lon="151.049577"/><trkpt lat="-34.1839696" lon="151.0494077"/><trkpt lat="-34.1841039" lon="151.0492159"/><trkpt lat="-34.1841111" lon="151.0490505"/><trkpt lat="-34.1842045" lon="151.0488711"/><trkpt lat="-34.1842497" lon="151.0487683"/><trkpt lat="-34.1842492" lon="151.0485686"/><trkpt lat="-34.1843385" lon="151.0484689"/><trkpt lat="-34.1844389" lon="151.04843"/><trkpt lat="-34.1845778" lon="151.0483455"/><trkpt lat="-34.1847257" lon="151.0482228"/><trkpt lat="-34.1848831" lon="151.0481309"/><trkpt lat="-34.1849759" lon="151.0479601"/><trkpt lat="-34.1849722" lon="151.0478967"/><trkpt lat="-34.1851157" lon="151.0477655"/><trkpt lat="-34.1851578" lon="151.0476395"/><trkpt lat="-34.1851134" lon="151.0474061"/><trkpt lat="-34.1851251" lon="151.0473297"/><trkpt lat="-34.1850397" lon="151.0472485"/><trkpt lat="-34.1849487" lon="151.047103"/><trkpt lat="-34.1848483" lon="151.0468918"/><trkpt lat="-34.1847351" lon="151.0467537"/><trkpt lat="-34.1846558" lon="151.0465612"/><trkpt lat="-34.1846453" lon="151.0464854"/><trkpt lat="-34.1846442" lon="151.0464271"/><trkpt lat="-34.184693" lon="151.046358"/><trkpt lat="-34.184622" lon="151.0461408"/><trkpt lat="-34.1846364" lon="151.0459752"/><trkpt lat="-34.1846142" lon="151.0458035"/><trkpt lat="-34.1846358" lon="151.0455856"/><trkpt lat="-34.1846891" lon="151.0454327"/><trkpt lat="-34.1847349" lon="151.0453435"/><trkpt lat="-34.1848097" lon="151.045284"/><trkpt lat="-34.1849078" lon="151.0452717"/><trkpt lat="-34.1849512" lon="151.0452289"/><trkpt lat="-34.1849753" lon="151.0451456"/><trkpt lat="-34.1850131" lon="151.0450709"/><trkpt lat="-34.1850931" lon="151.0449495"/><trkpt lat="-34.1851983" lon="151.0447975"/><trkpt lat="-34.1852487" lon="151.044746"/><trkpt lat="-34.1853654" lon="151.0447139"/><trkpt lat="-34.1855805" lon="151.044677"/><trkpt lat="-34.1856474" lon="151.0446439"/><trkpt lat="-34.1857084" lon="151.0445881"/><trkpt lat="-34.1857376" lon="151.0445083"/><trkpt lat="-34.185756" lon="151.0444296"/><trkpt lat="-34.1857666" lon="151.0443389"/><trkpt lat="-34.1857743" lon="151.0443026"/><trkpt lat="-34.1857742" lon="151.0442557"/><trkpt lat="-34.1857778" lon="151.0442033"/><trkpt lat="-34.18579" lon="151.0441692"/><trkpt lat="-34.1858032" lon="151.0441287"/><trkpt lat="-34.1858097" lon="151.0440934"/><trkpt lat="-34.1858149" lon="151.0440741"/><trkpt lat="-34.1858753" lon="151.0440076"/><trkpt lat="-34.18599" lon="151.0438767"/><trkpt lat="-34.1860019" lon="151.0437839"/><trkpt lat="-34.1860548" lon="151.0437029"/><trkpt lat="-34.1861606" lon="151.0433473"/><trkpt lat="-34.1862742" lon="151.043064"/><trkpt lat="-34.186473" lon="151.042858"/><trkpt lat="-34.1865706" lon="151.0424065"/><trkpt lat="-34.1866571" lon="151.0422618"/><trkpt lat="-34.1867504" lon="151.0421056"/><trkpt lat="-34.1869736" lon="151.0418626"/><trkpt lat="-34.1871688" lon="151.0416339"/><trkpt lat="-34.1873138" lon="151.0415572"/><trkpt lat="-34.1876019" lon="151.0414863"/><trkpt lat="-34.1877544" lon="151.0414222"/><trkpt lat="-34.1878752" lon="151.0413713"/><trkpt lat="-34.1879272" lon="151.0413108"/><trkpt lat="-34.1879803" lon="151.0412793"/><trkpt lat="-34.1880923" lon="151.041213"/><trkpt lat="-34.1884706" lon="151.0409763"/><trkpt lat="-34.1888338" lon="151.0405227"/><trkpt lat="-34.1890057" lon="151.0403998"/><trkpt lat="-34.1890975" lon="151.0403364"/><trkpt lat="-34.1891675" lon="151.0402934"/><trkpt lat="-34.1892841" lon="151.0402554"/><trkpt lat="-34.1895975" lon="151.0400775"/><trkpt lat="-34.1897343" lon="151.0399646"/><trkpt lat="-34.189798" lon="151.0399386"/><trkpt lat="-34.1898603" lon="151.0399128"/><trkpt lat="-34.1898718" lon="151.0398386"/><trkpt lat="-34.1899483" lon="151.0397268"/><trkpt lat="-34.1900218" lon="151.0396658"/><trkpt lat="-34.190167" lon="151.0395626"/><trkpt lat="-34.19035" lon="151.039554"/><trkpt lat="-34.1905906" lon="151.0395546"/><trkpt lat="-34.1907026" lon="151.039376"/><trkpt lat="-34.1907898" lon="151.0391066"/><trkpt lat="-34.1908186" lon="151.0388784"/><trkpt lat="-34.1908541" lon="151.038784"/><trkpt lat="-34.1909819" lon="151.0386295"/><trkpt lat="-34.1910742" lon="151.0384664"/><trkpt lat="-34.1911239" lon="151.0383634"/><trkpt lat="-34.1914079" lon="151.0381402"/><trkpt lat="-34.1916351" lon="151.0379171"/><trkpt lat="-34.1917925" lon="151.0378322"/><trkpt lat="-34.191865" lon="151.0377931"/><trkpt lat="-34.1919404" lon="151.0377099"/><trkpt lat="-34.1920813" lon="151.0376677"/><trkpt lat="-34.1922904" lon="151.0375644"/><trkpt lat="-34.1924856" lon="151.0375906"/><trkpt lat="-34.1926936" lon="151.0376313"/><trkpt lat="-34.1928257" lon="151.0377191"/><trkpt lat="-34.1930034" lon="151.0378424"/><trkpt lat="-34.1931429" lon="151.0378125"/><trkpt lat="-34.1932155" lon="151.0378836"/><trkpt lat="-34.1934368" lon="151.0379346"/><trkpt lat="-34.19356" lon="151.0378823"/><trkpt lat="-34.193611" lon="151.0377595"/><trkpt lat="-34.1936165" lon="151.0374947"/><trkpt lat="-34.1935583" lon="151.0371648"/><trkpt lat="-34.1934901" lon="151.0369401"/><trkpt lat="-34.1934938" lon="151.0367693"/><trkpt lat="-34.1935232" lon="151.0366473"/><trkpt lat="-34.1935765" lon="151.0365547"/><trkpt lat="-34.1936231" lon="151.0362972"/><trkpt lat="-34.1937484" lon="151.0360558"/><trkpt lat="-34.1938222" lon="151.0359003"/><trkpt lat="-34.1939365" lon="151.0356334"/><trkpt lat="-34.1940385" lon="151.0354242"/><trkpt lat="-34.194033" lon="151.0352713"/><trkpt lat="-34.1941716" lon="151.035046"/><trkpt lat="-34.1941483" lon="151.0348958"/><trkpt lat="-34.1941794" lon="151.0347214"/><trkpt lat="-34.1942326" lon="151.0345323"/><trkpt lat="-34.1942722" lon="151.0343381"/><trkpt lat="-34.1942981" lon="151.0341622"/><trkpt lat="-34.1944256" lon="151.034016"/><trkpt lat="-34.1945588" lon="151.0339168"/><trkpt lat="-34.1946386" lon="151.0337813"/><trkpt lat="-34.1947595" lon="151.0336646"/><trkpt lat="-34.1949237" lon="151.0335493"/><trkpt lat="-34.1950718" lon="151.0334662"/><trkpt lat="-34.1951949" lon="151.0332791"/><trkpt lat="-34.195399" lon="151.0330243"/><trkpt lat="-34.1954661" lon="151.0328164"/><trkpt lat="-34.1954733" lon="151.0326803"/><trkpt lat="-34.1955721" lon="151.0325187"/><trkpt lat="-34.1956176" lon="151.0324362"/><trkpt lat="-34.1956758" lon="151.0324107"/><trkpt lat="-34.195785" lon="151.0322867"/><trkpt lat="-34.1958095" lon="151.0321646"/><trkpt lat="-34.1959159" lon="151.0319963"/><trkpt lat="-34.1960369" lon="151.0317616"/><trkpt lat="-34.1960746" lon="151.031539"/><trkpt lat="-34.1961566" lon="151.0313915"/><trkpt lat="-34.1963253" lon="151.0309556"/><trkpt lat="-34.1964312" lon="151.0308416"/><trkpt lat="-34.1964972" lon="151.0306907"/><trkpt lat="-34.1966364" lon="151.0305801"/><trkpt lat="-34.196714" lon="151.0305915"/><trkpt lat="-34.1967817" lon="151.0305151"/><trkpt lat="-34.1968616" lon="151.0305057"/><trkpt lat="-34.1969326" lon="151.0303608"/><trkpt lat="-34.1970402" lon="151.030332"/><trkpt lat="-34.197074" lon="151.0302415"/><trkpt lat="-34.1971394" lon="151.0302294"/><trkpt lat="-34.1973136" lon="151.0300926"/><trkpt lat="-34.197776" lon="151.0294456"/><trkpt lat="-34.1978904" lon="151.0292846"/><trkpt lat="-34.1980113" lon="151.0291626"/><trkpt lat="-34.1980989" lon="151.0290901"/><trkpt lat="-34.1981355" lon="151.0289587"/><trkpt lat="-34.1982398" lon="151.0286234"/><trkpt lat="-34.1983163" lon="151.0285966"/><trkpt lat="-34.1984794" lon="151.0282305"/><trkpt lat="-34.1985482" lon="151.0280897"/><trkpt lat="-34.1986713" lon="151.0280333"/><trkpt lat="-34.1987445" lon="151.0279234"/><trkpt lat="-34.1989402" lon="151.0277633"/><trkpt lat="-34.1990495" lon="151.0275841"/><trkpt lat="-34.1991416" lon="151.0273454"/><trkpt lat="-34.1992786" lon="151.0267753"/><trkpt lat="-34.1993546" lon="151.0261384"/><trkpt lat="-34.1994045" lon="151.0258245"/><trkpt lat="-34.1994211" lon="151.0255952"/><trkpt lat="-34.1995465" lon="151.0253941"/><trkpt lat="-34.1996474" lon="151.0251862"/><trkpt lat="-34.1996973" lon="151.0250279"/><trkpt lat="-34.1997383" lon="151.0247906"/><trkpt lat="-34.1998337" lon="151.0245398"/><trkpt lat="-34.2000034" lon="151.0242555"/><trkpt lat="-34.2001698" lon="151.0239296"/><trkpt lat="-34.2002053" lon="151.0237485"/><trkpt lat="-34.2000778" lon="151.0236325"/><trkpt lat="-34.19976" lon="151.0235842"/><trkpt lat="-34.1994572" lon="151.0236459"/><trkpt lat="-34.199126" lon="151.0235611"/><trkpt lat="-34.1989159" lon="151.0235165"/><trkpt lat="-34.1988321" lon="151.0234515"/><trkpt lat="-34.1988332" lon="151.0233073"/><trkpt lat="-34.1988337" lon="151.0231027"/><trkpt lat="-34.1987693" lon="151.0229711"/><trkpt lat="-34.1986634" lon="151.0228109"/><trkpt lat="-34.1986009" lon="151.0226133"/><trkpt lat="-34.1985569" lon="151.022459"/><trkpt lat="-34.198422" lon="151.0220985"/><trkpt lat="-34.1983368" lon="151.0217723"/><trkpt lat="-34.1982675" lon="151.0215189"/><trkpt lat="-34.1980601" lon="151.0214458"/><trkpt lat="-34.1980584" lon="151.021293"/><trkpt lat="-34.1980316" lon="151.0209827"/><trkpt lat="-34.1980245" lon="151.0208539"/><trkpt lat="-34.1979393" lon="151.0207338"/><trkpt lat="-34.197918" lon="151.0205278"/><trkpt lat="-34.1978482" lon="151.0204434"/><trkpt lat="-34.1977255" lon="151.0202249"/><trkpt lat="-34.1976691" lon="151.0198681"/><trkpt lat="-34.1976331" lon="151.019683"/><trkpt lat="-34.1974849" lon="151.0195236"/><trkpt lat="-34.1974179" lon="151.0190573"/><trkpt lat="-34.1975083" lon="151.0186852"/><trkpt lat="-34.1974059" lon="151.0183714"/><trkpt lat="-34.1975421" lon="151.0181722"/><trkpt lat="-34.1979277" lon="151.0176984"/><trkpt lat="-34.1982309" lon="151.0170819"/><trkpt lat="-34.1987711" lon="151.0163456"/><trkpt lat="-34.1993218" lon="151.0158575"/><trkpt lat="-34.1996091" lon="151.0155892"/><trkpt lat="-34.1999885" lon="151.0152493"/><trkpt lat="-34.2001759" lon="151.015085"/><trkpt lat="-34.2003917" lon="151.0150776"/><trkpt lat="-34.200806" lon="151.0149723"/><trkpt lat="-34.201142" lon="151.0148825"/><trkpt lat="-34.2017116" lon="151.0146806"/><trkpt lat="-34.2020455" lon="151.0144413"/><trkpt lat="-34.2023527" lon="151.0142924"/><trkpt lat="-34.2026073" lon="151.0141154"/><trkpt lat="-34.2030851" lon="151.0137267"/><trkpt lat="-34.2031416" lon="151.0135981"/><trkpt lat="-34.2032217" lon="151.0135041"/><trkpt lat="-34.2033356" lon="151.0134649"/><trkpt lat="-34.2035141" lon="151.0134819"/><trkpt lat="-34.2036793" lon="151.0135149"/><trkpt lat="-34.2039225" lon="151.0135533"/><trkpt lat="-34.2040377" lon="151.0136387"/><trkpt lat="-34.2041071" lon="151.0136625"/><trkpt lat="-34.2042779" lon="151.0136453"/><trkpt lat="-34.204408" lon="151.0135848"/><trkpt lat="-34.2045147" lon="151.0135646"/><trkpt lat="-34.2046252" lon="151.0135654"/><trkpt lat="-34.204747" lon="151.0135353"/><trkpt lat="-34.2048106" lon="151.0135062"/><trkpt lat="-34.2048765" lon="151.0134986"/><trkpt lat="-34.2050214" lon="151.0134914"/><trkpt lat="-34.2050921" lon="151.0134399"/><trkpt lat="-34.2051761" lon="151.0134206"/><trkpt lat="-34.2053901" lon="151.0135028"/><trkpt lat="-34.2056575" lon="151.0135059"/><trkpt lat="-34.206039" lon="151.0136597"/><trkpt lat="-34.2063351" lon="151.0136812"/><trkpt lat="-34.2066639" lon="151.0135552"/><trkpt lat="-34.2069917" lon="151.0134545"/><trkpt lat="-34.2073655" lon="151.0132829"/><trkpt lat="-34.2075812" lon="151.0132037"/><trkpt lat="-34.2078047" lon="151.0131608"/><trkpt lat="-34.2078817" lon="151.0131649"/><trkpt lat="-34.2079583" lon="151.0131333"/><trkpt lat="-34.208032" lon="151.0130509"/><trkpt lat="-34.2080653" lon="151.0128691"/><trkpt lat="-34.2081374" lon="151.0127914"/><trkpt lat="-34.2083586" lon="151.0127223"/><trkpt lat="-34.2085156" lon="151.01279"/><trkpt lat="-34.2086326" lon="151.0128675"/><trkpt lat="-34.2087252" lon="151.012902"/><trkpt lat="-34.2088771" lon="151.0128906"/><trkpt lat="-34.208957" lon="151.0128524"/><trkpt lat="-34.2089997" lon="151.0127706"/><trkpt lat="-34.2090596" lon="151.012737"/><trkpt lat="-34.2090757" lon="151.0126874"/><trkpt lat="-34.2091545" lon="151.0126336"/><trkpt lat="-34.2091974" lon="151.012576"/><trkpt lat="-34.2092204" lon="151.0125104"/><trkpt lat="-34.2092496" lon="151.0124546"/><trkpt lat="-34.2093188" lon="151.0124296"/><trkpt lat="-34.2093902" lon="151.0124054"/><trkpt lat="-34.2094323" lon="151.0123782"/><trkpt lat="-34.2094512" lon="151.0123534"/><trkpt lat="-34.2094442" lon="151.0123345"/><trkpt lat="-34.2093899" lon="151.0123075"/><trkpt lat="-34.2093837" lon="151.0122733"/><trkpt lat="-34.2094749" lon="151.0121973"/><trkpt lat="-34.2095149" lon="151.0121281"/><trkpt lat="-34.2096243" lon="151.0120844"/><trkpt lat="-34.2097522" lon="151.0120249"/><trkpt lat="-34.209771" lon="151.0120202"/><trkpt lat="-34.2099572" lon="151.0119741"/><trkpt lat="-34.2101291" lon="151.0119487"/><trkpt lat="-34.2102404" lon="151.0118545"/><trkpt lat="-34.2103506" lon="151.0117634"/><trkpt lat="-34.2104903" lon="151.0116554"/><trkpt lat="-34.2106345" lon="151.0115354"/><trkpt lat="-34.2108363" lon="151.011414"/><trkpt lat="-34.2110415" lon="151.0112229"/><trkpt lat="-34.2112056" lon="151.0112199"/><trkpt lat="-34.2112275" lon="151.0111989"/><trkpt lat="-34.2112408" lon="151.0111766"/><trkpt lat="-34.2112426" lon="151.0111375"/><trkpt lat="-34.2112455" lon="151.0110946"/><trkpt lat="-34.2112563" lon="151.0110259"/><trkpt lat="-34.2112591" lon="151.0109923"/><trkpt lat="-34.2112761" lon="151.0109762"/><trkpt lat="-34.2112943" lon="151.0109584"/><trkpt lat="-34.2113146" lon="151.0109355"/><trkpt lat="-34.2113303" lon="151.010903"/><trkpt lat="-34.2113326" lon="151.0108708"/><trkpt lat="-34.2113295" lon="151.0108389"/><trkpt lat="-34.2113194" lon="151.0107902"/><trkpt lat="-34.2112591" lon="151.0107714"/></trkseg></trk></gpx>