<?xml version="1.0" encoding="UTF-8" standalone="no" ?>

<gpx xmlns="http://www.topografix.com/GPX/1/1" xmlns:xsi="http://www.w3.org/2001/XMLSchema-instance" xsi:schemaLocation="http://www.topografix.com/GPX/1/1 http://www.topografix.com/GPX/1/1/gpx.xsd" version="1.1" creator="waymarkedtrails.org"><metadata><name>Wulugul Walk</name><copyright author="OpenStreetMap and Contributors"><license>https://www.openstreetmap.org/copyright</license></copyright><link href="https://hiking.waymarkedtrails.org/#route?id=13853401&amp;type=relation"><text>WaymarkedTrails</text></link><time>2025-10-17T20:39:00.314Z</time></metadata><trk><trkseg><trkpt lat="-33.8562911" lon="151.2023268"/><trkpt lat="-33.8562717" lon="151.2023098"/><trkpt lat="-33.8560759" lon="151.2021433"/><trkpt lat="-33.8560483" lon="151.2021068"/><trkpt lat="-33.8559557" lon="151.2019614"/><trkpt lat="-33.8558692" lon="151.2018295"/><trkpt lat="-33.8557854" lon="151.2017535"/><trkpt lat="-33.8556714" lon="151.201673"/><trkpt lat="-33.8556488" lon="151.2016424"/><trkpt lat="-33.8556218" lon="151.2015927"/><trkpt lat="-33.8556026" lon="151.201527"/><trkpt lat="-33.8555997" lon="151.2014659"/><trkpt lat="-33.8556079" lon="151.2014049"/><trkpt lat="-33.8556359" lon="151.201322"/><trkpt lat="-33.8556517" lon="151.2012337"/><trkpt lat="-33.8556555" lon="151.2011641"/><trkpt lat="-33.855646" lon="151.2010945"/><trkpt lat="-33.8556272" lon="151.2010344"/><trkpt lat="-33.8556151" lon="151.2009743"/><trkpt lat="-33.8556112" lon="151.2009456"/><trkpt lat="-33.8556107" lon="151.2009075"/><trkpt lat="-33.8556146" lon="151.2008727"/><trkpt lat="-33.8556219" lon="151.20084"/><trkpt lat="-33.855629" lon="151.2008042"/><trkpt lat="-33.8556423" lon="151.2007656"/><trkpt lat="-33.8556619" lon="151.200721"/><trkpt lat="-33.8556895" lon="151.2006679"/><trkpt lat="-33.8557211" lon="151.2006299"/><trkpt lat="-33.8557527" lon="151.2006"/><trkpt lat="-33.8558026" lon="151.2005568"/><trkpt lat="-33.855838" lon="151.2005344"/><trkpt lat="-33.8558745" lon="151.2005173"/><trkpt lat="-33.8559337" lon="151.2004969"/><trkpt lat="-33.8559752" lon="151.2004885"/><trkpt lat="-33.8560185" lon="151.2004858"/><trkpt lat="-33.8560709" lon="151.2004845"/><trkpt lat="-33.8561168" lon="151.2004828"/><trkpt lat="-33.8561414" lon="151.200479"/><trkpt lat="-33.8561672" lon="151.2004738"/><trkpt lat="-33.8562229" lon="151.2004611"/><trkpt lat="-33.8562668" lon="151.2004493"/><trkpt lat="-33.8563125" lon="151.2004416"/><trkpt lat="-33.8563676" lon="151.200437"/><trkpt lat="-33.8564306" lon="151.2004364"/><trkpt lat="-33.8564784" lon="151.2004384"/><trkpt lat="-33.8565404" lon="151.2004424"/><trkpt lat="-33.856628" lon="151.2004611"/><trkpt lat="-33.8566864" lon="151.2004789"/><trkpt lat="-33.8567585" lon="151.2005019"/><trkpt lat="-33.8568179" lon="151.2005154"/><trkpt lat="-33.8568738" lon="151.2005275"/><trkpt lat="-33.8569213" lon="151.2005349"/><trkpt lat="-33.8569631" lon="151.2005405"/><trkpt lat="-33.8570061" lon="151.2005435"/><trkpt lat="-33.8570714" lon="151.2005463"/><trkpt lat="-33.8571367" lon="151.2005437"/><trkpt lat="-33.8572278" lon="151.2005325"/><trkpt lat="-33.8572678" lon="151.2005202"/><trkpt lat="-33.8573178" lon="151.2005065"/><trkpt lat="-33.857348" lon="151.2004947"/><trkpt lat="-33.8573776" lon="151.2004796"/><trkpt lat="-33.857409" lon="151.2004607"/><trkpt lat="-33.8574392" lon="151.2004365"/><trkpt lat="-33.8574718" lon="151.2004032"/><trkpt lat="-33.8575066" lon="151.2003692"/><trkpt lat="-33.85753" lon="151.2003473"/><trkpt lat="-33.8575622" lon="151.2003248"/><trkpt lat="-33.8575961" lon="151.2003062"/><trkpt lat="-33.8576307" lon="151.2002879"/><trkpt lat="-33.8576698" lon="151.2002749"/><trkpt lat="-33.8577095" lon="151.2002665"/><trkpt lat="-33.8577498" lon="151.2002642"/><trkpt lat="-33.857823" lon="151.2002676"/><trkpt lat="-33.8578594" lon="151.2002717"/><trkpt lat="-33.8578946" lon="151.2002784"/><trkpt lat="-33.8579506" lon="151.2002887"/><trkpt lat="-33.8579965" lon="151.2002959"/><trkpt lat="-33.8580423" lon="151.2003098"/><trkpt lat="-33.8580964" lon="151.2003383"/><trkpt lat="-33.8581238" lon="151.2003569"/><trkpt lat="-33.8581478" lon="151.2003695"/><trkpt lat="-33.8581764" lon="151.2003755"/><trkpt lat="-33.858205" lon="151.2003775"/><trkpt lat="-33.858237" lon="151.2003809"/><trkpt lat="-33.8582634" lon="151.2003909"/><trkpt lat="-33.8582995" lon="151.2004056"/><trkpt lat="-33.8583297" lon="151.2004277"/><trkpt lat="-33.8583511" lon="151.2004498"/><trkpt lat="-33.8583756" lon="151.2004863"/><trkpt lat="-33.8583984" lon="151.2005355"/><trkpt lat="-33.858414" lon="151.2005739"/><trkpt lat="-33.8584331" lon="151.2006148"/><trkpt lat="-33.8584543" lon="151.2006524"/><trkpt lat="-33.8584806" lon="151.2006913"/><trkpt lat="-33.8585134" lon="151.2007298"/><trkpt lat="-33.8585533" lon="151.2007666"/><trkpt lat="-33.8585882" lon="151.2007936"/><trkpt lat="-33.8586193" lon="151.2008227"/><trkpt lat="-33.8586574" lon="151.2008684"/><trkpt lat="-33.8586833" lon="151.2009141"/><trkpt lat="-33.8587028" lon="151.2009542"/><trkpt lat="-33.8587189" lon="151.2009957"/><trkpt lat="-33.858736" lon="151.2010463"/><trkpt lat="-33.858743" lon="151.2010968"/><trkpt lat="-33.858746" lon="151.2011584"/><trkpt lat="-33.8587469" lon="151.2012013"/><trkpt lat="-33.8587423" lon="151.2012402"/><trkpt lat="-33.8587289" lon="151.2013014"/><trkpt lat="-33.8587089" lon="151.2013571"/><trkpt lat="-33.8586728" lon="151.2014293"/><trkpt lat="-33.8586394" lon="151.2015068"/><trkpt lat="-33.8586188" lon="151.2015609"/><trkpt lat="-33.8585955" lon="151.2016295"/><trkpt lat="-33.8585834" lon="151.2016948"/><trkpt lat="-33.8585795" lon="151.2017754"/><trkpt lat="-33.8585884" lon="151.201823"/><trkpt lat="-33.8586086" lon="151.2018838"/><trkpt lat="-33.8586354" lon="151.2019365"/><trkpt lat="-33.8586763" lon="151.2019734"/><trkpt lat="-33.858699" lon="151.2019925"/><trkpt lat="-33.8587228" lon="151.2020076"/><trkpt lat="-33.8587548" lon="151.2020277"/><trkpt lat="-33.8587824" lon="151.2020559"/><trkpt lat="-33.8588158" lon="151.2021021"/><trkpt lat="-33.858839" lon="151.2021233"/><trkpt lat="-33.8588529" lon="151.2021339"/><trkpt lat="-33.8588773" lon="151.2021512"/><trkpt lat="-33.8589088" lon="151.20216"/><trkpt lat="-33.8589518" lon="151.202162"/><trkpt lat="-33.8589917" lon="151.2021567"/><trkpt lat="-33.8590363" lon="151.2021384"/><trkpt lat="-33.8590665" lon="151.2021184"/><trkpt lat="-33.8590933" lon="151.2020883"/><trkpt lat="-33.8591144" lon="151.2020446"/><trkpt lat="-33.8591433" lon="151.2020042"/><trkpt lat="-33.8591686" lon="151.2019821"/><trkpt lat="-33.8591961" lon="151.201968"/><trkpt lat="-33.8592267" lon="151.2019593"/><trkpt lat="-33.8592562" lon="151.2019559"/><trkpt lat="-33.8593186" lon="151.2019452"/><trkpt lat="-33.8593481" lon="151.201931"/><trkpt lat="-33.8593764" lon="151.2019088"/><trkpt lat="-33.8594023" lon="151.2018791"/><trkpt lat="-33.8594297" lon="151.2018447"/><trkpt lat="-33.8594425" lon="151.2018199"/><trkpt lat="-33.859451" lon="151.2017937"/><trkpt lat="-33.8594957" lon="151.2015748"/><trkpt lat="-33.8595121" lon="151.2014885"/><trkpt lat="-33.8596201" lon="151.2009189"/><trkpt lat="-33.8596358" lon="151.2008363"/><trkpt lat="-33.8596814" lon="151.2006951"/><trkpt lat="-33.8597438" lon="151.2006068"/><trkpt lat="-33.8598239" lon="151.2005331"/><trkpt lat="-33.85986" lon="151.200513"/><trkpt lat="-33.8599241" lon="151.2004866"/><trkpt lat="-33.8600325" lon="151.2004658"/><trkpt lat="-33.8601317" lon="151.2004676"/><trkpt lat="-33.860314" lon="151.2004869"/><trkpt lat="-33.8604303" lon="151.2004993"/><trkpt lat="-33.8605493" lon="151.2005119"/><trkpt lat="-33.8608225" lon="151.2005412"/><trkpt lat="-33.8610468" lon="151.2005646"/><trkpt lat="-33.8614016" lon="151.2006017"/><trkpt lat="-33.8616477" lon="151.2006274"/><trkpt lat="-33.8616628" lon="151.2006299"/><trkpt lat="-33.8617127" lon="151.2006379"/><trkpt lat="-33.8620915" lon="151.2006738"/><trkpt lat="-33.8625858" lon="151.2007331"/><trkpt lat="-33.8629211" lon="151.2007634"/><trkpt lat="-33.8629966" lon="151.2009495"/><trkpt lat="-33.862989" lon="151.2010077"/><trkpt lat="-33.8630086" lon="151.2010626"/><trkpt lat="-33.863045" lon="151.2011287"/><trkpt lat="-33.8630764" lon="151.201166"/><trkpt lat="-33.8631094" lon="151.201196"/><trkpt lat="-33.8631586" lon="151.2012278"/><trkpt lat="-33.8632123" lon="151.2012562"/><trkpt lat="-33.8632678" lon="151.2012744"/><trkpt lat="-33.8634046" lon="151.2012894"/><trkpt lat="-33.863468" lon="151.2012923"/><trkpt lat="-33.863543" lon="151.2012781"/><trkpt lat="-33.8636217" lon="151.2012448"/><trkpt lat="-33.8637024" lon="151.2011947"/><trkpt lat="-33.8637821" lon="151.2011317"/><trkpt lat="-33.8638073" lon="151.2010828"/><trkpt lat="-33.8638155" lon="151.2010283"/><trkpt lat="-33.8641439" lon="151.2010639"/><trkpt lat="-33.8646325" lon="151.2011179"/><trkpt lat="-33.8652074" lon="151.2011803"/><trkpt lat="-33.8655187" lon="151.2012177"/><trkpt lat="-33.8658" lon="151.2012482"/><trkpt lat="-33.8658629" lon="151.201255"/></trkseg></trk></gpx>